,code,name,submun,city,province,address
0,130000000,NATIONAL CAPITAL REGION (NCR),,,,NATIONAL CAPITAL REGION (NCR)
1,133900000,CITY OF MANILA,,,Metro Manila,"CITY OF MANILA,Metro Manila"
2,133901000,TONDO,,Manila,Metro Manila,"TONDO,Manila,Metro Manila"
3,133901001,Barangay 1,Tondo,Manila,Metro Manila,"Barangay 1,Tondo,Manila,Metro Manila"
4,133901002,Barangay 2,Tondo,Manila,Metro Manila,"Barangay 2,Tondo,Manila,Metro Manila"
5,133901003,Barangay 3,Tondo,Manila,Metro Manila,"Barangay 3,Tondo,Manila,Metro Manila"
6,133901004,Barangay 4,Tondo,Manila,Metro Manila,"Barangay 4,Tondo,Manila,Metro Manila"
7,133901005,Barangay 5,Tondo,Manila,Metro Manila,"Barangay 5,Tondo,Manila,Metro Manila"
8,133901006,Barangay 6,Tondo,Manila,Metro Manila,"Barangay 6,Tondo,Manila,Metro Manila"
9,133901007,Barangay 7,Tondo,Manila,Metro Manila,"Barangay 7,Tondo,Manila,Metro Manila"
10,133901008,Barangay 8,Tondo,Manila,Metro Manila,"Barangay 8,Tondo,Manila,Metro Manila"
11,133901009,Barangay 9,Tondo,Manila,Metro Manila,"Barangay 9,Tondo,Manila,Metro Manila"
12,133901010,Barangay 10,Tondo,Manila,Metro Manila,"Barangay 10,Tondo,Manila,Metro Manila"
13,133901011,Barangay 11,Tondo,Manila,Metro Manila,"Barangay 11,Tondo,Manila,Metro Manila"
14,133901012,Barangay 12,Tondo,Manila,Metro Manila,"Barangay 12,Tondo,Manila,Metro Manila"
15,133901013,Barangay 13,Tondo,Manila,Metro Manila,"Barangay 13,Tondo,Manila,Metro Manila"
16,133901014,Barangay 14,Tondo,Manila,Metro Manila,"Barangay 14,Tondo,Manila,Metro Manila"
17,133901015,Barangay 15,Tondo,Manila,Metro Manila,"Barangay 15,Tondo,Manila,Metro Manila"
18,133901016,Barangay 16,Tondo,Manila,Metro Manila,"Barangay 16,Tondo,Manila,Metro Manila"
19,133901017,Barangay 17,Tondo,Manila,Metro Manila,"Barangay 17,Tondo,Manila,Metro Manila"
20,133901018,Barangay 18,Tondo,Manila,Metro Manila,"Barangay 18,Tondo,Manila,Metro Manila"
21,133901019,Barangay 19,Tondo,Manila,Metro Manila,"Barangay 19,Tondo,Manila,Metro Manila"
22,133901020,Barangay 20,Tondo,Manila,Metro Manila,"Barangay 20,Tondo,Manila,Metro Manila"
23,133901025,Barangay 25,Tondo,Manila,Metro Manila,"Barangay 25,Tondo,Manila,Metro Manila"
24,133901026,Barangay 26,Tondo,Manila,Metro Manila,"Barangay 26,Tondo,Manila,Metro Manila"
25,133901028,Barangay 28,Tondo,Manila,Metro Manila,"Barangay 28,Tondo,Manila,Metro Manila"
26,133901029,Barangay 29,Tondo,Manila,Metro Manila,"Barangay 29,Tondo,Manila,Metro Manila"
27,133901030,Barangay 30,Tondo,Manila,Metro Manila,"Barangay 30,Tondo,Manila,Metro Manila"
28,133901031,Barangay 31,Tondo,Manila,Metro Manila,"Barangay 31,Tondo,Manila,Metro Manila"
29,133901032,Barangay 32,Tondo,Manila,Metro Manila,"Barangay 32,Tondo,Manila,Metro Manila"
30,133901033,Barangay 33,Tondo,Manila,Metro Manila,"Barangay 33,Tondo,Manila,Metro Manila"
31,133901034,Barangay 34,Tondo,Manila,Metro Manila,"Barangay 34,Tondo,Manila,Metro Manila"
32,133901035,Barangay 35,Tondo,Manila,Metro Manila,"Barangay 35,Tondo,Manila,Metro Manila"
33,133901036,Barangay 36,Tondo,Manila,Metro Manila,"Barangay 36,Tondo,Manila,Metro Manila"
34,133901037,Barangay 37,Tondo,Manila,Metro Manila,"Barangay 37,Tondo,Manila,Metro Manila"
35,133901038,Barangay 38,Tondo,Manila,Metro Manila,"Barangay 38,Tondo,Manila,Metro Manila"
36,133901039,Barangay 39,Tondo,Manila,Metro Manila,"Barangay 39,Tondo,Manila,Metro Manila"
37,133901041,Barangay 41,Tondo,Manila,Metro Manila,"Barangay 41,Tondo,Manila,Metro Manila"
38,133901042,Barangay 42,Tondo,Manila,Metro Manila,"Barangay 42,Tondo,Manila,Metro Manila"
39,133901043,Barangay 43,Tondo,Manila,Metro Manila,"Barangay 43,Tondo,Manila,Metro Manila"
40,133901044,Barangay 44,Tondo,Manila,Metro Manila,"Barangay 44,Tondo,Manila,Metro Manila"
41,133901045,Barangay 45,Tondo,Manila,Metro Manila,"Barangay 45,Tondo,Manila,Metro Manila"
42,133901046,Barangay 46,Tondo,Manila,Metro Manila,"Barangay 46,Tondo,Manila,Metro Manila"
43,133901047,Barangay 47,Tondo,Manila,Metro Manila,"Barangay 47,Tondo,Manila,Metro Manila"
44,133901048,Barangay 48,Tondo,Manila,Metro Manila,"Barangay 48,Tondo,Manila,Metro Manila"
45,133901049,Barangay 49,Tondo,Manila,Metro Manila,"Barangay 49,Tondo,Manila,Metro Manila"
46,133901050,Barangay 50,Tondo,Manila,Metro Manila,"Barangay 50,Tondo,Manila,Metro Manila"
47,133901051,Barangay 51,Tondo,Manila,Metro Manila,"Barangay 51,Tondo,Manila,Metro Manila"
48,133901052,Barangay 52,Tondo,Manila,Metro Manila,"Barangay 52,Tondo,Manila,Metro Manila"
49,133901053,Barangay 53,Tondo,Manila,Metro Manila,"Barangay 53,Tondo,Manila,Metro Manila"
50,133901054,Barangay 54,Tondo,Manila,Metro Manila,"Barangay 54,Tondo,Manila,Metro Manila"
51,133901055,Barangay 55,Tondo,Manila,Metro Manila,"Barangay 55,Tondo,Manila,Metro Manila"
52,133901056,Barangay 56,Tondo,Manila,Metro Manila,"Barangay 56,Tondo,Manila,Metro Manila"
53,133901057,Barangay 57,Tondo,Manila,Metro Manila,"Barangay 57,Tondo,Manila,Metro Manila"
54,133901058,Barangay 58,Tondo,Manila,Metro Manila,"Barangay 58,Tondo,Manila,Metro Manila"
55,133901059,Barangay 59,Tondo,Manila,Metro Manila,"Barangay 59,Tondo,Manila,Metro Manila"
56,133901060,Barangay 60,Tondo,Manila,Metro Manila,"Barangay 60,Tondo,Manila,Metro Manila"
57,133901061,Barangay 61,Tondo,Manila,Metro Manila,"Barangay 61,Tondo,Manila,Metro Manila"
58,133901062,Barangay 62,Tondo,Manila,Metro Manila,"Barangay 62,Tondo,Manila,Metro Manila"
59,133901063,Barangay 63,Tondo,Manila,Metro Manila,"Barangay 63,Tondo,Manila,Metro Manila"
60,133901064,Barangay 64,Tondo,Manila,Metro Manila,"Barangay 64,Tondo,Manila,Metro Manila"
61,133901065,Barangay 65,Tondo,Manila,Metro Manila,"Barangay 65,Tondo,Manila,Metro Manila"
62,133901066,Barangay 66,Tondo,Manila,Metro Manila,"Barangay 66,Tondo,Manila,Metro Manila"
63,133901067,Barangay 67,Tondo,Manila,Metro Manila,"Barangay 67,Tondo,Manila,Metro Manila"
64,133901068,Barangay 68,Tondo,Manila,Metro Manila,"Barangay 68,Tondo,Manila,Metro Manila"
65,133901069,Barangay 69,Tondo,Manila,Metro Manila,"Barangay 69,Tondo,Manila,Metro Manila"
66,133901070,Barangay 70,Tondo,Manila,Metro Manila,"Barangay 70,Tondo,Manila,Metro Manila"
67,133901071,Barangay 71,Tondo,Manila,Metro Manila,"Barangay 71,Tondo,Manila,Metro Manila"
68,133901072,Barangay 72,Tondo,Manila,Metro Manila,"Barangay 72,Tondo,Manila,Metro Manila"
69,133901073,Barangay 73,Tondo,Manila,Metro Manila,"Barangay 73,Tondo,Manila,Metro Manila"
70,133901074,Barangay 74,Tondo,Manila,Metro Manila,"Barangay 74,Tondo,Manila,Metro Manila"
71,133901075,Barangay 75,Tondo,Manila,Metro Manila,"Barangay 75,Tondo,Manila,Metro Manila"
72,133901076,Barangay 76,Tondo,Manila,Metro Manila,"Barangay 76,Tondo,Manila,Metro Manila"
73,133901077,Barangay 77,Tondo,Manila,Metro Manila,"Barangay 77,Tondo,Manila,Metro Manila"
74,133901078,Barangay 78,Tondo,Manila,Metro Manila,"Barangay 78,Tondo,Manila,Metro Manila"
75,133901079,Barangay 79,Tondo,Manila,Metro Manila,"Barangay 79,Tondo,Manila,Metro Manila"
76,133901080,Barangay 80,Tondo,Manila,Metro Manila,"Barangay 80,Tondo,Manila,Metro Manila"
77,133901081,Barangay 81,Tondo,Manila,Metro Manila,"Barangay 81,Tondo,Manila,Metro Manila"
78,133901082,Barangay 82,Tondo,Manila,Metro Manila,"Barangay 82,Tondo,Manila,Metro Manila"
79,133901083,Barangay 83,Tondo,Manila,Metro Manila,"Barangay 83,Tondo,Manila,Metro Manila"
80,133901084,Barangay 84,Tondo,Manila,Metro Manila,"Barangay 84,Tondo,Manila,Metro Manila"
81,133901085,Barangay 85,Tondo,Manila,Metro Manila,"Barangay 85,Tondo,Manila,Metro Manila"
82,133901086,Barangay 86,Tondo,Manila,Metro Manila,"Barangay 86,Tondo,Manila,Metro Manila"
83,133901087,Barangay 87,Tondo,Manila,Metro Manila,"Barangay 87,Tondo,Manila,Metro Manila"
84,133901088,Barangay 88,Tondo,Manila,Metro Manila,"Barangay 88,Tondo,Manila,Metro Manila"
85,133901089,Barangay 89,Tondo,Manila,Metro Manila,"Barangay 89,Tondo,Manila,Metro Manila"
86,133901090,Barangay 90,Tondo,Manila,Metro Manila,"Barangay 90,Tondo,Manila,Metro Manila"
87,133901091,Barangay 91,Tondo,Manila,Metro Manila,"Barangay 91,Tondo,Manila,Metro Manila"
88,133901092,Barangay 92,Tondo,Manila,Metro Manila,"Barangay 92,Tondo,Manila,Metro Manila"
89,133901093,Barangay 93,Tondo,Manila,Metro Manila,"Barangay 93,Tondo,Manila,Metro Manila"
90,133901094,Barangay 94,Tondo,Manila,Metro Manila,"Barangay 94,Tondo,Manila,Metro Manila"
91,133901095,Barangay 95,Tondo,Manila,Metro Manila,"Barangay 95,Tondo,Manila,Metro Manila"
92,133901096,Barangay 96,Tondo,Manila,Metro Manila,"Barangay 96,Tondo,Manila,Metro Manila"
93,133901097,Barangay 97,Tondo,Manila,Metro Manila,"Barangay 97,Tondo,Manila,Metro Manila"
94,133901098,Barangay 98,Tondo,Manila,Metro Manila,"Barangay 98,Tondo,Manila,Metro Manila"
95,133901099,Barangay 99,Tondo,Manila,Metro Manila,"Barangay 99,Tondo,Manila,Metro Manila"
96,133901100,Barangay 100,Tondo,Manila,Metro Manila,"Barangay 100,Tondo,Manila,Metro Manila"
97,133901101,Barangay 101,Tondo,Manila,Metro Manila,"Barangay 101,Tondo,Manila,Metro Manila"
98,133901102,Barangay 102,Tondo,Manila,Metro Manila,"Barangay 102,Tondo,Manila,Metro Manila"
99,133901103,Barangay 103,Tondo,Manila,Metro Manila,"Barangay 103,Tondo,Manila,Metro Manila"
100,133901104,Barangay 104,Tondo,Manila,Metro Manila,"Barangay 104,Tondo,Manila,Metro Manila"
101,133901105,Barangay 105,Tondo,Manila,Metro Manila,"Barangay 105,Tondo,Manila,Metro Manila"
102,133901106,Barangay 106,Tondo,Manila,Metro Manila,"Barangay 106,Tondo,Manila,Metro Manila"
103,133901107,Barangay 107,Tondo,Manila,Metro Manila,"Barangay 107,Tondo,Manila,Metro Manila"
104,133901108,Barangay 108,Tondo,Manila,Metro Manila,"Barangay 108,Tondo,Manila,Metro Manila"
105,133901109,Barangay 109,Tondo,Manila,Metro Manila,"Barangay 109,Tondo,Manila,Metro Manila"
106,133901110,Barangay 110,Tondo,Manila,Metro Manila,"Barangay 110,Tondo,Manila,Metro Manila"
107,133901111,Barangay 111,Tondo,Manila,Metro Manila,"Barangay 111,Tondo,Manila,Metro Manila"
108,133901112,Barangay 112,Tondo,Manila,Metro Manila,"Barangay 112,Tondo,Manila,Metro Manila"
109,133901116,Barangay 116,Tondo,Manila,Metro Manila,"Barangay 116,Tondo,Manila,Metro Manila"
110,133901117,Barangay 117,Tondo,Manila,Metro Manila,"Barangay 117,Tondo,Manila,Metro Manila"
111,133901118,Barangay 118,Tondo,Manila,Metro Manila,"Barangay 118,Tondo,Manila,Metro Manila"
112,133901119,Barangay 119,Tondo,Manila,Metro Manila,"Barangay 119,Tondo,Manila,Metro Manila"
113,133901120,Barangay 120,Tondo,Manila,Metro Manila,"Barangay 120,Tondo,Manila,Metro Manila"
114,133901121,Barangay 121,Tondo,Manila,Metro Manila,"Barangay 121,Tondo,Manila,Metro Manila"
115,133901122,Barangay 122,Tondo,Manila,Metro Manila,"Barangay 122,Tondo,Manila,Metro Manila"
116,133901123,Barangay 123,Tondo,Manila,Metro Manila,"Barangay 123,Tondo,Manila,Metro Manila"
117,133901124,Barangay 124,Tondo,Manila,Metro Manila,"Barangay 124,Tondo,Manila,Metro Manila"
118,133901125,Barangay 125,Tondo,Manila,Metro Manila,"Barangay 125,Tondo,Manila,Metro Manila"
119,133901126,Barangay 126,Tondo,Manila,Metro Manila,"Barangay 126,Tondo,Manila,Metro Manila"
120,133901127,Barangay 127,Tondo,Manila,Metro Manila,"Barangay 127,Tondo,Manila,Metro Manila"
121,133901128,Barangay 128,Tondo,Manila,Metro Manila,"Barangay 128,Tondo,Manila,Metro Manila"
122,133901129,Barangay 129,Tondo,Manila,Metro Manila,"Barangay 129,Tondo,Manila,Metro Manila"
123,133901130,Barangay 130,Tondo,Manila,Metro Manila,"Barangay 130,Tondo,Manila,Metro Manila"
124,133901131,Barangay 131,Tondo,Manila,Metro Manila,"Barangay 131,Tondo,Manila,Metro Manila"
125,133901132,Barangay 132,Tondo,Manila,Metro Manila,"Barangay 132,Tondo,Manila,Metro Manila"
126,133901133,Barangay 133,Tondo,Manila,Metro Manila,"Barangay 133,Tondo,Manila,Metro Manila"
127,133901134,Barangay 134,Tondo,Manila,Metro Manila,"Barangay 134,Tondo,Manila,Metro Manila"
128,133901135,Barangay 135,Tondo,Manila,Metro Manila,"Barangay 135,Tondo,Manila,Metro Manila"
129,133901136,Barangay 136,Tondo,Manila,Metro Manila,"Barangay 136,Tondo,Manila,Metro Manila"
130,133901137,Barangay 137,Tondo,Manila,Metro Manila,"Barangay 137,Tondo,Manila,Metro Manila"
131,133901138,Barangay 138,Tondo,Manila,Metro Manila,"Barangay 138,Tondo,Manila,Metro Manila"
132,133901139,Barangay 139,Tondo,Manila,Metro Manila,"Barangay 139,Tondo,Manila,Metro Manila"
133,133901140,Barangay 140,Tondo,Manila,Metro Manila,"Barangay 140,Tondo,Manila,Metro Manila"
134,133901141,Barangay 141,Tondo,Manila,Metro Manila,"Barangay 141,Tondo,Manila,Metro Manila"
135,133901142,Barangay 142,Tondo,Manila,Metro Manila,"Barangay 142,Tondo,Manila,Metro Manila"
136,133901143,Barangay 143,Tondo,Manila,Metro Manila,"Barangay 143,Tondo,Manila,Metro Manila"
137,133901144,Barangay 144,Tondo,Manila,Metro Manila,"Barangay 144,Tondo,Manila,Metro Manila"
138,133901145,Barangay 145,Tondo,Manila,Metro Manila,"Barangay 145,Tondo,Manila,Metro Manila"
139,133901146,Barangay 146,Tondo,Manila,Metro Manila,"Barangay 146,Tondo,Manila,Metro Manila"
140,133901147,Barangay 147,Tondo,Manila,Metro Manila,"Barangay 147,Tondo,Manila,Metro Manila"
141,133901148,Barangay 148,Tondo,Manila,Metro Manila,"Barangay 148,Tondo,Manila,Metro Manila"
142,133901149,Barangay 149,Tondo,Manila,Metro Manila,"Barangay 149,Tondo,Manila,Metro Manila"
143,133901150,Barangay 150,Tondo,Manila,Metro Manila,"Barangay 150,Tondo,Manila,Metro Manila"
144,133901151,Barangay 151,Tondo,Manila,Metro Manila,"Barangay 151,Tondo,Manila,Metro Manila"
145,133901152,Barangay 152,Tondo,Manila,Metro Manila,"Barangay 152,Tondo,Manila,Metro Manila"
146,133901153,Barangay 153,Tondo,Manila,Metro Manila,"Barangay 153,Tondo,Manila,Metro Manila"
147,133901154,Barangay 154,Tondo,Manila,Metro Manila,"Barangay 154,Tondo,Manila,Metro Manila"
148,133901155,Barangay 155,Tondo,Manila,Metro Manila,"Barangay 155,Tondo,Manila,Metro Manila"
149,133901156,Barangay 156,Tondo,Manila,Metro Manila,"Barangay 156,Tondo,Manila,Metro Manila"
150,133901157,Barangay 157,Tondo,Manila,Metro Manila,"Barangay 157,Tondo,Manila,Metro Manila"
151,133901158,Barangay 158,Tondo,Manila,Metro Manila,"Barangay 158,Tondo,Manila,Metro Manila"
152,133901159,Barangay 159,Tondo,Manila,Metro Manila,"Barangay 159,Tondo,Manila,Metro Manila"
153,133901160,Barangay 160,Tondo,Manila,Metro Manila,"Barangay 160,Tondo,Manila,Metro Manila"
154,133901161,Barangay 161,Tondo,Manila,Metro Manila,"Barangay 161,Tondo,Manila,Metro Manila"
155,133901162,Barangay 162,Tondo,Manila,Metro Manila,"Barangay 162,Tondo,Manila,Metro Manila"
156,133901163,Barangay 163,Tondo,Manila,Metro Manila,"Barangay 163,Tondo,Manila,Metro Manila"
157,133901164,Barangay 164,Tondo,Manila,Metro Manila,"Barangay 164,Tondo,Manila,Metro Manila"
158,133901165,Barangay 165,Tondo,Manila,Metro Manila,"Barangay 165,Tondo,Manila,Metro Manila"
159,133901166,Barangay 166,Tondo,Manila,Metro Manila,"Barangay 166,Tondo,Manila,Metro Manila"
160,133901167,Barangay 167,Tondo,Manila,Metro Manila,"Barangay 167,Tondo,Manila,Metro Manila"
161,133901168,Barangay 168,Tondo,Manila,Metro Manila,"Barangay 168,Tondo,Manila,Metro Manila"
162,133901169,Barangay 169,Tondo,Manila,Metro Manila,"Barangay 169,Tondo,Manila,Metro Manila"
163,133901170,Barangay 170,Tondo,Manila,Metro Manila,"Barangay 170,Tondo,Manila,Metro Manila"
164,133901171,Barangay 171,Tondo,Manila,Metro Manila,"Barangay 171,Tondo,Manila,Metro Manila"
165,133901172,Barangay 172,Tondo,Manila,Metro Manila,"Barangay 172,Tondo,Manila,Metro Manila"
166,133901173,Barangay 173,Tondo,Manila,Metro Manila,"Barangay 173,Tondo,Manila,Metro Manila"
167,133901174,Barangay 174,Tondo,Manila,Metro Manila,"Barangay 174,Tondo,Manila,Metro Manila"
168,133901175,Barangay 175,Tondo,Manila,Metro Manila,"Barangay 175,Tondo,Manila,Metro Manila"
169,133901176,Barangay 176,Tondo,Manila,Metro Manila,"Barangay 176,Tondo,Manila,Metro Manila"
170,133901177,Barangay 177,Tondo,Manila,Metro Manila,"Barangay 177,Tondo,Manila,Metro Manila"
171,133901178,Barangay 178,Tondo,Manila,Metro Manila,"Barangay 178,Tondo,Manila,Metro Manila"
172,133901179,Barangay 179,Tondo,Manila,Metro Manila,"Barangay 179,Tondo,Manila,Metro Manila"
173,133901180,Barangay 180,Tondo,Manila,Metro Manila,"Barangay 180,Tondo,Manila,Metro Manila"
174,133901181,Barangay 181,Tondo,Manila,Metro Manila,"Barangay 181,Tondo,Manila,Metro Manila"
175,133901182,Barangay 182,Tondo,Manila,Metro Manila,"Barangay 182,Tondo,Manila,Metro Manila"
176,133901183,Barangay 183,Tondo,Manila,Metro Manila,"Barangay 183,Tondo,Manila,Metro Manila"
177,133901184,Barangay 184,Tondo,Manila,Metro Manila,"Barangay 184,Tondo,Manila,Metro Manila"
178,133901185,Barangay 185,Tondo,Manila,Metro Manila,"Barangay 185,Tondo,Manila,Metro Manila"
179,133901186,Barangay 186,Tondo,Manila,Metro Manila,"Barangay 186,Tondo,Manila,Metro Manila"
180,133901187,Barangay 187,Tondo,Manila,Metro Manila,"Barangay 187,Tondo,Manila,Metro Manila"
181,133901188,Barangay 188,Tondo,Manila,Metro Manila,"Barangay 188,Tondo,Manila,Metro Manila"
182,133901189,Barangay 189,Tondo,Manila,Metro Manila,"Barangay 189,Tondo,Manila,Metro Manila"
183,133901190,Barangay 190,Tondo,Manila,Metro Manila,"Barangay 190,Tondo,Manila,Metro Manila"
184,133901191,Barangay 191,Tondo,Manila,Metro Manila,"Barangay 191,Tondo,Manila,Metro Manila"
185,133901192,Barangay 192,Tondo,Manila,Metro Manila,"Barangay 192,Tondo,Manila,Metro Manila"
186,133901193,Barangay 193,Tondo,Manila,Metro Manila,"Barangay 193,Tondo,Manila,Metro Manila"
187,133901194,Barangay 194,Tondo,Manila,Metro Manila,"Barangay 194,Tondo,Manila,Metro Manila"
188,133901195,Barangay 195,Tondo,Manila,Metro Manila,"Barangay 195,Tondo,Manila,Metro Manila"
189,133901196,Barangay 196,Tondo,Manila,Metro Manila,"Barangay 196,Tondo,Manila,Metro Manila"
190,133901197,Barangay 197,Tondo,Manila,Metro Manila,"Barangay 197,Tondo,Manila,Metro Manila"
191,133901198,Barangay 198,Tondo,Manila,Metro Manila,"Barangay 198,Tondo,Manila,Metro Manila"
192,133901199,Barangay 199,Tondo,Manila,Metro Manila,"Barangay 199,Tondo,Manila,Metro Manila"
193,133901200,Barangay 200,Tondo,Manila,Metro Manila,"Barangay 200,Tondo,Manila,Metro Manila"
194,133901201,Barangay 201,Tondo,Manila,Metro Manila,"Barangay 201,Tondo,Manila,Metro Manila"
195,133901202,Barangay 202,Tondo,Manila,Metro Manila,"Barangay 202,Tondo,Manila,Metro Manila"
196,133901203,Barangay 202-A,Tondo,Manila,Metro Manila,"Barangay 202-A,Tondo,Manila,Metro Manila"
197,133901204,Barangay 203,Tondo,Manila,Metro Manila,"Barangay 203,Tondo,Manila,Metro Manila"
198,133901205,Barangay 204,Tondo,Manila,Metro Manila,"Barangay 204,Tondo,Manila,Metro Manila"
199,133901206,Barangay 205,Tondo,Manila,Metro Manila,"Barangay 205,Tondo,Manila,Metro Manila"
200,133901207,Barangay 206,Tondo,Manila,Metro Manila,"Barangay 206,Tondo,Manila,Metro Manila"
201,133901208,Barangay 207,Tondo,Manila,Metro Manila,"Barangay 207,Tondo,Manila,Metro Manila"
202,133901209,Barangay 208,Tondo,Manila,Metro Manila,"Barangay 208,Tondo,Manila,Metro Manila"
203,133901210,Barangay 209,Tondo,Manila,Metro Manila,"Barangay 209,Tondo,Manila,Metro Manila"
204,133901211,Barangay 210,Tondo,Manila,Metro Manila,"Barangay 210,Tondo,Manila,Metro Manila"
205,133901212,Barangay 211,Tondo,Manila,Metro Manila,"Barangay 211,Tondo,Manila,Metro Manila"
206,133901213,Barangay 212,Tondo,Manila,Metro Manila,"Barangay 212,Tondo,Manila,Metro Manila"
207,133901214,Barangay 213,Tondo,Manila,Metro Manila,"Barangay 213,Tondo,Manila,Metro Manila"
208,133901215,Barangay 214,Tondo,Manila,Metro Manila,"Barangay 214,Tondo,Manila,Metro Manila"
209,133901216,Barangay 215,Tondo,Manila,Metro Manila,"Barangay 215,Tondo,Manila,Metro Manila"
210,133901217,Barangay 216,Tondo,Manila,Metro Manila,"Barangay 216,Tondo,Manila,Metro Manila"
211,133901218,Barangay 217,Tondo,Manila,Metro Manila,"Barangay 217,Tondo,Manila,Metro Manila"
212,133901219,Barangay 218,Tondo,Manila,Metro Manila,"Barangay 218,Tondo,Manila,Metro Manila"
213,133901220,Barangay 219,Tondo,Manila,Metro Manila,"Barangay 219,Tondo,Manila,Metro Manila"
214,133901221,Barangay 220,Tondo,Manila,Metro Manila,"Barangay 220,Tondo,Manila,Metro Manila"
215,133901222,Barangay 221,Tondo,Manila,Metro Manila,"Barangay 221,Tondo,Manila,Metro Manila"
216,133901223,Barangay 222,Tondo,Manila,Metro Manila,"Barangay 222,Tondo,Manila,Metro Manila"
217,133901224,Barangay 223,Tondo,Manila,Metro Manila,"Barangay 223,Tondo,Manila,Metro Manila"
218,133901225,Barangay 224,Tondo,Manila,Metro Manila,"Barangay 224,Tondo,Manila,Metro Manila"
219,133901226,Barangay 225,Tondo,Manila,Metro Manila,"Barangay 225,Tondo,Manila,Metro Manila"
220,133901227,Barangay 226,Tondo,Manila,Metro Manila,"Barangay 226,Tondo,Manila,Metro Manila"
221,133901228,Barangay 227,Tondo,Manila,Metro Manila,"Barangay 227,Tondo,Manila,Metro Manila"
222,133901229,Barangay 228,Tondo,Manila,Metro Manila,"Barangay 228,Tondo,Manila,Metro Manila"
223,133901230,Barangay 229,Tondo,Manila,Metro Manila,"Barangay 229,Tondo,Manila,Metro Manila"
224,133901231,Barangay 230,Tondo,Manila,Metro Manila,"Barangay 230,Tondo,Manila,Metro Manila"
225,133901232,Barangay 231,Tondo,Manila,Metro Manila,"Barangay 231,Tondo,Manila,Metro Manila"
226,133901233,Barangay 232,Tondo,Manila,Metro Manila,"Barangay 232,Tondo,Manila,Metro Manila"
227,133901234,Barangay 233,Tondo,Manila,Metro Manila,"Barangay 233,Tondo,Manila,Metro Manila"
228,133901235,Barangay 234,Tondo,Manila,Metro Manila,"Barangay 234,Tondo,Manila,Metro Manila"
229,133901236,Barangay 235,Tondo,Manila,Metro Manila,"Barangay 235,Tondo,Manila,Metro Manila"
230,133901237,Barangay 236,Tondo,Manila,Metro Manila,"Barangay 236,Tondo,Manila,Metro Manila"
231,133901238,Barangay 237,Tondo,Manila,Metro Manila,"Barangay 237,Tondo,Manila,Metro Manila"
232,133901239,Barangay 238,Tondo,Manila,Metro Manila,"Barangay 238,Tondo,Manila,Metro Manila"
233,133901240,Barangay 239,Tondo,Manila,Metro Manila,"Barangay 239,Tondo,Manila,Metro Manila"
234,133901241,Barangay 240,Tondo,Manila,Metro Manila,"Barangay 240,Tondo,Manila,Metro Manila"
235,133901242,Barangay 241,Tondo,Manila,Metro Manila,"Barangay 241,Tondo,Manila,Metro Manila"
236,133901243,Barangay 242,Tondo,Manila,Metro Manila,"Barangay 242,Tondo,Manila,Metro Manila"
237,133901244,Barangay 243,Tondo,Manila,Metro Manila,"Barangay 243,Tondo,Manila,Metro Manila"
238,133901245,Barangay 244,Tondo,Manila,Metro Manila,"Barangay 244,Tondo,Manila,Metro Manila"
239,133901246,Barangay 245,Tondo,Manila,Metro Manila,"Barangay 245,Tondo,Manila,Metro Manila"
240,133901247,Barangay 246,Tondo,Manila,Metro Manila,"Barangay 246,Tondo,Manila,Metro Manila"
241,133901248,Barangay 247,Tondo,Manila,Metro Manila,"Barangay 247,Tondo,Manila,Metro Manila"
242,133901249,Barangay 248,Tondo,Manila,Metro Manila,"Barangay 248,Tondo,Manila,Metro Manila"
243,133901250,Barangay 249,Tondo,Manila,Metro Manila,"Barangay 249,Tondo,Manila,Metro Manila"
244,133901251,Barangay 250,Tondo,Manila,Metro Manila,"Barangay 250,Tondo,Manila,Metro Manila"
245,133901252,Barangay 251,Tondo,Manila,Metro Manila,"Barangay 251,Tondo,Manila,Metro Manila"
246,133901253,Barangay 252,Tondo,Manila,Metro Manila,"Barangay 252,Tondo,Manila,Metro Manila"
247,133901254,Barangay 253,Tondo,Manila,Metro Manila,"Barangay 253,Tondo,Manila,Metro Manila"
248,133901255,Barangay 254,Tondo,Manila,Metro Manila,"Barangay 254,Tondo,Manila,Metro Manila"
249,133901256,Barangay 255,Tondo,Manila,Metro Manila,"Barangay 255,Tondo,Manila,Metro Manila"
250,133901257,Barangay 256,Tondo,Manila,Metro Manila,"Barangay 256,Tondo,Manila,Metro Manila"
251,133901258,Barangay 257,Tondo,Manila,Metro Manila,"Barangay 257,Tondo,Manila,Metro Manila"
252,133901259,Barangay 258,Tondo,Manila,Metro Manila,"Barangay 258,Tondo,Manila,Metro Manila"
253,133901260,Barangay 259,Tondo,Manila,Metro Manila,"Barangay 259,Tondo,Manila,Metro Manila"
254,133901261,Barangay 260,Tondo,Manila,Metro Manila,"Barangay 260,Tondo,Manila,Metro Manila"
255,133901262,Barangay 261,Tondo,Manila,Metro Manila,"Barangay 261,Tondo,Manila,Metro Manila"
256,133901263,Barangay 262,Tondo,Manila,Metro Manila,"Barangay 262,Tondo,Manila,Metro Manila"
257,133901264,Barangay 263,Tondo,Manila,Metro Manila,"Barangay 263,Tondo,Manila,Metro Manila"
258,133901265,Barangay 264,Tondo,Manila,Metro Manila,"Barangay 264,Tondo,Manila,Metro Manila"
259,133901266,Barangay 265,Tondo,Manila,Metro Manila,"Barangay 265,Tondo,Manila,Metro Manila"
260,133901267,Barangay 266,Tondo,Manila,Metro Manila,"Barangay 266,Tondo,Manila,Metro Manila"
261,133901268,Barangay 267,Tondo,Manila,Metro Manila,"Barangay 267,Tondo,Manila,Metro Manila"
262,133902000,BINONDO,,SubMun,,"BINONDO,SubMun"
263,133902001,Barangay 287,Binondo,Manila,Metro Manila,"Barangay 287,Binondo,Manila,Metro Manila"
264,133902002,Barangay 288,Binondo,Manila,Metro Manila,"Barangay 288,Binondo,Manila,Metro Manila"
265,133902003,Barangay 289,Binondo,Manila,Metro Manila,"Barangay 289,Binondo,Manila,Metro Manila"
266,133902004,Barangay 290,Binondo,Manila,Metro Manila,"Barangay 290,Binondo,Manila,Metro Manila"
267,133902005,Barangay 291,Binondo,Manila,Metro Manila,"Barangay 291,Binondo,Manila,Metro Manila"
268,133902006,Barangay 292,Binondo,Manila,Metro Manila,"Barangay 292,Binondo,Manila,Metro Manila"
269,133902007,Barangay 293,Binondo,Manila,Metro Manila,"Barangay 293,Binondo,Manila,Metro Manila"
270,133902008,Barangay 294,Binondo,Manila,Metro Manila,"Barangay 294,Binondo,Manila,Metro Manila"
271,133902009,Barangay 295,Binondo,Manila,Metro Manila,"Barangay 295,Binondo,Manila,Metro Manila"
272,133902010,Barangay 296,Binondo,Manila,Metro Manila,"Barangay 296,Binondo,Manila,Metro Manila"
273,133903000,QUIAPO,,Manila,Metro Manila,"QUIAPO,Manila,Metro Manila"
274,133903003,Barangay 383,Quiapo,Manila,Metro Manila,"Barangay 383,Quiapo,Manila,Metro Manila"
275,133903004,Barangay 384,Quiapo,Manila,Metro Manila,"Barangay 384,Quiapo,Manila,Metro Manila"
276,133903005,Barangay 385,Quiapo,Manila,Metro Manila,"Barangay 385,Quiapo,Manila,Metro Manila"
277,133903006,Barangay 386,Quiapo,Manila,Metro Manila,"Barangay 386,Quiapo,Manila,Metro Manila"
278,133903007,Barangay 387,Quiapo,Manila,Metro Manila,"Barangay 387,Quiapo,Manila,Metro Manila"
279,133903008,Barangay 388,Quiapo,Manila,Metro Manila,"Barangay 388,Quiapo,Manila,Metro Manila"
280,133903009,Barangay 389,Quiapo,Manila,Metro Manila,"Barangay 389,Quiapo,Manila,Metro Manila"
281,133903010,Barangay 390,Quiapo,Manila,Metro Manila,"Barangay 390,Quiapo,Manila,Metro Manila"
282,133903011,Barangay 391,Quiapo,Manila,Metro Manila,"Barangay 391,Quiapo,Manila,Metro Manila"
283,133903012,Barangay 392,Quiapo,Manila,Metro Manila,"Barangay 392,Quiapo,Manila,Metro Manila"
284,133903013,Barangay 393,Quiapo,Manila,Metro Manila,"Barangay 393,Quiapo,Manila,Metro Manila"
285,133903014,Barangay 394,Quiapo,Manila,Metro Manila,"Barangay 394,Quiapo,Manila,Metro Manila"
286,133903015,Barangay 306,Quiapo,Manila,Metro Manila,"Barangay 306,Quiapo,Manila,Metro Manila"
287,133903016,Barangay 307,Quiapo,Manila,Metro Manila,"Barangay 307,Quiapo,Manila,Metro Manila"
288,133903017,Barangay 308,Quiapo,Manila,Metro Manila,"Barangay 308,Quiapo,Manila,Metro Manila"
289,133903018,Barangay 309,Quiapo,Manila,Metro Manila,"Barangay 309,Quiapo,Manila,Metro Manila"
290,133904000,SAN NICOLAS,,Manila,Metro Manila,"SAN NICOLAS,Manila,Metro Manila"
291,133904001,Barangay 268,San Nicolas,Manila,Metro Manila,"Barangay 268,San Nicolas,Manila,Metro Manila"
292,133904002,Barangay 269,San Nicolas,Manila,Metro Manila,"Barangay 269,San Nicolas,Manila,Metro Manila"
293,133904003,Barangay 270,San Nicolas,Manila,Metro Manila,"Barangay 270,San Nicolas,Manila,Metro Manila"
294,133904004,Barangay 271,San Nicolas,Manila,Metro Manila,"Barangay 271,San Nicolas,Manila,Metro Manila"
295,133904005,Barangay 272,San Nicolas,Manila,Metro Manila,"Barangay 272,San Nicolas,Manila,Metro Manila"
296,133904006,Barangay 273,San Nicolas,Manila,Metro Manila,"Barangay 273,San Nicolas,Manila,Metro Manila"
297,133904007,Barangay 274,San Nicolas,Manila,Metro Manila,"Barangay 274,San Nicolas,Manila,Metro Manila"
298,133904008,Barangay 275,San Nicolas,Manila,Metro Manila,"Barangay 275,San Nicolas,Manila,Metro Manila"
299,133904009,Barangay 276,San Nicolas,Manila,Metro Manila,"Barangay 276,San Nicolas,Manila,Metro Manila"
300,133904014,Barangay 281,San Nicolas,Manila,Metro Manila,"Barangay 281,San Nicolas,Manila,Metro Manila"
301,133904015,Barangay 282,San Nicolas,Manila,Metro Manila,"Barangay 282,San Nicolas,Manila,Metro Manila"
302,133904016,Barangay 283,San Nicolas,Manila,Metro Manila,"Barangay 283,San Nicolas,Manila,Metro Manila"
303,133904017,Barangay 284,San Nicolas,Manila,Metro Manila,"Barangay 284,San Nicolas,Manila,Metro Manila"
304,133904018,Barangay 285,San Nicolas,Manila,Metro Manila,"Barangay 285,San Nicolas,Manila,Metro Manila"
305,133904019,Barangay 286,San Nicolas,Manila,Metro Manila,"Barangay 286,San Nicolas,Manila,Metro Manila"
306,133905000,SANTA CRUZ,,SubMun,,"SANTA CRUZ,SubMun"
307,133905001,Barangay 297,Santa Cruz,Manila,Metro Manila,"Barangay 297,Santa Cruz,Manila,Metro Manila"
308,133905002,Barangay 298,Santa Cruz,Manila,Metro Manila,"Barangay 298,Santa Cruz,Manila,Metro Manila"
309,133905003,Barangay 299,Santa Cruz,Manila,Metro Manila,"Barangay 299,Santa Cruz,Manila,Metro Manila"
310,133905004,Barangay 300,Santa Cruz,Manila,Metro Manila,"Barangay 300,Santa Cruz,Manila,Metro Manila"
311,133905005,Barangay 301,Santa Cruz,Manila,Metro Manila,"Barangay 301,Santa Cruz,Manila,Metro Manila"
312,133905006,Barangay 302,Santa Cruz,Manila,Metro Manila,"Barangay 302,Santa Cruz,Manila,Metro Manila"
313,133905007,Barangay 303,Santa Cruz,Manila,Metro Manila,"Barangay 303,Santa Cruz,Manila,Metro Manila"
314,133905008,Barangay 304,Santa Cruz,Manila,Metro Manila,"Barangay 304,Santa Cruz,Manila,Metro Manila"
315,133905009,Barangay 305,Santa Cruz,Manila,Metro Manila,"Barangay 305,Santa Cruz,Manila,Metro Manila"
316,133905012,Barangay 310,Santa Cruz,Manila,Metro Manila,"Barangay 310,Santa Cruz,Manila,Metro Manila"
317,133905013,Barangay 311,Santa Cruz,Manila,Metro Manila,"Barangay 311,Santa Cruz,Manila,Metro Manila"
318,133905014,Barangay 312,Santa Cruz,Manila,Metro Manila,"Barangay 312,Santa Cruz,Manila,Metro Manila"
319,133905015,Barangay 313,Santa Cruz,Manila,Metro Manila,"Barangay 313,Santa Cruz,Manila,Metro Manila"
320,133905016,Barangay 314,Santa Cruz,Manila,Metro Manila,"Barangay 314,Santa Cruz,Manila,Metro Manila"
321,133905017,Barangay 315,Santa Cruz,Manila,Metro Manila,"Barangay 315,Santa Cruz,Manila,Metro Manila"
322,133905018,Barangay 316,Santa Cruz,Manila,Metro Manila,"Barangay 316,Santa Cruz,Manila,Metro Manila"
323,133905019,Barangay 317,Santa Cruz,Manila,Metro Manila,"Barangay 317,Santa Cruz,Manila,Metro Manila"
324,133905020,Barangay 318,Santa Cruz,Manila,Metro Manila,"Barangay 318,Santa Cruz,Manila,Metro Manila"
325,133905021,Barangay 319,Santa Cruz,Manila,Metro Manila,"Barangay 319,Santa Cruz,Manila,Metro Manila"
326,133905022,Barangay 320,Santa Cruz,Manila,Metro Manila,"Barangay 320,Santa Cruz,Manila,Metro Manila"
327,133905023,Barangay 321,Santa Cruz,Manila,Metro Manila,"Barangay 321,Santa Cruz,Manila,Metro Manila"
328,133905024,Barangay 322,Santa Cruz,Manila,Metro Manila,"Barangay 322,Santa Cruz,Manila,Metro Manila"
329,133905025,Barangay 323,Santa Cruz,Manila,Metro Manila,"Barangay 323,Santa Cruz,Manila,Metro Manila"
330,133905026,Barangay 324,Santa Cruz,Manila,Metro Manila,"Barangay 324,Santa Cruz,Manila,Metro Manila"
331,133905027,Barangay 325,Santa Cruz,Manila,Metro Manila,"Barangay 325,Santa Cruz,Manila,Metro Manila"
332,133905028,Barangay 326,Santa Cruz,Manila,Metro Manila,"Barangay 326,Santa Cruz,Manila,Metro Manila"
333,133905029,Barangay 327,Santa Cruz,Manila,Metro Manila,"Barangay 327,Santa Cruz,Manila,Metro Manila"
334,133905030,Barangay 328,Santa Cruz,Manila,Metro Manila,"Barangay 328,Santa Cruz,Manila,Metro Manila"
335,133905031,Barangay 329,Santa Cruz,Manila,Metro Manila,"Barangay 329,Santa Cruz,Manila,Metro Manila"
336,133905032,Barangay 330,Santa Cruz,Manila,Metro Manila,"Barangay 330,Santa Cruz,Manila,Metro Manila"
337,133905033,Barangay 331,Santa Cruz,Manila,Metro Manila,"Barangay 331,Santa Cruz,Manila,Metro Manila"
338,133905034,Barangay 332,Santa Cruz,Manila,Metro Manila,"Barangay 332,Santa Cruz,Manila,Metro Manila"
339,133905035,Barangay 333,Santa Cruz,Manila,Metro Manila,"Barangay 333,Santa Cruz,Manila,Metro Manila"
340,133905036,Barangay 334,Santa Cruz,Manila,Metro Manila,"Barangay 334,Santa Cruz,Manila,Metro Manila"
341,133905037,Barangay 335,Santa Cruz,Manila,Metro Manila,"Barangay 335,Santa Cruz,Manila,Metro Manila"
342,133905038,Barangay 336,Santa Cruz,Manila,Metro Manila,"Barangay 336,Santa Cruz,Manila,Metro Manila"
343,133905039,Barangay 337,Santa Cruz,Manila,Metro Manila,"Barangay 337,Santa Cruz,Manila,Metro Manila"
344,133905040,Barangay 338,Santa Cruz,Manila,Metro Manila,"Barangay 338,Santa Cruz,Manila,Metro Manila"
345,133905041,Barangay 339,Santa Cruz,Manila,Metro Manila,"Barangay 339,Santa Cruz,Manila,Metro Manila"
346,133905042,Barangay 340,Santa Cruz,Manila,Metro Manila,"Barangay 340,Santa Cruz,Manila,Metro Manila"
347,133905043,Barangay 341,Santa Cruz,Manila,Metro Manila,"Barangay 341,Santa Cruz,Manila,Metro Manila"
348,133905044,Barangay 342,Santa Cruz,Manila,Metro Manila,"Barangay 342,Santa Cruz,Manila,Metro Manila"
349,133905045,Barangay 343,Santa Cruz,Manila,Metro Manila,"Barangay 343,Santa Cruz,Manila,Metro Manila"
350,133905046,Barangay 344,Santa Cruz,Manila,Metro Manila,"Barangay 344,Santa Cruz,Manila,Metro Manila"
351,133905047,Barangay 345,Santa Cruz,Manila,Metro Manila,"Barangay 345,Santa Cruz,Manila,Metro Manila"
352,133905048,Barangay 346,Santa Cruz,Manila,Metro Manila,"Barangay 346,Santa Cruz,Manila,Metro Manila"
353,133905049,Barangay 347,Santa Cruz,Manila,Metro Manila,"Barangay 347,Santa Cruz,Manila,Metro Manila"
354,133905050,Barangay 348,Santa Cruz,Manila,Metro Manila,"Barangay 348,Santa Cruz,Manila,Metro Manila"
355,133905051,Barangay 349,Santa Cruz,Manila,Metro Manila,"Barangay 349,Santa Cruz,Manila,Metro Manila"
356,133905052,Barangay 350,Santa Cruz,Manila,Metro Manila,"Barangay 350,Santa Cruz,Manila,Metro Manila"
357,133905053,Barangay 351,Santa Cruz,Manila,Metro Manila,"Barangay 351,Santa Cruz,Manila,Metro Manila"
358,133905054,Barangay 352,Santa Cruz,Manila,Metro Manila,"Barangay 352,Santa Cruz,Manila,Metro Manila"
359,133905055,Barangay 353,Santa Cruz,Manila,Metro Manila,"Barangay 353,Santa Cruz,Manila,Metro Manila"
360,133905056,Barangay 354,Santa Cruz,Manila,Metro Manila,"Barangay 354,Santa Cruz,Manila,Metro Manila"
361,133905057,Barangay 355,Santa Cruz,Manila,Metro Manila,"Barangay 355,Santa Cruz,Manila,Metro Manila"
362,133905058,Barangay 356,Santa Cruz,Manila,Metro Manila,"Barangay 356,Santa Cruz,Manila,Metro Manila"
363,133905059,Barangay 357,Santa Cruz,Manila,Metro Manila,"Barangay 357,Santa Cruz,Manila,Metro Manila"
364,133905060,Barangay 358,Santa Cruz,Manila,Metro Manila,"Barangay 358,Santa Cruz,Manila,Metro Manila"
365,133905061,Barangay 359,Santa Cruz,Manila,Metro Manila,"Barangay 359,Santa Cruz,Manila,Metro Manila"
366,133905062,Barangay 360,Santa Cruz,Manila,Metro Manila,"Barangay 360,Santa Cruz,Manila,Metro Manila"
367,133905063,Barangay 361,Santa Cruz,Manila,Metro Manila,"Barangay 361,Santa Cruz,Manila,Metro Manila"
368,133905064,Barangay 362,Santa Cruz,Manila,Metro Manila,"Barangay 362,Santa Cruz,Manila,Metro Manila"
369,133905065,Barangay 363,Santa Cruz,Manila,Metro Manila,"Barangay 363,Santa Cruz,Manila,Metro Manila"
370,133905066,Barangay 364,Santa Cruz,Manila,Metro Manila,"Barangay 364,Santa Cruz,Manila,Metro Manila"
371,133905067,Barangay 365,Santa Cruz,Manila,Metro Manila,"Barangay 365,Santa Cruz,Manila,Metro Manila"
372,133905069,Barangay 366,Santa Cruz,Manila,Metro Manila,"Barangay 366,Santa Cruz,Manila,Metro Manila"
373,133905070,Barangay 367,Santa Cruz,Manila,Metro Manila,"Barangay 367,Santa Cruz,Manila,Metro Manila"
374,133905071,Barangay 368,Santa Cruz,Manila,Metro Manila,"Barangay 368,Santa Cruz,Manila,Metro Manila"
375,133905072,Barangay 369,Santa Cruz,Manila,Metro Manila,"Barangay 369,Santa Cruz,Manila,Metro Manila"
376,133905073,Barangay 370,Santa Cruz,Manila,Metro Manila,"Barangay 370,Santa Cruz,Manila,Metro Manila"
377,133905074,Barangay 371,Santa Cruz,Manila,Metro Manila,"Barangay 371,Santa Cruz,Manila,Metro Manila"
378,133905075,Barangay 372,Santa Cruz,Manila,Metro Manila,"Barangay 372,Santa Cruz,Manila,Metro Manila"
379,133905076,Barangay 373,Santa Cruz,Manila,Metro Manila,"Barangay 373,Santa Cruz,Manila,Metro Manila"
380,133905077,Barangay 374,Santa Cruz,Manila,Metro Manila,"Barangay 374,Santa Cruz,Manila,Metro Manila"
381,133905078,Barangay 375,Santa Cruz,Manila,Metro Manila,"Barangay 375,Santa Cruz,Manila,Metro Manila"
382,133905079,Barangay 376,Santa Cruz,Manila,Metro Manila,"Barangay 376,Santa Cruz,Manila,Metro Manila"
383,133905080,Barangay 377,Santa Cruz,Manila,Metro Manila,"Barangay 377,Santa Cruz,Manila,Metro Manila"
384,133905081,Barangay 378,Santa Cruz,Manila,Metro Manila,"Barangay 378,Santa Cruz,Manila,Metro Manila"
385,133905082,Barangay 379,Santa Cruz,Manila,Metro Manila,"Barangay 379,Santa Cruz,Manila,Metro Manila"
386,133905083,Barangay 380,Santa Cruz,Manila,Metro Manila,"Barangay 380,Santa Cruz,Manila,Metro Manila"
387,133905084,Barangay 381,Santa Cruz,Manila,Metro Manila,"Barangay 381,Santa Cruz,Manila,Metro Manila"
388,133905085,Barangay 382,Santa Cruz,Manila,Metro Manila,"Barangay 382,Santa Cruz,Manila,Metro Manila"
389,133906000,SAMPALOC,,Manila,Metro Manila,"SAMPALOC,Manila,Metro Manila"
390,133906001,Barangay 395,Sampaloc,Manila,Metro Manila,"Barangay 395,Sampaloc,Manila,Metro Manila"
391,133906002,Barangay 396,Sampaloc,Manila,Metro Manila,"Barangay 396,Sampaloc,Manila,Metro Manila"
392,133906003,Barangay 397,Sampaloc,Manila,Metro Manila,"Barangay 397,Sampaloc,Manila,Metro Manila"
393,133906004,Barangay 398,Sampaloc,Manila,Metro Manila,"Barangay 398,Sampaloc,Manila,Metro Manila"
394,133906005,Barangay 399,Sampaloc,Manila,Metro Manila,"Barangay 399,Sampaloc,Manila,Metro Manila"
395,133906006,Barangay 400,Sampaloc,Manila,Metro Manila,"Barangay 400,Sampaloc,Manila,Metro Manila"
396,133906007,Barangay 401,Sampaloc,Manila,Metro Manila,"Barangay 401,Sampaloc,Manila,Metro Manila"
397,133906008,Barangay 402,Sampaloc,Manila,Metro Manila,"Barangay 402,Sampaloc,Manila,Metro Manila"
398,133906009,Barangay 403,Sampaloc,Manila,Metro Manila,"Barangay 403,Sampaloc,Manila,Metro Manila"
399,133906010,Barangay 404,Sampaloc,Manila,Metro Manila,"Barangay 404,Sampaloc,Manila,Metro Manila"
400,133906011,Barangay 405,Sampaloc,Manila,Metro Manila,"Barangay 405,Sampaloc,Manila,Metro Manila"
401,133906012,Barangay 406,Sampaloc,Manila,Metro Manila,"Barangay 406,Sampaloc,Manila,Metro Manila"
402,133906013,Barangay 407,Sampaloc,Manila,Metro Manila,"Barangay 407,Sampaloc,Manila,Metro Manila"
403,133906014,Barangay 408,Sampaloc,Manila,Metro Manila,"Barangay 408,Sampaloc,Manila,Metro Manila"
404,133906015,Barangay 409,Sampaloc,Manila,Metro Manila,"Barangay 409,Sampaloc,Manila,Metro Manila"
405,133906016,Barangay 410,Sampaloc,Manila,Metro Manila,"Barangay 410,Sampaloc,Manila,Metro Manila"
406,133906017,Barangay 411,Sampaloc,Manila,Metro Manila,"Barangay 411,Sampaloc,Manila,Metro Manila"
407,133906018,Barangay 412,Sampaloc,Manila,Metro Manila,"Barangay 412,Sampaloc,Manila,Metro Manila"
408,133906019,Barangay 413,Sampaloc,Manila,Metro Manila,"Barangay 413,Sampaloc,Manila,Metro Manila"
409,133906020,Barangay 414,Sampaloc,Manila,Metro Manila,"Barangay 414,Sampaloc,Manila,Metro Manila"
410,133906021,Barangay 415,Sampaloc,Manila,Metro Manila,"Barangay 415,Sampaloc,Manila,Metro Manila"
411,133906022,Barangay 416,Sampaloc,Manila,Metro Manila,"Barangay 416,Sampaloc,Manila,Metro Manila"
412,133906023,Barangay 417,Sampaloc,Manila,Metro Manila,"Barangay 417,Sampaloc,Manila,Metro Manila"
413,133906024,Barangay 418,Sampaloc,Manila,Metro Manila,"Barangay 418,Sampaloc,Manila,Metro Manila"
414,133906025,Barangay 419,Sampaloc,Manila,Metro Manila,"Barangay 419,Sampaloc,Manila,Metro Manila"
415,133906026,Barangay 420,Sampaloc,Manila,Metro Manila,"Barangay 420,Sampaloc,Manila,Metro Manila"
416,133906027,Barangay 421,Sampaloc,Manila,Metro Manila,"Barangay 421,Sampaloc,Manila,Metro Manila"
417,133906028,Barangay 422,Sampaloc,Manila,Metro Manila,"Barangay 422,Sampaloc,Manila,Metro Manila"
418,133906029,Barangay 423,Sampaloc,Manila,Metro Manila,"Barangay 423,Sampaloc,Manila,Metro Manila"
419,133906030,Barangay 424,Sampaloc,Manila,Metro Manila,"Barangay 424,Sampaloc,Manila,Metro Manila"
420,133906031,Barangay 425,Sampaloc,Manila,Metro Manila,"Barangay 425,Sampaloc,Manila,Metro Manila"
421,133906032,Barangay 426,Sampaloc,Manila,Metro Manila,"Barangay 426,Sampaloc,Manila,Metro Manila"
422,133906033,Barangay 427,Sampaloc,Manila,Metro Manila,"Barangay 427,Sampaloc,Manila,Metro Manila"
423,133906034,Barangay 428,Sampaloc,Manila,Metro Manila,"Barangay 428,Sampaloc,Manila,Metro Manila"
424,133906035,Barangay 429,Sampaloc,Manila,Metro Manila,"Barangay 429,Sampaloc,Manila,Metro Manila"
425,133906036,Barangay 430,Sampaloc,Manila,Metro Manila,"Barangay 430,Sampaloc,Manila,Metro Manila"
426,133906037,Barangay 431,Sampaloc,Manila,Metro Manila,"Barangay 431,Sampaloc,Manila,Metro Manila"
427,133906038,Barangay 432,Sampaloc,Manila,Metro Manila,"Barangay 432,Sampaloc,Manila,Metro Manila"
428,133906039,Barangay 433,Sampaloc,Manila,Metro Manila,"Barangay 433,Sampaloc,Manila,Metro Manila"
429,133906040,Barangay 434,Sampaloc,Manila,Metro Manila,"Barangay 434,Sampaloc,Manila,Metro Manila"
430,133906041,Barangay 435,Sampaloc,Manila,Metro Manila,"Barangay 435,Sampaloc,Manila,Metro Manila"
431,133906042,Barangay 436,Sampaloc,Manila,Metro Manila,"Barangay 436,Sampaloc,Manila,Metro Manila"
432,133906043,Barangay 437,Sampaloc,Manila,Metro Manila,"Barangay 437,Sampaloc,Manila,Metro Manila"
433,133906044,Barangay 438,Sampaloc,Manila,Metro Manila,"Barangay 438,Sampaloc,Manila,Metro Manila"
434,133906045,Barangay 439,Sampaloc,Manila,Metro Manila,"Barangay 439,Sampaloc,Manila,Metro Manila"
435,133906046,Barangay 440,Sampaloc,Manila,Metro Manila,"Barangay 440,Sampaloc,Manila,Metro Manila"
436,133906047,Barangay 441,Sampaloc,Manila,Metro Manila,"Barangay 441,Sampaloc,Manila,Metro Manila"
437,133906048,Barangay 442,Sampaloc,Manila,Metro Manila,"Barangay 442,Sampaloc,Manila,Metro Manila"
438,133906049,Barangay 443,Sampaloc,Manila,Metro Manila,"Barangay 443,Sampaloc,Manila,Metro Manila"
439,133906050,Barangay 444,Sampaloc,Manila,Metro Manila,"Barangay 444,Sampaloc,Manila,Metro Manila"
440,133906051,Barangay 445,Sampaloc,Manila,Metro Manila,"Barangay 445,Sampaloc,Manila,Metro Manila"
441,133906052,Barangay 446,Sampaloc,Manila,Metro Manila,"Barangay 446,Sampaloc,Manila,Metro Manila"
442,133906053,Barangay 447,Sampaloc,Manila,Metro Manila,"Barangay 447,Sampaloc,Manila,Metro Manila"
443,133906054,Barangay 448,Sampaloc,Manila,Metro Manila,"Barangay 448,Sampaloc,Manila,Metro Manila"
444,133906055,Barangay 449,Sampaloc,Manila,Metro Manila,"Barangay 449,Sampaloc,Manila,Metro Manila"
445,133906056,Barangay 450,Sampaloc,Manila,Metro Manila,"Barangay 450,Sampaloc,Manila,Metro Manila"
446,133906057,Barangay 451,Sampaloc,Manila,Metro Manila,"Barangay 451,Sampaloc,Manila,Metro Manila"
447,133906058,Barangay 452,Sampaloc,Manila,Metro Manila,"Barangay 452,Sampaloc,Manila,Metro Manila"
448,133906059,Barangay 453,Sampaloc,Manila,Metro Manila,"Barangay 453,Sampaloc,Manila,Metro Manila"
449,133906060,Barangay 454,Sampaloc,Manila,Metro Manila,"Barangay 454,Sampaloc,Manila,Metro Manila"
450,133906061,Barangay 455,Sampaloc,Manila,Metro Manila,"Barangay 455,Sampaloc,Manila,Metro Manila"
451,133906062,Barangay 456,Sampaloc,Manila,Metro Manila,"Barangay 456,Sampaloc,Manila,Metro Manila"
452,133906063,Barangay 457,Sampaloc,Manila,Metro Manila,"Barangay 457,Sampaloc,Manila,Metro Manila"
453,133906064,Barangay 458,Sampaloc,Manila,Metro Manila,"Barangay 458,Sampaloc,Manila,Metro Manila"
454,133906065,Barangay 459,Sampaloc,Manila,Metro Manila,"Barangay 459,Sampaloc,Manila,Metro Manila"
455,133906066,Barangay 460,Sampaloc,Manila,Metro Manila,"Barangay 460,Sampaloc,Manila,Metro Manila"
456,133906067,Barangay 461,Sampaloc,Manila,Metro Manila,"Barangay 461,Sampaloc,Manila,Metro Manila"
457,133906068,Barangay 462,Sampaloc,Manila,Metro Manila,"Barangay 462,Sampaloc,Manila,Metro Manila"
458,133906069,Barangay 463,Sampaloc,Manila,Metro Manila,"Barangay 463,Sampaloc,Manila,Metro Manila"
459,133906070,Barangay 464,Sampaloc,Manila,Metro Manila,"Barangay 464,Sampaloc,Manila,Metro Manila"
460,133906071,Barangay 465,Sampaloc,Manila,Metro Manila,"Barangay 465,Sampaloc,Manila,Metro Manila"
461,133906072,Barangay 466,Sampaloc,Manila,Metro Manila,"Barangay 466,Sampaloc,Manila,Metro Manila"
462,133906073,Barangay 467,Sampaloc,Manila,Metro Manila,"Barangay 467,Sampaloc,Manila,Metro Manila"
463,133906074,Barangay 468,Sampaloc,Manila,Metro Manila,"Barangay 468,Sampaloc,Manila,Metro Manila"
464,133906075,Barangay 469,Sampaloc,Manila,Metro Manila,"Barangay 469,Sampaloc,Manila,Metro Manila"
465,133906076,Barangay 470,Sampaloc,Manila,Metro Manila,"Barangay 470,Sampaloc,Manila,Metro Manila"
466,133906077,Barangay 471,Sampaloc,Manila,Metro Manila,"Barangay 471,Sampaloc,Manila,Metro Manila"
467,133906078,Barangay 472,Sampaloc,Manila,Metro Manila,"Barangay 472,Sampaloc,Manila,Metro Manila"
468,133906079,Barangay 473,Sampaloc,Manila,Metro Manila,"Barangay 473,Sampaloc,Manila,Metro Manila"
469,133906080,Barangay 474,Sampaloc,Manila,Metro Manila,"Barangay 474,Sampaloc,Manila,Metro Manila"
470,133906081,Barangay 475,Sampaloc,Manila,Metro Manila,"Barangay 475,Sampaloc,Manila,Metro Manila"
471,133906082,Barangay 476,Sampaloc,Manila,Metro Manila,"Barangay 476,Sampaloc,Manila,Metro Manila"
472,133906083,Barangay 477,Sampaloc,Manila,Metro Manila,"Barangay 477,Sampaloc,Manila,Metro Manila"
473,133906084,Barangay 478,Sampaloc,Manila,Metro Manila,"Barangay 478,Sampaloc,Manila,Metro Manila"
474,133906085,Barangay 479,Sampaloc,Manila,Metro Manila,"Barangay 479,Sampaloc,Manila,Metro Manila"
475,133906086,Barangay 480,Sampaloc,Manila,Metro Manila,"Barangay 480,Sampaloc,Manila,Metro Manila"
476,133906087,Barangay 481,Sampaloc,Manila,Metro Manila,"Barangay 481,Sampaloc,Manila,Metro Manila"
477,133906088,Barangay 482,Sampaloc,Manila,Metro Manila,"Barangay 482,Sampaloc,Manila,Metro Manila"
478,133906089,Barangay 483,Sampaloc,Manila,Metro Manila,"Barangay 483,Sampaloc,Manila,Metro Manila"
479,133906090,Barangay 484,Sampaloc,Manila,Metro Manila,"Barangay 484,Sampaloc,Manila,Metro Manila"
480,133906091,Barangay 485,Sampaloc,Manila,Metro Manila,"Barangay 485,Sampaloc,Manila,Metro Manila"
481,133906092,Barangay 486,Sampaloc,Manila,Metro Manila,"Barangay 486,Sampaloc,Manila,Metro Manila"
482,133906093,Barangay 487,Sampaloc,Manila,Metro Manila,"Barangay 487,Sampaloc,Manila,Metro Manila"
483,133906094,Barangay 488,Sampaloc,Manila,Metro Manila,"Barangay 488,Sampaloc,Manila,Metro Manila"
484,133906095,Barangay 489,Sampaloc,Manila,Metro Manila,"Barangay 489,Sampaloc,Manila,Metro Manila"
485,133906096,Barangay 490,Sampaloc,Manila,Metro Manila,"Barangay 490,Sampaloc,Manila,Metro Manila"
486,133906097,Barangay 491,Sampaloc,Manila,Metro Manila,"Barangay 491,Sampaloc,Manila,Metro Manila"
487,133906098,Barangay 492,Sampaloc,Manila,Metro Manila,"Barangay 492,Sampaloc,Manila,Metro Manila"
488,133906099,Barangay 493,Sampaloc,Manila,Metro Manila,"Barangay 493,Sampaloc,Manila,Metro Manila"
489,133906100,Barangay 494,Sampaloc,Manila,Metro Manila,"Barangay 494,Sampaloc,Manila,Metro Manila"
490,133906101,Barangay 495,Sampaloc,Manila,Metro Manila,"Barangay 495,Sampaloc,Manila,Metro Manila"
491,133906102,Barangay 496,Sampaloc,Manila,Metro Manila,"Barangay 496,Sampaloc,Manila,Metro Manila"
492,133906103,Barangay 497,Sampaloc,Manila,Metro Manila,"Barangay 497,Sampaloc,Manila,Metro Manila"
493,133906104,Barangay 498,Sampaloc,Manila,Metro Manila,"Barangay 498,Sampaloc,Manila,Metro Manila"
494,133906105,Barangay 499,Sampaloc,Manila,Metro Manila,"Barangay 499,Sampaloc,Manila,Metro Manila"
495,133906106,Barangay 500,Sampaloc,Manila,Metro Manila,"Barangay 500,Sampaloc,Manila,Metro Manila"
496,133906107,Barangay 501,Sampaloc,Manila,Metro Manila,"Barangay 501,Sampaloc,Manila,Metro Manila"
497,133906108,Barangay 502,Sampaloc,Manila,Metro Manila,"Barangay 502,Sampaloc,Manila,Metro Manila"
498,133906109,Barangay 503,Sampaloc,Manila,Metro Manila,"Barangay 503,Sampaloc,Manila,Metro Manila"
499,133906110,Barangay 504,Sampaloc,Manila,Metro Manila,"Barangay 504,Sampaloc,Manila,Metro Manila"
500,133906111,Barangay 505,Sampaloc,Manila,Metro Manila,"Barangay 505,Sampaloc,Manila,Metro Manila"
501,133906112,Barangay 506,Sampaloc,Manila,Metro Manila,"Barangay 506,Sampaloc,Manila,Metro Manila"
502,133906113,Barangay 507,Sampaloc,Manila,Metro Manila,"Barangay 507,Sampaloc,Manila,Metro Manila"
503,133906114,Barangay 508,Sampaloc,Manila,Metro Manila,"Barangay 508,Sampaloc,Manila,Metro Manila"
504,133906115,Barangay 509,Sampaloc,Manila,Metro Manila,"Barangay 509,Sampaloc,Manila,Metro Manila"
505,133906116,Barangay 510,Sampaloc,Manila,Metro Manila,"Barangay 510,Sampaloc,Manila,Metro Manila"
506,133906117,Barangay 511,Sampaloc,Manila,Metro Manila,"Barangay 511,Sampaloc,Manila,Metro Manila"
507,133906118,Barangay 512,Sampaloc,Manila,Metro Manila,"Barangay 512,Sampaloc,Manila,Metro Manila"
508,133906119,Barangay 513,Sampaloc,Manila,Metro Manila,"Barangay 513,Sampaloc,Manila,Metro Manila"
509,133906120,Barangay 514,Sampaloc,Manila,Metro Manila,"Barangay 514,Sampaloc,Manila,Metro Manila"
510,133906121,Barangay 515,Sampaloc,Manila,Metro Manila,"Barangay 515,Sampaloc,Manila,Metro Manila"
511,133906122,Barangay 516,Sampaloc,Manila,Metro Manila,"Barangay 516,Sampaloc,Manila,Metro Manila"
512,133906123,Barangay 517,Sampaloc,Manila,Metro Manila,"Barangay 517,Sampaloc,Manila,Metro Manila"
513,133906124,Barangay 518,Sampaloc,Manila,Metro Manila,"Barangay 518,Sampaloc,Manila,Metro Manila"
514,133906125,Barangay 519,Sampaloc,Manila,Metro Manila,"Barangay 519,Sampaloc,Manila,Metro Manila"
515,133906126,Barangay 520,Sampaloc,Manila,Metro Manila,"Barangay 520,Sampaloc,Manila,Metro Manila"
516,133906127,Barangay 521,Sampaloc,Manila,Metro Manila,"Barangay 521,Sampaloc,Manila,Metro Manila"
517,133906128,Barangay 522,Sampaloc,Manila,Metro Manila,"Barangay 522,Sampaloc,Manila,Metro Manila"
518,133906129,Barangay 523,Sampaloc,Manila,Metro Manila,"Barangay 523,Sampaloc,Manila,Metro Manila"
519,133906130,Barangay 524,Sampaloc,Manila,Metro Manila,"Barangay 524,Sampaloc,Manila,Metro Manila"
520,133906131,Barangay 525,Sampaloc,Manila,Metro Manila,"Barangay 525,Sampaloc,Manila,Metro Manila"
521,133906132,Barangay 526,Sampaloc,Manila,Metro Manila,"Barangay 526,Sampaloc,Manila,Metro Manila"
522,133906133,Barangay 527,Sampaloc,Manila,Metro Manila,"Barangay 527,Sampaloc,Manila,Metro Manila"
523,133906134,Barangay 528,Sampaloc,Manila,Metro Manila,"Barangay 528,Sampaloc,Manila,Metro Manila"
524,133906135,Barangay 529,Sampaloc,Manila,Metro Manila,"Barangay 529,Sampaloc,Manila,Metro Manila"
525,133906136,Barangay 530,Sampaloc,Manila,Metro Manila,"Barangay 530,Sampaloc,Manila,Metro Manila"
526,133906137,Barangay 531,Sampaloc,Manila,Metro Manila,"Barangay 531,Sampaloc,Manila,Metro Manila"
527,133906138,Barangay 532,Sampaloc,Manila,Metro Manila,"Barangay 532,Sampaloc,Manila,Metro Manila"
528,133906139,Barangay 533,Sampaloc,Manila,Metro Manila,"Barangay 533,Sampaloc,Manila,Metro Manila"
529,133906140,Barangay 534,Sampaloc,Manila,Metro Manila,"Barangay 534,Sampaloc,Manila,Metro Manila"
530,133906141,Barangay 535,Sampaloc,Manila,Metro Manila,"Barangay 535,Sampaloc,Manila,Metro Manila"
531,133906142,Barangay 536,Sampaloc,Manila,Metro Manila,"Barangay 536,Sampaloc,Manila,Metro Manila"
532,133906143,Barangay 537,Sampaloc,Manila,Metro Manila,"Barangay 537,Sampaloc,Manila,Metro Manila"
533,133906144,Barangay 538,Sampaloc,Manila,Metro Manila,"Barangay 538,Sampaloc,Manila,Metro Manila"
534,133906145,Barangay 539,Sampaloc,Manila,Metro Manila,"Barangay 539,Sampaloc,Manila,Metro Manila"
535,133906146,Barangay 540,Sampaloc,Manila,Metro Manila,"Barangay 540,Sampaloc,Manila,Metro Manila"
536,133906147,Barangay 541,Sampaloc,Manila,Metro Manila,"Barangay 541,Sampaloc,Manila,Metro Manila"
537,133906148,Barangay 542,Sampaloc,Manila,Metro Manila,"Barangay 542,Sampaloc,Manila,Metro Manila"
538,133906149,Barangay 543,Sampaloc,Manila,Metro Manila,"Barangay 543,Sampaloc,Manila,Metro Manila"
539,133906150,Barangay 544,Sampaloc,Manila,Metro Manila,"Barangay 544,Sampaloc,Manila,Metro Manila"
540,133906151,Barangay 545,Sampaloc,Manila,Metro Manila,"Barangay 545,Sampaloc,Manila,Metro Manila"
541,133906152,Barangay 546,Sampaloc,Manila,Metro Manila,"Barangay 546,Sampaloc,Manila,Metro Manila"
542,133906153,Barangay 547,Sampaloc,Manila,Metro Manila,"Barangay 547,Sampaloc,Manila,Metro Manila"
543,133906154,Barangay 548,Sampaloc,Manila,Metro Manila,"Barangay 548,Sampaloc,Manila,Metro Manila"
544,133906155,Barangay 549,Sampaloc,Manila,Metro Manila,"Barangay 549,Sampaloc,Manila,Metro Manila"
545,133906156,Barangay 550,Sampaloc,Manila,Metro Manila,"Barangay 550,Sampaloc,Manila,Metro Manila"
546,133906157,Barangay 551,Sampaloc,Manila,Metro Manila,"Barangay 551,Sampaloc,Manila,Metro Manila"
547,133906158,Barangay 552,Sampaloc,Manila,Metro Manila,"Barangay 552,Sampaloc,Manila,Metro Manila"
548,133906159,Barangay 553,Sampaloc,Manila,Metro Manila,"Barangay 553,Sampaloc,Manila,Metro Manila"
549,133906160,Barangay 554,Sampaloc,Manila,Metro Manila,"Barangay 554,Sampaloc,Manila,Metro Manila"
550,133906161,Barangay 555,Sampaloc,Manila,Metro Manila,"Barangay 555,Sampaloc,Manila,Metro Manila"
551,133906162,Barangay 556,Sampaloc,Manila,Metro Manila,"Barangay 556,Sampaloc,Manila,Metro Manila"
552,133906163,Barangay 557,Sampaloc,Manila,Metro Manila,"Barangay 557,Sampaloc,Manila,Metro Manila"
553,133906164,Barangay 558,Sampaloc,Manila,Metro Manila,"Barangay 558,Sampaloc,Manila,Metro Manila"
554,133906165,Barangay 559,Sampaloc,Manila,Metro Manila,"Barangay 559,Sampaloc,Manila,Metro Manila"
555,133906166,Barangay 560,Sampaloc,Manila,Metro Manila,"Barangay 560,Sampaloc,Manila,Metro Manila"
556,133906167,Barangay 561,Sampaloc,Manila,Metro Manila,"Barangay 561,Sampaloc,Manila,Metro Manila"
557,133906168,Barangay 562,Sampaloc,Manila,Metro Manila,"Barangay 562,Sampaloc,Manila,Metro Manila"
558,133906169,Barangay 563,Sampaloc,Manila,Metro Manila,"Barangay 563,Sampaloc,Manila,Metro Manila"
559,133906170,Barangay 564,Sampaloc,Manila,Metro Manila,"Barangay 564,Sampaloc,Manila,Metro Manila"
560,133906171,Barangay 565,Sampaloc,Manila,Metro Manila,"Barangay 565,Sampaloc,Manila,Metro Manila"
561,133906172,Barangay 566,Sampaloc,Manila,Metro Manila,"Barangay 566,Sampaloc,Manila,Metro Manila"
562,133906173,Barangay 567,Sampaloc,Manila,Metro Manila,"Barangay 567,Sampaloc,Manila,Metro Manila"
563,133906174,Barangay 568,Sampaloc,Manila,Metro Manila,"Barangay 568,Sampaloc,Manila,Metro Manila"
564,133906175,Barangay 569,Sampaloc,Manila,Metro Manila,"Barangay 569,Sampaloc,Manila,Metro Manila"
565,133906176,Barangay 570,Sampaloc,Manila,Metro Manila,"Barangay 570,Sampaloc,Manila,Metro Manila"
566,133906177,Barangay 571,Sampaloc,Manila,Metro Manila,"Barangay 571,Sampaloc,Manila,Metro Manila"
567,133906178,Barangay 572,Sampaloc,Manila,Metro Manila,"Barangay 572,Sampaloc,Manila,Metro Manila"
568,133906179,Barangay 573,Sampaloc,Manila,Metro Manila,"Barangay 573,Sampaloc,Manila,Metro Manila"
569,133906180,Barangay 574,Sampaloc,Manila,Metro Manila,"Barangay 574,Sampaloc,Manila,Metro Manila"
570,133906181,Barangay 575,Sampaloc,Manila,Metro Manila,"Barangay 575,Sampaloc,Manila,Metro Manila"
571,133906182,Barangay 576,Sampaloc,Manila,Metro Manila,"Barangay 576,Sampaloc,Manila,Metro Manila"
572,133906183,Barangay 577,Sampaloc,Manila,Metro Manila,"Barangay 577,Sampaloc,Manila,Metro Manila"
573,133906184,Barangay 578,Sampaloc,Manila,Metro Manila,"Barangay 578,Sampaloc,Manila,Metro Manila"
574,133906185,Barangay 579,Sampaloc,Manila,Metro Manila,"Barangay 579,Sampaloc,Manila,Metro Manila"
575,133906186,Barangay 580,Sampaloc,Manila,Metro Manila,"Barangay 580,Sampaloc,Manila,Metro Manila"
576,133906187,Barangay 581,Sampaloc,Manila,Metro Manila,"Barangay 581,Sampaloc,Manila,Metro Manila"
577,133906188,Barangay 582,Sampaloc,Manila,Metro Manila,"Barangay 582,Sampaloc,Manila,Metro Manila"
578,133906189,Barangay 583,Sampaloc,Manila,Metro Manila,"Barangay 583,Sampaloc,Manila,Metro Manila"
579,133906190,Barangay 584,Sampaloc,Manila,Metro Manila,"Barangay 584,Sampaloc,Manila,Metro Manila"
580,133906191,Barangay 585,Sampaloc,Manila,Metro Manila,"Barangay 585,Sampaloc,Manila,Metro Manila"
581,133906192,Barangay 586,Sampaloc,Manila,Metro Manila,"Barangay 586,Sampaloc,Manila,Metro Manila"
582,133906193,Barangay 587,Sampaloc,Manila,Metro Manila,"Barangay 587,Sampaloc,Manila,Metro Manila"
583,133906194,Barangay 587-A,Sampaloc,Manila,Metro Manila,"Barangay 587-A,Sampaloc,Manila,Metro Manila"
584,133906195,Barangay 588,Sampaloc,Manila,Metro Manila,"Barangay 588,Sampaloc,Manila,Metro Manila"
585,133906196,Barangay 589,Sampaloc,Manila,Metro Manila,"Barangay 589,Sampaloc,Manila,Metro Manila"
586,133906197,Barangay 590,Sampaloc,Manila,Metro Manila,"Barangay 590,Sampaloc,Manila,Metro Manila"
587,133906198,Barangay 591,Sampaloc,Manila,Metro Manila,"Barangay 591,Sampaloc,Manila,Metro Manila"
588,133906199,Barangay 592,Sampaloc,Manila,Metro Manila,"Barangay 592,Sampaloc,Manila,Metro Manila"
589,133906200,Barangay 593,Sampaloc,Manila,Metro Manila,"Barangay 593,Sampaloc,Manila,Metro Manila"
590,133906201,Barangay 594,Sampaloc,Manila,Metro Manila,"Barangay 594,Sampaloc,Manila,Metro Manila"
591,133906202,Barangay 595,Sampaloc,Manila,Metro Manila,"Barangay 595,Sampaloc,Manila,Metro Manila"
592,133906203,Barangay 596,Sampaloc,Manila,Metro Manila,"Barangay 596,Sampaloc,Manila,Metro Manila"
593,133906204,Barangay 597,Sampaloc,Manila,Metro Manila,"Barangay 597,Sampaloc,Manila,Metro Manila"
594,133906205,Barangay 598,Sampaloc,Manila,Metro Manila,"Barangay 598,Sampaloc,Manila,Metro Manila"
595,133906206,Barangay 599,Sampaloc,Manila,Metro Manila,"Barangay 599,Sampaloc,Manila,Metro Manila"
596,133906207,Barangay 600,Sampaloc,Manila,Metro Manila,"Barangay 600,Sampaloc,Manila,Metro Manila"
597,133906208,Barangay 601,Sampaloc,Manila,Metro Manila,"Barangay 601,Sampaloc,Manila,Metro Manila"
598,133906209,Barangay 602,Sampaloc,Manila,Metro Manila,"Barangay 602,Sampaloc,Manila,Metro Manila"
599,133906210,Barangay 603,Sampaloc,Manila,Metro Manila,"Barangay 603,Sampaloc,Manila,Metro Manila"
600,133906211,Barangay 604,Sampaloc,Manila,Metro Manila,"Barangay 604,Sampaloc,Manila,Metro Manila"
601,133906212,Barangay 605,Sampaloc,Manila,Metro Manila,"Barangay 605,Sampaloc,Manila,Metro Manila"
602,133906213,Barangay 606,Sampaloc,Manila,Metro Manila,"Barangay 606,Sampaloc,Manila,Metro Manila"
603,133906214,Barangay 607,Sampaloc,Manila,Metro Manila,"Barangay 607,Sampaloc,Manila,Metro Manila"
604,133906215,Barangay 608,Sampaloc,Manila,Metro Manila,"Barangay 608,Sampaloc,Manila,Metro Manila"
605,133906216,Barangay 609,Sampaloc,Manila,Metro Manila,"Barangay 609,Sampaloc,Manila,Metro Manila"
606,133906217,Barangay 610,Sampaloc,Manila,Metro Manila,"Barangay 610,Sampaloc,Manila,Metro Manila"
607,133906218,Barangay 611,Sampaloc,Manila,Metro Manila,"Barangay 611,Sampaloc,Manila,Metro Manila"
608,133906219,Barangay 612,Sampaloc,Manila,Metro Manila,"Barangay 612,Sampaloc,Manila,Metro Manila"
609,133906220,Barangay 613,Sampaloc,Manila,Metro Manila,"Barangay 613,Sampaloc,Manila,Metro Manila"
610,133906221,Barangay 614,Sampaloc,Manila,Metro Manila,"Barangay 614,Sampaloc,Manila,Metro Manila"
611,133906222,Barangay 615,Sampaloc,Manila,Metro Manila,"Barangay 615,Sampaloc,Manila,Metro Manila"
612,133906223,Barangay 616,Sampaloc,Manila,Metro Manila,"Barangay 616,Sampaloc,Manila,Metro Manila"
613,133906224,Barangay 617,Sampaloc,Manila,Metro Manila,"Barangay 617,Sampaloc,Manila,Metro Manila"
614,133906225,Barangay 618,Sampaloc,Manila,Metro Manila,"Barangay 618,Sampaloc,Manila,Metro Manila"
615,133906226,Barangay 619,Sampaloc,Manila,Metro Manila,"Barangay 619,Sampaloc,Manila,Metro Manila"
616,133906227,Barangay 620,Sampaloc,Manila,Metro Manila,"Barangay 620,Sampaloc,Manila,Metro Manila"
617,133906228,Barangay 621,Sampaloc,Manila,Metro Manila,"Barangay 621,Sampaloc,Manila,Metro Manila"
618,133906229,Barangay 622,Sampaloc,Manila,Metro Manila,"Barangay 622,Sampaloc,Manila,Metro Manila"
619,133906230,Barangay 623,Sampaloc,Manila,Metro Manila,"Barangay 623,Sampaloc,Manila,Metro Manila"
620,133906231,Barangay 624,Sampaloc,Manila,Metro Manila,"Barangay 624,Sampaloc,Manila,Metro Manila"
621,133906232,Barangay 625,Sampaloc,Manila,Metro Manila,"Barangay 625,Sampaloc,Manila,Metro Manila"
622,133906233,Barangay 626,Sampaloc,Manila,Metro Manila,"Barangay 626,Sampaloc,Manila,Metro Manila"
623,133906234,Barangay 627,Sampaloc,Manila,Metro Manila,"Barangay 627,Sampaloc,Manila,Metro Manila"
624,133906235,Barangay 628,Sampaloc,Manila,Metro Manila,"Barangay 628,Sampaloc,Manila,Metro Manila"
625,133906236,Barangay 629,Sampaloc,Manila,Metro Manila,"Barangay 629,Sampaloc,Manila,Metro Manila"
626,133906237,Barangay 630,Sampaloc,Manila,Metro Manila,"Barangay 630,Sampaloc,Manila,Metro Manila"
627,133906238,Barangay 631,Sampaloc,Manila,Metro Manila,"Barangay 631,Sampaloc,Manila,Metro Manila"
628,133906239,Barangay 632,Sampaloc,Manila,Metro Manila,"Barangay 632,Sampaloc,Manila,Metro Manila"
629,133906240,Barangay 633,Sampaloc,Manila,Metro Manila,"Barangay 633,Sampaloc,Manila,Metro Manila"
630,133906241,Barangay 634,Sampaloc,Manila,Metro Manila,"Barangay 634,Sampaloc,Manila,Metro Manila"
631,133906242,Barangay 635,Sampaloc,Manila,Metro Manila,"Barangay 635,Sampaloc,Manila,Metro Manila"
632,133906243,Barangay 636,Sampaloc,Manila,Metro Manila,"Barangay 636,Sampaloc,Manila,Metro Manila"
633,133907000,SAN MIGUEL,,Manila,Metro Manila,"SAN MIGUEL,Manila,Metro Manila"
634,133907001,Barangay 637,San Miguel,Manila,Metro Manila,"Barangay 637,San Miguel,Manila,Metro Manila"
635,133907002,Barangay 638,San Miguel,Manila,Metro Manila,"Barangay 638,San Miguel,Manila,Metro Manila"
636,133907003,Barangay 639,San Miguel,Manila,Metro Manila,"Barangay 639,San Miguel,Manila,Metro Manila"
637,133907004,Barangay 640,San Miguel,Manila,Metro Manila,"Barangay 640,San Miguel,Manila,Metro Manila"
638,133907005,Barangay 641,San Miguel,Manila,Metro Manila,"Barangay 641,San Miguel,Manila,Metro Manila"
639,133907006,Barangay 642,San Miguel,Manila,Metro Manila,"Barangay 642,San Miguel,Manila,Metro Manila"
640,133907007,Barangay 643,San Miguel,Manila,Metro Manila,"Barangay 643,San Miguel,Manila,Metro Manila"
641,133907008,Barangay 644,San Miguel,Manila,Metro Manila,"Barangay 644,San Miguel,Manila,Metro Manila"
642,133907009,Barangay 645,San Miguel,Manila,Metro Manila,"Barangay 645,San Miguel,Manila,Metro Manila"
643,133907010,Barangay 646,San Miguel,Manila,Metro Manila,"Barangay 646,San Miguel,Manila,Metro Manila"
644,133907011,Barangay 647,San Miguel,Manila,Metro Manila,"Barangay 647,San Miguel,Manila,Metro Manila"
645,133907012,Barangay 648,San Miguel,Manila,Metro Manila,"Barangay 648,San Miguel,Manila,Metro Manila"
646,133908000,ERMITA,,Manila,Metro Manila,"ERMITA,Manila,Metro Manila"
647,133908001,Barangay 659,Ermita,Manila,Metro Manila,"Barangay 659,Ermita,Manila,Metro Manila"
648,133908002,Barangay 659-A,Ermita,Manila,Metro Manila,"Barangay 659-A,Ermita,Manila,Metro Manila"
649,133908003,Barangay 660,Ermita,Manila,Metro Manila,"Barangay 660,Ermita,Manila,Metro Manila"
650,133908004,Barangay 660-A,Ermita,Manila,Metro Manila,"Barangay 660-A,Ermita,Manila,Metro Manila"
651,133908005,Barangay 661,Ermita,Manila,Metro Manila,"Barangay 661,Ermita,Manila,Metro Manila"
652,133908008,Barangay 666,Ermita,Manila,Metro Manila,"Barangay 666,Ermita,Manila,Metro Manila"
653,133908009,Barangay 667,Ermita,Manila,Metro Manila,"Barangay 667,Ermita,Manila,Metro Manila"
654,133908010,Barangay 668,Ermita,Manila,Metro Manila,"Barangay 668,Ermita,Manila,Metro Manila"
655,133908011,Barangay 669,Ermita,Manila,Metro Manila,"Barangay 669,Ermita,Manila,Metro Manila"
656,133908012,Barangay 670,Ermita,Manila,Metro Manila,"Barangay 670,Ermita,Manila,Metro Manila"
657,133908013,Barangay 663,Ermita,Manila,Metro Manila,"Barangay 663,Ermita,Manila,Metro Manila"
658,133908014,Barangay 663-A,Ermita,Manila,Metro Manila,"Barangay 663-A,Ermita,Manila,Metro Manila"
659,133908015,Barangay 664,Ermita,Manila,Metro Manila,"Barangay 664,Ermita,Manila,Metro Manila"
660,133909000,INTRAMUROS,,Manila,Metro Manila,"INTRAMUROS,Manila,Metro Manila"
661,133909001,Barangay 654,Intramuros,Manila,Metro Manila,"Barangay 654,Intramuros,Manila,Metro Manila"
662,133909002,Barangay 655,Intramuros,Manila,Metro Manila,"Barangay 655,Intramuros,Manila,Metro Manila"
663,133909003,Barangay 656,Intramuros,Manila,Metro Manila,"Barangay 656,Intramuros,Manila,Metro Manila"
664,133909004,Barangay 657,Intramuros,Manila,Metro Manila,"Barangay 657,Intramuros,Manila,Metro Manila"
665,133909005,Barangay 658,Intramuros,Manila,Metro Manila,"Barangay 658,Intramuros,Manila,Metro Manila"
666,133910000,MALATE,,Manila,Metro Manila,"MALATE,Manila,Metro Manila"
667,133910004,Barangay 689,Malate,Manila,Metro Manila,"Barangay 689,Malate,Manila,Metro Manila"
668,133910005,Barangay 690,Malate,Manila,Metro Manila,"Barangay 690,Malate,Manila,Metro Manila"
669,133910006,Barangay 691,Malate,Manila,Metro Manila,"Barangay 691,Malate,Manila,Metro Manila"
670,133910007,Barangay 692,Malate,Manila,Metro Manila,"Barangay 692,Malate,Manila,Metro Manila"
671,133910008,Barangay 693,Malate,Manila,Metro Manila,"Barangay 693,Malate,Manila,Metro Manila"
672,133910009,Barangay 694,Malate,Manila,Metro Manila,"Barangay 694,Malate,Manila,Metro Manila"
673,133910010,Barangay 695,Malate,Manila,Metro Manila,"Barangay 695,Malate,Manila,Metro Manila"
674,133910011,Barangay 696,Malate,Manila,Metro Manila,"Barangay 696,Malate,Manila,Metro Manila"
675,133910012,Barangay 697,Malate,Manila,Metro Manila,"Barangay 697,Malate,Manila,Metro Manila"
676,133910013,Barangay 698,Malate,Manila,Metro Manila,"Barangay 698,Malate,Manila,Metro Manila"
677,133910014,Barangay 699,Malate,Manila,Metro Manila,"Barangay 699,Malate,Manila,Metro Manila"
678,133910015,Barangay 700,Malate,Manila,Metro Manila,"Barangay 700,Malate,Manila,Metro Manila"
679,133910016,Barangay 701,Malate,Manila,Metro Manila,"Barangay 701,Malate,Manila,Metro Manila"
680,133910017,Barangay 702,Malate,Manila,Metro Manila,"Barangay 702,Malate,Manila,Metro Manila"
681,133910018,Barangay 703,Malate,Manila,Metro Manila,"Barangay 703,Malate,Manila,Metro Manila"
682,133910019,Barangay 704,Malate,Manila,Metro Manila,"Barangay 704,Malate,Manila,Metro Manila"
683,133910020,Barangay 705,Malate,Manila,Metro Manila,"Barangay 705,Malate,Manila,Metro Manila"
684,133910021,Barangay 706,Malate,Manila,Metro Manila,"Barangay 706,Malate,Manila,Metro Manila"
685,133910022,Barangay 707,Malate,Manila,Metro Manila,"Barangay 707,Malate,Manila,Metro Manila"
686,133910023,Barangay 708,Malate,Manila,Metro Manila,"Barangay 708,Malate,Manila,Metro Manila"
687,133910024,Barangay 709,Malate,Manila,Metro Manila,"Barangay 709,Malate,Manila,Metro Manila"
688,133910025,Barangay 710,Malate,Manila,Metro Manila,"Barangay 710,Malate,Manila,Metro Manila"
689,133910026,Barangay 711,Malate,Manila,Metro Manila,"Barangay 711,Malate,Manila,Metro Manila"
690,133910027,Barangay 712,Malate,Manila,Metro Manila,"Barangay 712,Malate,Manila,Metro Manila"
691,133910028,Barangay 713,Malate,Manila,Metro Manila,"Barangay 713,Malate,Manila,Metro Manila"
692,133910029,Barangay 714,Malate,Manila,Metro Manila,"Barangay 714,Malate,Manila,Metro Manila"
693,133910030,Barangay 715,Malate,Manila,Metro Manila,"Barangay 715,Malate,Manila,Metro Manila"
694,133910031,Barangay 716,Malate,Manila,Metro Manila,"Barangay 716,Malate,Manila,Metro Manila"
695,133910032,Barangay 717,Malate,Manila,Metro Manila,"Barangay 717,Malate,Manila,Metro Manila"
696,133910033,Barangay 718,Malate,Manila,Metro Manila,"Barangay 718,Malate,Manila,Metro Manila"
697,133910034,Barangay 719,Malate,Manila,Metro Manila,"Barangay 719,Malate,Manila,Metro Manila"
698,133910035,Barangay 720,Malate,Manila,Metro Manila,"Barangay 720,Malate,Manila,Metro Manila"
699,133910036,Barangay 721,Malate,Manila,Metro Manila,"Barangay 721,Malate,Manila,Metro Manila"
700,133910037,Barangay 722,Malate,Manila,Metro Manila,"Barangay 722,Malate,Manila,Metro Manila"
701,133910038,Barangay 723,Malate,Manila,Metro Manila,"Barangay 723,Malate,Manila,Metro Manila"
702,133910039,Barangay 724,Malate,Manila,Metro Manila,"Barangay 724,Malate,Manila,Metro Manila"
703,133910040,Barangay 725,Malate,Manila,Metro Manila,"Barangay 725,Malate,Manila,Metro Manila"
704,133910041,Barangay 726,Malate,Manila,Metro Manila,"Barangay 726,Malate,Manila,Metro Manila"
705,133910042,Barangay 727,Malate,Manila,Metro Manila,"Barangay 727,Malate,Manila,Metro Manila"
706,133910043,Barangay 728,Malate,Manila,Metro Manila,"Barangay 728,Malate,Manila,Metro Manila"
707,133910044,Barangay 729,Malate,Manila,Metro Manila,"Barangay 729,Malate,Manila,Metro Manila"
708,133910045,Barangay 730,Malate,Manila,Metro Manila,"Barangay 730,Malate,Manila,Metro Manila"
709,133910046,Barangay 731,Malate,Manila,Metro Manila,"Barangay 731,Malate,Manila,Metro Manila"
710,133910047,Barangay 732,Malate,Manila,Metro Manila,"Barangay 732,Malate,Manila,Metro Manila"
711,133910048,Barangay 733,Malate,Manila,Metro Manila,"Barangay 733,Malate,Manila,Metro Manila"
712,133910052,Barangay 738,Malate,Manila,Metro Manila,"Barangay 738,Malate,Manila,Metro Manila"
713,133910053,Barangay 739,Malate,Manila,Metro Manila,"Barangay 739,Malate,Manila,Metro Manila"
714,133910054,Barangay 740,Malate,Manila,Metro Manila,"Barangay 740,Malate,Manila,Metro Manila"
715,133910055,Barangay 741,Malate,Manila,Metro Manila,"Barangay 741,Malate,Manila,Metro Manila"
716,133910056,Barangay 742,Malate,Manila,Metro Manila,"Barangay 742,Malate,Manila,Metro Manila"
717,133910057,Barangay 743,Malate,Manila,Metro Manila,"Barangay 743,Malate,Manila,Metro Manila"
718,133910058,Barangay 744,Malate,Manila,Metro Manila,"Barangay 744,Malate,Manila,Metro Manila"
719,133910059,Barangay 688,Malate,Manila,Metro Manila,"Barangay 688,Malate,Manila,Metro Manila"
720,133910060,Barangay 735,Malate,Manila,Metro Manila,"Barangay 735,Malate,Manila,Metro Manila"
721,133910061,Barangay 736,Malate,Manila,Metro Manila,"Barangay 736,Malate,Manila,Metro Manila"
722,133910062,Barangay 737,Malate,Manila,Metro Manila,"Barangay 737,Malate,Manila,Metro Manila"
723,133910063,Barangay 734,Malate,Manila,Metro Manila,"Barangay 734,Malate,Manila,Metro Manila"
724,133911000,PACO,,Manila,Metro Manila,"PACO,Manila,Metro Manila"
725,133911001,Barangay 662,Paco,Manila,Metro Manila,"Barangay 662,Paco,Manila,Metro Manila"
726,133911004,Barangay 664-A,Paco,Manila,Metro Manila,"Barangay 664-A,Paco,Manila,Metro Manila"
727,133911005,Barangay 671,Paco,Manila,Metro Manila,"Barangay 671,Paco,Manila,Metro Manila"
728,133911006,Barangay 672,Paco,Manila,Metro Manila,"Barangay 672,Paco,Manila,Metro Manila"
729,133911007,Barangay 673,Paco,Manila,Metro Manila,"Barangay 673,Paco,Manila,Metro Manila"
730,133911008,Barangay 674,Paco,Manila,Metro Manila,"Barangay 674,Paco,Manila,Metro Manila"
731,133911009,Barangay 675,Paco,Manila,Metro Manila,"Barangay 675,Paco,Manila,Metro Manila"
732,133911010,Barangay 676,Paco,Manila,Metro Manila,"Barangay 676,Paco,Manila,Metro Manila"
733,133911011,Barangay 677,Paco,Manila,Metro Manila,"Barangay 677,Paco,Manila,Metro Manila"
734,133911012,Barangay 678,Paco,Manila,Metro Manila,"Barangay 678,Paco,Manila,Metro Manila"
735,133911013,Barangay 679,Paco,Manila,Metro Manila,"Barangay 679,Paco,Manila,Metro Manila"
736,133911014,Barangay 680,Paco,Manila,Metro Manila,"Barangay 680,Paco,Manila,Metro Manila"
737,133911015,Barangay 681,Paco,Manila,Metro Manila,"Barangay 681,Paco,Manila,Metro Manila"
738,133911016,Barangay 682,Paco,Manila,Metro Manila,"Barangay 682,Paco,Manila,Metro Manila"
739,133911017,Barangay 683,Paco,Manila,Metro Manila,"Barangay 683,Paco,Manila,Metro Manila"
740,133911018,Barangay 684,Paco,Manila,Metro Manila,"Barangay 684,Paco,Manila,Metro Manila"
741,133911019,Barangay 685,Paco,Manila,Metro Manila,"Barangay 685,Paco,Manila,Metro Manila"
742,133911023,Barangay 809,Paco,Manila,Metro Manila,"Barangay 809,Paco,Manila,Metro Manila"
743,133911024,Barangay 810,Paco,Manila,Metro Manila,"Barangay 810,Paco,Manila,Metro Manila"
744,133911025,Barangay 811,Paco,Manila,Metro Manila,"Barangay 811,Paco,Manila,Metro Manila"
745,133911026,Barangay 812,Paco,Manila,Metro Manila,"Barangay 812,Paco,Manila,Metro Manila"
746,133911027,Barangay 813,Paco,Manila,Metro Manila,"Barangay 813,Paco,Manila,Metro Manila"
747,133911028,Barangay 814,Paco,Manila,Metro Manila,"Barangay 814,Paco,Manila,Metro Manila"
748,133911029,Barangay 815,Paco,Manila,Metro Manila,"Barangay 815,Paco,Manila,Metro Manila"
749,133911030,Barangay 816,Paco,Manila,Metro Manila,"Barangay 816,Paco,Manila,Metro Manila"
750,133911031,Barangay 817,Paco,Manila,Metro Manila,"Barangay 817,Paco,Manila,Metro Manila"
751,133911032,Barangay 818,Paco,Manila,Metro Manila,"Barangay 818,Paco,Manila,Metro Manila"
752,133911034,Barangay 819,Paco,Manila,Metro Manila,"Barangay 819,Paco,Manila,Metro Manila"
753,133911035,Barangay 820,Paco,Manila,Metro Manila,"Barangay 820,Paco,Manila,Metro Manila"
754,133911036,Barangay 821,Paco,Manila,Metro Manila,"Barangay 821,Paco,Manila,Metro Manila"
755,133911037,Barangay 822,Paco,Manila,Metro Manila,"Barangay 822,Paco,Manila,Metro Manila"
756,133911038,Barangay 823,Paco,Manila,Metro Manila,"Barangay 823,Paco,Manila,Metro Manila"
757,133911039,Barangay 824,Paco,Manila,Metro Manila,"Barangay 824,Paco,Manila,Metro Manila"
758,133911040,Barangay 825,Paco,Manila,Metro Manila,"Barangay 825,Paco,Manila,Metro Manila"
759,133911041,Barangay 826,Paco,Manila,Metro Manila,"Barangay 826,Paco,Manila,Metro Manila"
760,133911042,Barangay 827,Paco,Manila,Metro Manila,"Barangay 827,Paco,Manila,Metro Manila"
761,133911043,Barangay 828,Paco,Manila,Metro Manila,"Barangay 828,Paco,Manila,Metro Manila"
762,133911044,Barangay 829,Paco,Manila,Metro Manila,"Barangay 829,Paco,Manila,Metro Manila"
763,133911045,Barangay 830,Paco,Manila,Metro Manila,"Barangay 830,Paco,Manila,Metro Manila"
764,133911046,Barangay 831,Paco,Manila,Metro Manila,"Barangay 831,Paco,Manila,Metro Manila"
765,133911047,Barangay 832,Paco,Manila,Metro Manila,"Barangay 832,Paco,Manila,Metro Manila"
766,133911048,Barangay 686,Paco,Manila,Metro Manila,"Barangay 686,Paco,Manila,Metro Manila"
767,133911049,Barangay 687,Paco,Manila,Metro Manila,"Barangay 687,Paco,Manila,Metro Manila"
768,133912000,PANDACAN,,Manila,Metro Manila,"PANDACAN,Manila,Metro Manila"
769,133912001,Barangay 833,Pandacan,Manila,Metro Manila,"Barangay 833,Pandacan,Manila,Metro Manila"
770,133912002,Barangay 834,Pandacan,Manila,Metro Manila,"Barangay 834,Pandacan,Manila,Metro Manila"
771,133912003,Barangay 835,Pandacan,Manila,Metro Manila,"Barangay 835,Pandacan,Manila,Metro Manila"
772,133912004,Barangay 836,Pandacan,Manila,Metro Manila,"Barangay 836,Pandacan,Manila,Metro Manila"
773,133912005,Barangay 837,Pandacan,Manila,Metro Manila,"Barangay 837,Pandacan,Manila,Metro Manila"
774,133912006,Barangay 838,Pandacan,Manila,Metro Manila,"Barangay 838,Pandacan,Manila,Metro Manila"
775,133912007,Barangay 839,Pandacan,Manila,Metro Manila,"Barangay 839,Pandacan,Manila,Metro Manila"
776,133912008,Barangay 840,Pandacan,Manila,Metro Manila,"Barangay 840,Pandacan,Manila,Metro Manila"
777,133912009,Barangay 841,Pandacan,Manila,Metro Manila,"Barangay 841,Pandacan,Manila,Metro Manila"
778,133912010,Barangay 842,Pandacan,Manila,Metro Manila,"Barangay 842,Pandacan,Manila,Metro Manila"
779,133912011,Barangay 843,Pandacan,Manila,Metro Manila,"Barangay 843,Pandacan,Manila,Metro Manila"
780,133912012,Barangay 844,Pandacan,Manila,Metro Manila,"Barangay 844,Pandacan,Manila,Metro Manila"
781,133912013,Barangay 845,Pandacan,Manila,Metro Manila,"Barangay 845,Pandacan,Manila,Metro Manila"
782,133912014,Barangay 846,Pandacan,Manila,Metro Manila,"Barangay 846,Pandacan,Manila,Metro Manila"
783,133912015,Barangay 847,Pandacan,Manila,Metro Manila,"Barangay 847,Pandacan,Manila,Metro Manila"
784,133912016,Barangay 848,Pandacan,Manila,Metro Manila,"Barangay 848,Pandacan,Manila,Metro Manila"
785,133912017,Barangay 849,Pandacan,Manila,Metro Manila,"Barangay 849,Pandacan,Manila,Metro Manila"
786,133912018,Barangay 850,Pandacan,Manila,Metro Manila,"Barangay 850,Pandacan,Manila,Metro Manila"
787,133912019,Barangay 851,Pandacan,Manila,Metro Manila,"Barangay 851,Pandacan,Manila,Metro Manila"
788,133912020,Barangay 852,Pandacan,Manila,Metro Manila,"Barangay 852,Pandacan,Manila,Metro Manila"
789,133912021,Barangay 853,Pandacan,Manila,Metro Manila,"Barangay 853,Pandacan,Manila,Metro Manila"
790,133912023,Barangay 855,Pandacan,Manila,Metro Manila,"Barangay 855,Pandacan,Manila,Metro Manila"
791,133912024,Barangay 856,Pandacan,Manila,Metro Manila,"Barangay 856,Pandacan,Manila,Metro Manila"
792,133912025,Barangay 857,Pandacan,Manila,Metro Manila,"Barangay 857,Pandacan,Manila,Metro Manila"
793,133912026,Barangay 858,Pandacan,Manila,Metro Manila,"Barangay 858,Pandacan,Manila,Metro Manila"
794,133912027,Barangay 859,Pandacan,Manila,Metro Manila,"Barangay 859,Pandacan,Manila,Metro Manila"
795,133912028,Barangay 860,Pandacan,Manila,Metro Manila,"Barangay 860,Pandacan,Manila,Metro Manila"
796,133912029,Barangay 861,Pandacan,Manila,Metro Manila,"Barangay 861,Pandacan,Manila,Metro Manila"
797,133912030,Barangay 862,Pandacan,Manila,Metro Manila,"Barangay 862,Pandacan,Manila,Metro Manila"
798,133912031,Barangay 863,Pandacan,Manila,Metro Manila,"Barangay 863,Pandacan,Manila,Metro Manila"
799,133912032,Barangay 864,Pandacan,Manila,Metro Manila,"Barangay 864,Pandacan,Manila,Metro Manila"
800,133912033,Barangay 865,Pandacan,Manila,Metro Manila,"Barangay 865,Pandacan,Manila,Metro Manila"
801,133912034,Barangay 867,Pandacan,Manila,Metro Manila,"Barangay 867,Pandacan,Manila,Metro Manila"
802,133912035,Barangay 868,Pandacan,Manila,Metro Manila,"Barangay 868,Pandacan,Manila,Metro Manila"
803,133912036,Barangay 870,Pandacan,Manila,Metro Manila,"Barangay 870,Pandacan,Manila,Metro Manila"
804,133912037,Barangay 871,Pandacan,Manila,Metro Manila,"Barangay 871,Pandacan,Manila,Metro Manila"
805,133912038,Barangay 872,Pandacan,Manila,Metro Manila,"Barangay 872,Pandacan,Manila,Metro Manila"
806,133912039,Barangay 869,Pandacan,Manila,Metro Manila,"Barangay 869,Pandacan,Manila,Metro Manila"
807,133913000,PORT AREA,,Manila,Metro Manila,"PORT AREA,Manila,Metro Manila"
808,133913001,Barangay 649,Port Area,Manila,Metro Manila,"Barangay 649,Port Area,Manila,Metro Manila"
809,133913002,Barangay 650,Port Area,Manila,Metro Manila,"Barangay 650,Port Area,Manila,Metro Manila"
810,133913003,Barangay 651,Port Area,Manila,Metro Manila,"Barangay 651,Port Area,Manila,Metro Manila"
811,133913004,Barangay 652,Port Area,Manila,Metro Manila,"Barangay 652,Port Area,Manila,Metro Manila"
812,133913005,Barangay 653,Port Area,Manila,Metro Manila,"Barangay 653,Port Area,Manila,Metro Manila"
813,133914000,SANTA ANA,,Manila,Metro Manila,"SANTA ANA,Manila,Metro Manila"
814,133914002,Barangay 745,Santa Ana,Manila,Metro Manila,"Barangay 745,Santa Ana,Manila,Metro Manila"
815,133914003,Barangay 746,Santa Ana,Manila,Metro Manila,"Barangay 746,Santa Ana,Manila,Metro Manila"
816,133914004,Barangay 747,Santa Ana,Manila,Metro Manila,"Barangay 747,Santa Ana,Manila,Metro Manila"
817,133914005,Barangay 748,Santa Ana,Manila,Metro Manila,"Barangay 748,Santa Ana,Manila,Metro Manila"
818,133914006,Barangay 749,Santa Ana,Manila,Metro Manila,"Barangay 749,Santa Ana,Manila,Metro Manila"
819,133914007,Barangay 750,Santa Ana,Manila,Metro Manila,"Barangay 750,Santa Ana,Manila,Metro Manila"
820,133914008,Barangay 751,Santa Ana,Manila,Metro Manila,"Barangay 751,Santa Ana,Manila,Metro Manila"
821,133914009,Barangay 752,Santa Ana,Manila,Metro Manila,"Barangay 752,Santa Ana,Manila,Metro Manila"
822,133914010,Barangay 753,Santa Ana,Manila,Metro Manila,"Barangay 753,Santa Ana,Manila,Metro Manila"
823,133914011,Barangay 755,Santa Ana,Manila,Metro Manila,"Barangay 755,Santa Ana,Manila,Metro Manila"
824,133914012,Barangay 756,Santa Ana,Manila,Metro Manila,"Barangay 756,Santa Ana,Manila,Metro Manila"
825,133914013,Barangay 757,Santa Ana,Manila,Metro Manila,"Barangay 757,Santa Ana,Manila,Metro Manila"
826,133914014,Barangay 758,Santa Ana,Manila,Metro Manila,"Barangay 758,Santa Ana,Manila,Metro Manila"
827,133914015,Barangay 759,Santa Ana,Manila,Metro Manila,"Barangay 759,Santa Ana,Manila,Metro Manila"
828,133914016,Barangay 760,Santa Ana,Manila,Metro Manila,"Barangay 760,Santa Ana,Manila,Metro Manila"
829,133914017,Barangay 761,Santa Ana,Manila,Metro Manila,"Barangay 761,Santa Ana,Manila,Metro Manila"
830,133914018,Barangay 762,Santa Ana,Manila,Metro Manila,"Barangay 762,Santa Ana,Manila,Metro Manila"
831,133914019,Barangay 763,Santa Ana,Manila,Metro Manila,"Barangay 763,Santa Ana,Manila,Metro Manila"
832,133914020,Barangay 764,Santa Ana,Manila,Metro Manila,"Barangay 764,Santa Ana,Manila,Metro Manila"
833,133914021,Barangay 765,Santa Ana,Manila,Metro Manila,"Barangay 765,Santa Ana,Manila,Metro Manila"
834,133914022,Barangay 766,Santa Ana,Manila,Metro Manila,"Barangay 766,Santa Ana,Manila,Metro Manila"
835,133914023,Barangay 767,Santa Ana,Manila,Metro Manila,"Barangay 767,Santa Ana,Manila,Metro Manila"
836,133914024,Barangay 768,Santa Ana,Manila,Metro Manila,"Barangay 768,Santa Ana,Manila,Metro Manila"
837,133914025,Barangay 769,Santa Ana,Manila,Metro Manila,"Barangay 769,Santa Ana,Manila,Metro Manila"
838,133914026,Barangay 770,Santa Ana,Manila,Metro Manila,"Barangay 770,Santa Ana,Manila,Metro Manila"
839,133914027,Barangay 771,Santa Ana,Manila,Metro Manila,"Barangay 771,Santa Ana,Manila,Metro Manila"
840,133914028,Barangay 772,Santa Ana,Manila,Metro Manila,"Barangay 772,Santa Ana,Manila,Metro Manila"
841,133914029,Barangay 773,Santa Ana,Manila,Metro Manila,"Barangay 773,Santa Ana,Manila,Metro Manila"
842,133914030,Barangay 774,Santa Ana,Manila,Metro Manila,"Barangay 774,Santa Ana,Manila,Metro Manila"
843,133914031,Barangay 775,Santa Ana,Manila,Metro Manila,"Barangay 775,Santa Ana,Manila,Metro Manila"
844,133914032,Barangay 776,Santa Ana,Manila,Metro Manila,"Barangay 776,Santa Ana,Manila,Metro Manila"
845,133914033,Barangay 777,Santa Ana,Manila,Metro Manila,"Barangay 777,Santa Ana,Manila,Metro Manila"
846,133914034,Barangay 778,Santa Ana,Manila,Metro Manila,"Barangay 778,Santa Ana,Manila,Metro Manila"
847,133914035,Barangay 779,Santa Ana,Manila,Metro Manila,"Barangay 779,Santa Ana,Manila,Metro Manila"
848,133914036,Barangay 780,Santa Ana,Manila,Metro Manila,"Barangay 780,Santa Ana,Manila,Metro Manila"
849,133914037,Barangay 781,Santa Ana,Manila,Metro Manila,"Barangay 781,Santa Ana,Manila,Metro Manila"
850,133914038,Barangay 782,Santa Ana,Manila,Metro Manila,"Barangay 782,Santa Ana,Manila,Metro Manila"
851,133914039,Barangay 783,Santa Ana,Manila,Metro Manila,"Barangay 783,Santa Ana,Manila,Metro Manila"
852,133914040,Barangay 784,Santa Ana,Manila,Metro Manila,"Barangay 784,Santa Ana,Manila,Metro Manila"
853,133914041,Barangay 785,Santa Ana,Manila,Metro Manila,"Barangay 785,Santa Ana,Manila,Metro Manila"
854,133914042,Barangay 786,Santa Ana,Manila,Metro Manila,"Barangay 786,Santa Ana,Manila,Metro Manila"
855,133914043,Barangay 787,Santa Ana,Manila,Metro Manila,"Barangay 787,Santa Ana,Manila,Metro Manila"
856,133914044,Barangay 788,Santa Ana,Manila,Metro Manila,"Barangay 788,Santa Ana,Manila,Metro Manila"
857,133914045,Barangay 789,Santa Ana,Manila,Metro Manila,"Barangay 789,Santa Ana,Manila,Metro Manila"
858,133914046,Barangay 790,Santa Ana,Manila,Metro Manila,"Barangay 790,Santa Ana,Manila,Metro Manila"
859,133914047,Barangay 791,Santa Ana,Manila,Metro Manila,"Barangay 791,Santa Ana,Manila,Metro Manila"
860,133914048,Barangay 792,Santa Ana,Manila,Metro Manila,"Barangay 792,Santa Ana,Manila,Metro Manila"
861,133914049,Barangay 793,Santa Ana,Manila,Metro Manila,"Barangay 793,Santa Ana,Manila,Metro Manila"
862,133914050,Barangay 794,Santa Ana,Manila,Metro Manila,"Barangay 794,Santa Ana,Manila,Metro Manila"
863,133914051,Barangay 795,Santa Ana,Manila,Metro Manila,"Barangay 795,Santa Ana,Manila,Metro Manila"
864,133914052,Barangay 796,Santa Ana,Manila,Metro Manila,"Barangay 796,Santa Ana,Manila,Metro Manila"
865,133914053,Barangay 797,Santa Ana,Manila,Metro Manila,"Barangay 797,Santa Ana,Manila,Metro Manila"
866,133914054,Barangay 798,Santa Ana,Manila,Metro Manila,"Barangay 798,Santa Ana,Manila,Metro Manila"
867,133914055,Barangay 799,Santa Ana,Manila,Metro Manila,"Barangay 799,Santa Ana,Manila,Metro Manila"
868,133914056,Barangay 800,Santa Ana,Manila,Metro Manila,"Barangay 800,Santa Ana,Manila,Metro Manila"
869,133914057,Barangay 801,Santa Ana,Manila,Metro Manila,"Barangay 801,Santa Ana,Manila,Metro Manila"
870,133914058,Barangay 802,Santa Ana,Manila,Metro Manila,"Barangay 802,Santa Ana,Manila,Metro Manila"
871,133914059,Barangay 803,Santa Ana,Manila,Metro Manila,"Barangay 803,Santa Ana,Manila,Metro Manila"
872,133914060,Barangay 804,Santa Ana,Manila,Metro Manila,"Barangay 804,Santa Ana,Manila,Metro Manila"
873,133914061,Barangay 805,Santa Ana,Manila,Metro Manila,"Barangay 805,Santa Ana,Manila,Metro Manila"
874,133914062,Barangay 806,Santa Ana,Manila,Metro Manila,"Barangay 806,Santa Ana,Manila,Metro Manila"
875,133914063,Barangay 807,Santa Ana,Manila,Metro Manila,"Barangay 807,Santa Ana,Manila,Metro Manila"
876,133914064,Barangay 866,Santa Ana,Manila,Metro Manila,"Barangay 866,Santa Ana,Manila,Metro Manila"
877,133914066,Barangay 873,Santa Ana,Manila,Metro Manila,"Barangay 873,Santa Ana,Manila,Metro Manila"
878,133914067,Barangay 874,Santa Ana,Manila,Metro Manila,"Barangay 874,Santa Ana,Manila,Metro Manila"
879,133914068,Barangay 875,Santa Ana,Manila,Metro Manila,"Barangay 875,Santa Ana,Manila,Metro Manila"
880,133914069,Barangay 876,Santa Ana,Manila,Metro Manila,"Barangay 876,Santa Ana,Manila,Metro Manila"
881,133914070,Barangay 877,Santa Ana,Manila,Metro Manila,"Barangay 877,Santa Ana,Manila,Metro Manila"
882,133914071,Barangay 878,Santa Ana,Manila,Metro Manila,"Barangay 878,Santa Ana,Manila,Metro Manila"
883,133914072,Barangay 879,Santa Ana,Manila,Metro Manila,"Barangay 879,Santa Ana,Manila,Metro Manila"
884,133914073,Barangay 880,Santa Ana,Manila,Metro Manila,"Barangay 880,Santa Ana,Manila,Metro Manila"
885,133914074,Barangay 881,Santa Ana,Manila,Metro Manila,"Barangay 881,Santa Ana,Manila,Metro Manila"
886,133914075,Barangay 882,Santa Ana,Manila,Metro Manila,"Barangay 882,Santa Ana,Manila,Metro Manila"
887,133914076,Barangay 883,Santa Ana,Manila,Metro Manila,"Barangay 883,Santa Ana,Manila,Metro Manila"
888,133914077,Barangay 884,Santa Ana,Manila,Metro Manila,"Barangay 884,Santa Ana,Manila,Metro Manila"
889,133914078,Barangay 885,Santa Ana,Manila,Metro Manila,"Barangay 885,Santa Ana,Manila,Metro Manila"
890,133914079,Barangay 886,Santa Ana,Manila,Metro Manila,"Barangay 886,Santa Ana,Manila,Metro Manila"
891,133914080,Barangay 887,Santa Ana,Manila,Metro Manila,"Barangay 887,Santa Ana,Manila,Metro Manila"
892,133914081,Barangay 888,Santa Ana,Manila,Metro Manila,"Barangay 888,Santa Ana,Manila,Metro Manila"
893,133914082,Barangay 889,Santa Ana,Manila,Metro Manila,"Barangay 889,Santa Ana,Manila,Metro Manila"
894,133914083,Barangay 890,Santa Ana,Manila,Metro Manila,"Barangay 890,Santa Ana,Manila,Metro Manila"
895,133914084,Barangay 891,Santa Ana,Manila,Metro Manila,"Barangay 891,Santa Ana,Manila,Metro Manila"
896,133914085,Barangay 892,Santa Ana,Manila,Metro Manila,"Barangay 892,Santa Ana,Manila,Metro Manila"
897,133914086,Barangay 893,Santa Ana,Manila,Metro Manila,"Barangay 893,Santa Ana,Manila,Metro Manila"
898,133914087,Barangay 894,Santa Ana,Manila,Metro Manila,"Barangay 894,Santa Ana,Manila,Metro Manila"
899,133914088,Barangay 895,Santa Ana,Manila,Metro Manila,"Barangay 895,Santa Ana,Manila,Metro Manila"
900,133914089,Barangay 896,Santa Ana,Manila,Metro Manila,"Barangay 896,Santa Ana,Manila,Metro Manila"
901,133914090,Barangay 897,Santa Ana,Manila,Metro Manila,"Barangay 897,Santa Ana,Manila,Metro Manila"
902,133914091,Barangay 898,Santa Ana,Manila,Metro Manila,"Barangay 898,Santa Ana,Manila,Metro Manila"
903,133914092,Barangay 899,Santa Ana,Manila,Metro Manila,"Barangay 899,Santa Ana,Manila,Metro Manila"
904,133914093,Barangay 900,Santa Ana,Manila,Metro Manila,"Barangay 900,Santa Ana,Manila,Metro Manila"
905,133914094,Barangay 901,Santa Ana,Manila,Metro Manila,"Barangay 901,Santa Ana,Manila,Metro Manila"
906,133914095,Barangay 902,Santa Ana,Manila,Metro Manila,"Barangay 902,Santa Ana,Manila,Metro Manila"
907,133914096,Barangay 903,Santa Ana,Manila,Metro Manila,"Barangay 903,Santa Ana,Manila,Metro Manila"
908,133914097,Barangay 904,Santa Ana,Manila,Metro Manila,"Barangay 904,Santa Ana,Manila,Metro Manila"
909,133914098,Barangay 905,Santa Ana,Manila,Metro Manila,"Barangay 905,Santa Ana,Manila,Metro Manila"
910,133914099,Barangay 754,Santa Ana,Manila,Metro Manila,"Barangay 754,Santa Ana,Manila,Metro Manila"
911,133914100,Barangay 808,Santa Ana,Manila,Metro Manila,"Barangay 808,Santa Ana,Manila,Metro Manila"
912,133914101,Barangay 818-A,Santa Ana,Manila,Metro Manila,"Barangay 818-A,Santa Ana,Manila,Metro Manila"
913,137400000,"NCR, SECOND DISTRICT",,,,"NCR, SECOND DISTRICT"
914,137401000,CITY OF MANDALUYONG,,,Metro Manila,"CITY OF MANDALUYONG,Metro Manila"
915,137401001,Addition Hills,,Mandaluyong,Metro Manila,"Addition Hills,Mandaluyong,Metro Manila"
916,137401002,Bagong Silang,,Mandaluyong,Metro Manila,"Bagong Silang,Mandaluyong,Metro Manila"
917,137401003,Barangka Drive,,Mandaluyong,Metro Manila,"Barangka Drive,Mandaluyong,Metro Manila"
918,137401004,Barangka Ibaba,,Mandaluyong,Metro Manila,"Barangka Ibaba,Mandaluyong,Metro Manila"
919,137401005,Barangka Ilaya,,Mandaluyong,Metro Manila,"Barangka Ilaya,Mandaluyong,Metro Manila"
920,137401006,Barangka Itaas,,Mandaluyong,Metro Manila,"Barangka Itaas,Mandaluyong,Metro Manila"
921,137401007,Burol,,Mandaluyong,Metro Manila,"Burol,Mandaluyong,Metro Manila"
922,137401008,Buayang Bato,,Mandaluyong,Metro Manila,"Buayang Bato,Mandaluyong,Metro Manila"
923,137401009,Daang Bakal,,Mandaluyong,Metro Manila,"Daang Bakal,Mandaluyong,Metro Manila"
924,137401010,Hagdang Bato Itaas,,Mandaluyong,Metro Manila,"Hagdang Bato Itaas,Mandaluyong,Metro Manila"
925,137401011,Hagdang Bato Libis,,Mandaluyong,Metro Manila,"Hagdang Bato Libis,Mandaluyong,Metro Manila"
926,137401012,Harapin Ang Bukas,,Mandaluyong,Metro Manila,"Harapin Ang Bukas,Mandaluyong,Metro Manila"
927,137401013,Highway Hills,,Mandaluyong,Metro Manila,"Highway Hills,Mandaluyong,Metro Manila"
928,137401014,Hulo,,Mandaluyong,Metro Manila,"Hulo,Mandaluyong,Metro Manila"
929,137401015,Mabini-J. Rizal,,Mandaluyong,Metro Manila,"Mabini-J. Rizal,Mandaluyong,Metro Manila"
930,137401016,Malamig,,Mandaluyong,Metro Manila,"Malamig,Mandaluyong,Metro Manila"
931,137401017,Mauway,,Mandaluyong,Metro Manila,"Mauway,Mandaluyong,Metro Manila"
932,137401018,Namayan,,Mandaluyong,Metro Manila,"Namayan,Mandaluyong,Metro Manila"
933,137401019,New Zaiga,,Mandaluyong,Metro Manila,"New Zaiga,Mandaluyong,Metro Manila"
934,137401020,Old Zaiga,,Mandaluyong,Metro Manila,"Old Zaiga,Mandaluyong,Metro Manila"
935,137401021,Pag-asa,,Mandaluyong,Metro Manila,"Pag-asa,Mandaluyong,Metro Manila"
936,137401022,Plainview,,Mandaluyong,Metro Manila,"Plainview,Mandaluyong,Metro Manila"
937,137401023,Pleasant Hills,,Mandaluyong,Metro Manila,"Pleasant Hills,Mandaluyong,Metro Manila"
938,137401024,Poblacion,,Mandaluyong,Metro Manila,"Poblacion,Mandaluyong,Metro Manila"
939,137401025,San Jose,,Mandaluyong,Metro Manila,"San Jose,Mandaluyong,Metro Manila"
940,137401026,Vergara,,Mandaluyong,Metro Manila,"Vergara,Mandaluyong,Metro Manila"
941,137401027,Wack-wack Greenhills,,Mandaluyong,Metro Manila,"Wack-wack Greenhills,Mandaluyong,Metro Manila"
942,137402000,CITY OF MARIKINA,,,Metro Manila,"CITY OF MARIKINA,Metro Manila"
943,137402001,Barangka,,Marikina,Metro Manila,"Barangka,Marikina,Metro Manila"
944,137402002,Calumpang,,Marikina,Metro Manila,"Calumpang,Marikina,Metro Manila"
945,137402003,Concepcion Uno,,Marikina,Metro Manila,"Concepcion Uno,Marikina,Metro Manila"
946,137402004,Jesus De La Pea,,Marikina,Metro Manila,"Jesus De La Pea,Marikina,Metro Manila"
947,137402005,Malanday,,Marikina,Metro Manila,"Malanday,Marikina,Metro Manila"
948,137402006,Nangka,,Marikina,Metro Manila,"Nangka,Marikina,Metro Manila"
949,137402007,Parang,,Marikina,Metro Manila,"Parang,Marikina,Metro Manila"
950,137402008,San Roque,,Marikina,Metro Manila,"San Roque,Marikina,Metro Manila"
951,137402009,Santa Elena (Pob.),,Marikina,Metro Manila,"Santa Elena (Pob.),Marikina,Metro Manila"
952,137402010,Santo Nio,,Marikina,Metro Manila,"Santo Nio,Marikina,Metro Manila"
953,137402011,Taong,,Marikina,Metro Manila,"Taong,Marikina,Metro Manila"
954,137402012,Concepcion Dos,,Marikina,Metro Manila,"Concepcion Dos,Marikina,Metro Manila"
955,137402013,Marikina Heights (Concepcion),,Marikina,Metro Manila,"Marikina Heights (Concepcion),Marikina,Metro Manila"
956,137402014,Industrial Valley,,Marikina,Metro Manila,"Industrial Valley,Marikina,Metro Manila"
957,137402015,Fortune,,Marikina,Metro Manila,"Fortune,Marikina,Metro Manila"
958,137402016,Tumana,,Marikina,Metro Manila,"Tumana,Marikina,Metro Manila"
959,137403000,CITY OF PASIG,,,Metro Manila,"CITY OF PASIG,Metro Manila"
960,137403001,Bagong Ilog,,Pasig,Metro Manila,"Bagong Ilog,Pasig,Metro Manila"
961,137403002,Bagong Katipunan,,Pasig,Metro Manila,"Bagong Katipunan,Pasig,Metro Manila"
962,137403003,Bambang,,Pasig,Metro Manila,"Bambang,Pasig,Metro Manila"
963,137403004,Buting,,Pasig,Metro Manila,"Buting,Pasig,Metro Manila"
964,137403005,Caniogan,,Pasig,Metro Manila,"Caniogan,Pasig,Metro Manila"
965,137403006,Dela Paz,,Pasig,Metro Manila,"Dela Paz,Pasig,Metro Manila"
966,137403007,Kalawaan,,Pasig,Metro Manila,"Kalawaan,Pasig,Metro Manila"
967,137403008,Kapasigan,,Pasig,Metro Manila,"Kapasigan,Pasig,Metro Manila"
968,137403009,Kapitolyo,,Pasig,Metro Manila,"Kapitolyo,Pasig,Metro Manila"
969,137403010,Malinao,,Pasig,Metro Manila,"Malinao,Pasig,Metro Manila"
970,137403011,Manggahan,,Pasig,Metro Manila,"Manggahan,Pasig,Metro Manila"
971,137403012,Maybunga,,Pasig,Metro Manila,"Maybunga,Pasig,Metro Manila"
972,137403013,Oranbo,,Pasig,Metro Manila,"Oranbo,Pasig,Metro Manila"
973,137403014,Palatiw,,Pasig,Metro Manila,"Palatiw,Pasig,Metro Manila"
974,137403015,Pinagbuhatan,,Pasig,Metro Manila,"Pinagbuhatan,Pasig,Metro Manila"
975,137403016,Pineda,,Pasig,Metro Manila,"Pineda,Pasig,Metro Manila"
976,137403017,Rosario,,Pasig,Metro Manila,"Rosario,Pasig,Metro Manila"
977,137403018,Sagad,,Pasig,Metro Manila,"Sagad,Pasig,Metro Manila"
978,137403019,San Antonio,,Pasig,Metro Manila,"San Antonio,Pasig,Metro Manila"
979,137403020,San Joaquin,,Pasig,Metro Manila,"San Joaquin,Pasig,Metro Manila"
980,137403021,San Jose,,Pasig,Metro Manila,"San Jose,Pasig,Metro Manila"
981,137403022,San Miguel,,Pasig,Metro Manila,"San Miguel,Pasig,Metro Manila"
982,137403023,San Nicolas (Pob.),,Pasig,Metro Manila,"San Nicolas (Pob.),Pasig,Metro Manila"
983,137403024,Santa Cruz,,Pasig,Metro Manila,"Santa Cruz,Pasig,Metro Manila"
984,137403025,Santa Rosa,,Pasig,Metro Manila,"Santa Rosa,Pasig,Metro Manila"
985,137403026,Santo Tomas,,Pasig,Metro Manila,"Santo Tomas,Pasig,Metro Manila"
986,137403027,Santolan,,Pasig,Metro Manila,"Santolan,Pasig,Metro Manila"
987,137403028,Sumilang,,Pasig,Metro Manila,"Sumilang,Pasig,Metro Manila"
988,137403029,Ugong,,Pasig,Metro Manila,"Ugong,Pasig,Metro Manila"
989,137403030,Santa Lucia,,Pasig,Metro Manila,"Santa Lucia,Pasig,Metro Manila"
990,137404000,QUEZON CITY,,,Metro Manila,"QUEZON CITY,Metro Manila"
991,137404001,Alicia,,Quezon City,Metro Manila,"Alicia,Quezon City,Metro Manila"
992,137404002,Amihan,,Quezon City,Metro Manila,"Amihan,Quezon City,Metro Manila"
993,137404003,Apolonio Samson,,Quezon City,Metro Manila,"Apolonio Samson,Quezon City,Metro Manila"
994,137404004,Aurora,,Quezon City,Metro Manila,"Aurora,Quezon City,Metro Manila"
995,137404005,Baesa,,Quezon City,Metro Manila,"Baesa,Quezon City,Metro Manila"
996,137404006,Bagbag,,Quezon City,Metro Manila,"Bagbag,Quezon City,Metro Manila"
997,137404007,Bagumbuhay,,Quezon City,Metro Manila,"Bagumbuhay,Quezon City,Metro Manila"
998,137404008,Bagong Lipunan Ng Crame,,Quezon City,Metro Manila,"Bagong Lipunan Ng Crame,Quezon City,Metro Manila"
999,137404009,Bagong Pag-asa,,Quezon City,Metro Manila,"Bagong Pag-asa,Quezon City,Metro Manila"
1000,137404010,Bagong Silangan,,Quezon City,Metro Manila,"Bagong Silangan,Quezon City,Metro Manila"
1001,137404011,Bagumbayan,,Quezon City,Metro Manila,"Bagumbayan,Quezon City,Metro Manila"
1002,137404012,Bahay Toro,,Quezon City,Metro Manila,"Bahay Toro,Quezon City,Metro Manila"
1003,137404013,Balingasa,,Quezon City,Metro Manila,"Balingasa,Quezon City,Metro Manila"
1004,137404014,Bayanihan,,Quezon City,Metro Manila,"Bayanihan,Quezon City,Metro Manila"
1005,137404015,Blue Ridge A,,Quezon City,Metro Manila,"Blue Ridge A,Quezon City,Metro Manila"
1006,137404016,Blue Ridge B,,Quezon City,Metro Manila,"Blue Ridge B,Quezon City,Metro Manila"
1007,137404017,Botocan,,Quezon City,Metro Manila,"Botocan,Quezon City,Metro Manila"
1008,137404018,Bungad,,Quezon City,Metro Manila,"Bungad,Quezon City,Metro Manila"
1009,137404019,Camp Aguinaldo,,Quezon City,Metro Manila,"Camp Aguinaldo,Quezon City,Metro Manila"
1010,137404020,Central,,Quezon City,Metro Manila,"Central,Quezon City,Metro Manila"
1011,137404021,Claro,,Quezon City,Metro Manila,"Claro,Quezon City,Metro Manila"
1012,137404022,Commonwealth,,Quezon City,Metro Manila,"Commonwealth,Quezon City,Metro Manila"
1013,137404023,New Era (Constitution Hills),,Quezon City,Metro Manila,"New Era (Constitution Hills),Quezon City,Metro Manila"
1014,137404024,Kristong Hari,,Quezon City,Metro Manila,"Kristong Hari,Quezon City,Metro Manila"
1015,137404025,Culiat,,Quezon City,Metro Manila,"Culiat,Quezon City,Metro Manila"
1016,137404026,Damar,,Quezon City,Metro Manila,"Damar,Quezon City,Metro Manila"
1017,137404027,Damayan,,Quezon City,Metro Manila,"Damayan,Quezon City,Metro Manila"
1018,137404028,Damayang Lagi,,Quezon City,Metro Manila,"Damayang Lagi,Quezon City,Metro Manila"
1019,137404029,Del Monte,,Quezon City,Metro Manila,"Del Monte,Quezon City,Metro Manila"
1020,137404030,Dioquino Zobel,,Quezon City,Metro Manila,"Dioquino Zobel,Quezon City,Metro Manila"
1021,137404031,Doa Imelda,,Quezon City,Metro Manila,"Doa Imelda,Quezon City,Metro Manila"
1022,137404032,Doa Josefa,,Quezon City,Metro Manila,"Doa Josefa,Quezon City,Metro Manila"
1023,137404033,Don Manuel,,Quezon City,Metro Manila,"Don Manuel,Quezon City,Metro Manila"
1024,137404034,Duyan-duyan,,Quezon City,Metro Manila,"Duyan-duyan,Quezon City,Metro Manila"
1025,137404035,E. Rodriguez,,Quezon City,Metro Manila,"E. Rodriguez,Quezon City,Metro Manila"
1026,137404036,East Kamias,,Quezon City,Metro Manila,"East Kamias,Quezon City,Metro Manila"
1027,137404037,Escopa I,,Quezon City,Metro Manila,"Escopa I,Quezon City,Metro Manila"
1028,137404038,Escopa II,,Quezon City,Metro Manila,"Escopa II,Quezon City,Metro Manila"
1029,137404039,Escopa III,,Quezon City,Metro Manila,"Escopa III,Quezon City,Metro Manila"
1030,137404040,Escopa IV,,Quezon City,Metro Manila,"Escopa IV,Quezon City,Metro Manila"
1031,137404041,Fairview,,Quezon City,Metro Manila,"Fairview,Quezon City,Metro Manila"
1032,137404042,N.S. Amoranto (Gintong Silahis),,Quezon City,Metro Manila,"N.S. Amoranto (Gintong Silahis),Quezon City,Metro Manila"
1033,137404043,Gulod,,Quezon City,Metro Manila,"Gulod,Quezon City,Metro Manila"
1034,137404044,Horseshoe,,Quezon City,Metro Manila,"Horseshoe,Quezon City,Metro Manila"
1035,137404045,Immaculate Concepcion,,Quezon City,Metro Manila,"Immaculate Concepcion,Quezon City,Metro Manila"
1036,137404046,Kaligayahan,,Quezon City,Metro Manila,"Kaligayahan,Quezon City,Metro Manila"
1037,137404047,Kalusugan,,Quezon City,Metro Manila,"Kalusugan,Quezon City,Metro Manila"
1038,137404048,Kamuning,,Quezon City,Metro Manila,"Kamuning,Quezon City,Metro Manila"
1039,137404049,Katipunan,,Quezon City,Metro Manila,"Katipunan,Quezon City,Metro Manila"
1040,137404050,Kaunlaran,,Quezon City,Metro Manila,"Kaunlaran,Quezon City,Metro Manila"
1041,137404051,Krus Na Ligas,,Quezon City,Metro Manila,"Krus Na Ligas,Quezon City,Metro Manila"
1042,137404052,Laging Handa,,Quezon City,Metro Manila,"Laging Handa,Quezon City,Metro Manila"
1043,137404053,Libis,,Quezon City,Metro Manila,"Libis,Quezon City,Metro Manila"
1044,137404054,Lourdes,,Quezon City,Metro Manila,"Lourdes,Quezon City,Metro Manila"
1045,137404055,Loyola Heights,,Quezon City,Metro Manila,"Loyola Heights,Quezon City,Metro Manila"
1046,137404056,Maharlika,,Quezon City,Metro Manila,"Maharlika,Quezon City,Metro Manila"
1047,137404057,Malaya,,Quezon City,Metro Manila,"Malaya,Quezon City,Metro Manila"
1048,137404058,Manresa,,Quezon City,Metro Manila,"Manresa,Quezon City,Metro Manila"
1049,137404059,Mangga,,Quezon City,Metro Manila,"Mangga,Quezon City,Metro Manila"
1050,137404060,Mariana,,Quezon City,Metro Manila,"Mariana,Quezon City,Metro Manila"
1051,137404061,Mariblo,,Quezon City,Metro Manila,"Mariblo,Quezon City,Metro Manila"
1052,137404062,Marilag,,Quezon City,Metro Manila,"Marilag,Quezon City,Metro Manila"
1053,137404063,Masagana,,Quezon City,Metro Manila,"Masagana,Quezon City,Metro Manila"
1054,137404064,Masambong,,Quezon City,Metro Manila,"Masambong,Quezon City,Metro Manila"
1055,137404065,Santo Domingo (Matalahib),,Quezon City,Metro Manila,"Santo Domingo (Matalahib),Quezon City,Metro Manila"
1056,137404066,Matandang Balara,,Quezon City,Metro Manila,"Matandang Balara,Quezon City,Metro Manila"
1057,137404067,Milagrosa,,Quezon City,Metro Manila,"Milagrosa,Quezon City,Metro Manila"
1058,137404068,Nagkaisang Nayon,,Quezon City,Metro Manila,"Nagkaisang Nayon,Quezon City,Metro Manila"
1059,137404069,Nayong Kanluran,,Quezon City,Metro Manila,"Nayong Kanluran,Quezon City,Metro Manila"
1060,137404070,Novaliches Proper,,Quezon City,Metro Manila,"Novaliches Proper,Quezon City,Metro Manila"
1061,137404071,Obrero,,Quezon City,Metro Manila,"Obrero,Quezon City,Metro Manila"
1062,137404072,Old Capitol Site,,Quezon City,Metro Manila,"Old Capitol Site,Quezon City,Metro Manila"
1063,137404073,Paang Bundok,,Quezon City,Metro Manila,"Paang Bundok,Quezon City,Metro Manila"
1064,137404074,Pag-ibig Sa Nayon,,Quezon City,Metro Manila,"Pag-ibig Sa Nayon,Quezon City,Metro Manila"
1065,137404075,Paligsahan,,Quezon City,Metro Manila,"Paligsahan,Quezon City,Metro Manila"
1066,137404076,Paltok,,Quezon City,Metro Manila,"Paltok,Quezon City,Metro Manila"
1067,137404077,Pansol,,Quezon City,Metro Manila,"Pansol,Quezon City,Metro Manila"
1068,137404078,Paraiso,,Quezon City,Metro Manila,"Paraiso,Quezon City,Metro Manila"
1069,137404079,Pasong Putik Proper (Pasong Putik),,Quezon City,Metro Manila,"Pasong Putik Proper (Pasong Putik),Quezon City,Metro Manila"
1070,137404080,Pasong Tamo,,Quezon City,Metro Manila,"Pasong Tamo,Quezon City,Metro Manila"
1071,137404081,Phil-Am,,Quezon City,Metro Manila,"Phil-Am,Quezon City,Metro Manila"
1072,137404082,Pinyahan,,Quezon City,Metro Manila,"Pinyahan,Quezon City,Metro Manila"
1073,137404083,Pinagkaisahan,,Quezon City,Metro Manila,"Pinagkaisahan,Quezon City,Metro Manila"
1074,137404084,Project 6,,Quezon City,Metro Manila,"Project 6,Quezon City,Metro Manila"
1075,137404085,Quirino 2-A,,Quezon City,Metro Manila,"Quirino 2-A,Quezon City,Metro Manila"
1076,137404086,Quirino 2-B,,Quezon City,Metro Manila,"Quirino 2-B,Quezon City,Metro Manila"
1077,137404087,Quirino 2-C,,Quezon City,Metro Manila,"Quirino 2-C,Quezon City,Metro Manila"
1078,137404088,Quirino 3-A,,Quezon City,Metro Manila,"Quirino 3-A,Quezon City,Metro Manila"
1079,137404089,Ramon Magsaysay,,Quezon City,Metro Manila,"Ramon Magsaysay,Quezon City,Metro Manila"
1080,137404090,Roxas,,Quezon City,Metro Manila,"Roxas,Quezon City,Metro Manila"
1081,137404091,Sacred Heart,,Quezon City,Metro Manila,"Sacred Heart,Quezon City,Metro Manila"
1082,137404092,Saint Ignatius,,Quezon City,Metro Manila,"Saint Ignatius,Quezon City,Metro Manila"
1083,137404093,Saint Peter,,Quezon City,Metro Manila,"Saint Peter,Quezon City,Metro Manila"
1084,137404094,Salvacion,,Quezon City,Metro Manila,"Salvacion,Quezon City,Metro Manila"
1085,137404095,San Agustin,,Quezon City,Metro Manila,"San Agustin,Quezon City,Metro Manila"
1086,137404096,San Antonio,,Quezon City,Metro Manila,"San Antonio,Quezon City,Metro Manila"
1087,137404097,San Bartolome,,Quezon City,Metro Manila,"San Bartolome,Quezon City,Metro Manila"
1088,137404098,San Isidro,,Quezon City,Metro Manila,"San Isidro,Quezon City,Metro Manila"
1089,137404099,San Isidro Labrador,,Quezon City,Metro Manila,"San Isidro Labrador,Quezon City,Metro Manila"
1090,137404100,San Jose,,Quezon City,Metro Manila,"San Jose,Quezon City,Metro Manila"
1091,137404101,San Martin De Porres,,Quezon City,Metro Manila,"San Martin De Porres,Quezon City,Metro Manila"
1092,137404102,San Roque,,Quezon City,Metro Manila,"San Roque,Quezon City,Metro Manila"
1093,137404103,San Vicente,,Quezon City,Metro Manila,"San Vicente,Quezon City,Metro Manila"
1094,137404104,Santa Cruz,,Quezon City,Metro Manila,"Santa Cruz,Quezon City,Metro Manila"
1095,137404105,Santa Lucia,,Quezon City,Metro Manila,"Santa Lucia,Quezon City,Metro Manila"
1096,137404106,Santa Monica,,Quezon City,Metro Manila,"Santa Monica,Quezon City,Metro Manila"
1097,137404107,Santa Teresita,,Quezon City,Metro Manila,"Santa Teresita,Quezon City,Metro Manila"
1098,137404108,Santo Cristo,,Quezon City,Metro Manila,"Santo Cristo,Quezon City,Metro Manila"
1099,137404109,Santo Nio,,Quezon City,Metro Manila,"Santo Nio,Quezon City,Metro Manila"
1100,137404110,Santol,,Quezon City,Metro Manila,"Santol,Quezon City,Metro Manila"
1101,137404111,Sauyo,,Quezon City,Metro Manila,"Sauyo,Quezon City,Metro Manila"
1102,137404112,Sienna,,Quezon City,Metro Manila,"Sienna,Quezon City,Metro Manila"
1103,137404113,Sikatuna Village,,Quezon City,Metro Manila,"Sikatuna Village,Quezon City,Metro Manila"
1104,137404114,Silangan,,Quezon City,Metro Manila,"Silangan,Quezon City,Metro Manila"
1105,137404115,Socorro,,Quezon City,Metro Manila,"Socorro,Quezon City,Metro Manila"
1106,137404116,South Triangle,,Quezon City,Metro Manila,"South Triangle,Quezon City,Metro Manila"
1107,137404117,Tagumpay,,Quezon City,Metro Manila,"Tagumpay,Quezon City,Metro Manila"
1108,137404118,Talayan,,Quezon City,Metro Manila,"Talayan,Quezon City,Metro Manila"
1109,137404119,Talipapa,,Quezon City,Metro Manila,"Talipapa,Quezon City,Metro Manila"
1110,137404120,Tandang Sora,,Quezon City,Metro Manila,"Tandang Sora,Quezon City,Metro Manila"
1111,137404121,Tatalon,,Quezon City,Metro Manila,"Tatalon,Quezon City,Metro Manila"
1112,137404122,Teachers Village East,,Quezon City,Metro Manila,"Teachers Village East,Quezon City,Metro Manila"
1113,137404123,Teachers Village West,,Quezon City,Metro Manila,"Teachers Village West,Quezon City,Metro Manila"
1114,137404124,U.P. Campus,,Quezon City,Metro Manila,"U.P. Campus,Quezon City,Metro Manila"
1115,137404125,U.P. Village,,Quezon City,Metro Manila,"U.P. Village,Quezon City,Metro Manila"
1116,137404126,Ugong Norte,,Quezon City,Metro Manila,"Ugong Norte,Quezon City,Metro Manila"
1117,137404127,Unang Sigaw,,Quezon City,Metro Manila,"Unang Sigaw,Quezon City,Metro Manila"
1118,137404128,Valencia,,Quezon City,Metro Manila,"Valencia,Quezon City,Metro Manila"
1119,137404129,Vasra,,Quezon City,Metro Manila,"Vasra,Quezon City,Metro Manila"
1120,137404130,Veterans Village,,Quezon City,Metro Manila,"Veterans Village,Quezon City,Metro Manila"
1121,137404131,Villa Maria Clara,,Quezon City,Metro Manila,"Villa Maria Clara,Quezon City,Metro Manila"
1122,137404132,West Kamias,,Quezon City,Metro Manila,"West Kamias,Quezon City,Metro Manila"
1123,137404133,West Triangle,,Quezon City,Metro Manila,"West Triangle,Quezon City,Metro Manila"
1124,137404134,White Plains,,Quezon City,Metro Manila,"White Plains,Quezon City,Metro Manila"
1125,137404135,Balong Bato,,Quezon City,Metro Manila,"Balong Bato,Quezon City,Metro Manila"
1126,137404136,Capri,,Quezon City,Metro Manila,"Capri,Quezon City,Metro Manila"
1127,137404137,Sangandaan,,Quezon City,Metro Manila,"Sangandaan,Quezon City,Metro Manila"
1128,137404138,Payatas,,Quezon City,Metro Manila,"Payatas,Quezon City,Metro Manila"
1129,137404139,Batasan Hills,,Quezon City,Metro Manila,"Batasan Hills,Quezon City,Metro Manila"
1130,137404140,Holy Spirit,,Quezon City,Metro Manila,"Holy Spirit,Quezon City,Metro Manila"
1131,137404141,Greater Lagro,,Quezon City,Metro Manila,"Greater Lagro,Quezon City,Metro Manila"
1132,137404142,North Fairview,,Quezon City,Metro Manila,"North Fairview,Quezon City,Metro Manila"
1133,137405000,CITY OF SAN JUAN,,Quezon City,Metro Manila,"CITY OF SAN JUAN,Quezon City,Metro Manila"
1134,137405001,Addition Hills,,Quezon City,Metro Manila,"Addition Hills,Quezon City,Metro Manila"
1135,137405002,Balong-Bato,,Quezon City,Metro Manila,"Balong-Bato,Quezon City,Metro Manila"
1136,137405003,Batis,,Quezon City,Metro Manila,"Batis,Quezon City,Metro Manila"
1137,137405004,Corazon De Jesus,,Quezon City,Metro Manila,"Corazon De Jesus,Quezon City,Metro Manila"
1138,137405005,Ermitao,,Quezon City,Metro Manila,"Ermitao,Quezon City,Metro Manila"
1139,137405006,Halo-halo (St. Joseph),,Quezon City,Metro Manila,"Halo-halo (St. Joseph),Quezon City,Metro Manila"
1140,137405007,Isabelita,,Quezon City,Metro Manila,"Isabelita,Quezon City,Metro Manila"
1141,137405008,Kabayanan,,Quezon City,Metro Manila,"Kabayanan,Quezon City,Metro Manila"
1142,137405009,Little Baguio,,Quezon City,Metro Manila,"Little Baguio,Quezon City,Metro Manila"
1143,137405010,Maytunas,,Quezon City,Metro Manila,"Maytunas,Quezon City,Metro Manila"
1144,137405011,Onse,,Quezon City,Metro Manila,"Onse,Quezon City,Metro Manila"
1145,137405012,Pasadea,,Quezon City,Metro Manila,"Pasadea,Quezon City,Metro Manila"
1146,137405013,Pedro Cruz,,Quezon City,Metro Manila,"Pedro Cruz,Quezon City,Metro Manila"
1147,137405014,Progreso,,Quezon City,Metro Manila,"Progreso,Quezon City,Metro Manila"
1148,137405015,Rivera,,Quezon City,Metro Manila,"Rivera,Quezon City,Metro Manila"
1149,137405016,Salapan,,Quezon City,Metro Manila,"Salapan,Quezon City,Metro Manila"
1150,137405017,San Perfecto,,Quezon City,Metro Manila,"San Perfecto,Quezon City,Metro Manila"
1151,137405018,Santa Lucia,,Quezon City,Metro Manila,"Santa Lucia,Quezon City,Metro Manila"
1152,137405019,Tibagan,,Quezon City,Metro Manila,"Tibagan,Quezon City,Metro Manila"
1153,137405020,West Crame,,Quezon City,Metro Manila,"West Crame,Quezon City,Metro Manila"
1154,137405021,Greenhills,,Quezon City,Metro Manila,"Greenhills,Quezon City,Metro Manila"
1155,137500000,"NCR, THIRD DISTRICT",,,Metro Manila,"NCR, THIRD DISTRICT,Metro Manila"
1156,137501000,CITY OF CALOOCAN,,,Metro Manila,"CITY OF CALOOCAN,Metro Manila"
1157,137501001,Barangay 1,,Caloocan,Metro Manila,"Barangay 1,Caloocan,Metro Manila"
1158,137501002,Barangay 2,,Caloocan,Metro Manila,"Barangay 2,Caloocan,Metro Manila"
1159,137501003,Barangay 3,,Caloocan,Metro Manila,"Barangay 3,Caloocan,Metro Manila"
1160,137501004,Barangay 4,,Caloocan,Metro Manila,"Barangay 4,Caloocan,Metro Manila"
1161,137501005,Barangay 5,,Caloocan,Metro Manila,"Barangay 5,Caloocan,Metro Manila"
1162,137501006,Barangay 6,,Caloocan,Metro Manila,"Barangay 6,Caloocan,Metro Manila"
1163,137501007,Barangay 7,,Caloocan,Metro Manila,"Barangay 7,Caloocan,Metro Manila"
1164,137501008,Barangay 8,,Caloocan,Metro Manila,"Barangay 8,Caloocan,Metro Manila"
1165,137501009,Barangay 9,,Caloocan,Metro Manila,"Barangay 9,Caloocan,Metro Manila"
1166,137501010,Barangay 10,,Caloocan,Metro Manila,"Barangay 10,Caloocan,Metro Manila"
1167,137501011,Barangay 11,,Caloocan,Metro Manila,"Barangay 11,Caloocan,Metro Manila"
1168,137501012,Barangay 12,,Caloocan,Metro Manila,"Barangay 12,Caloocan,Metro Manila"
1169,137501013,Barangay 13,,Caloocan,Metro Manila,"Barangay 13,Caloocan,Metro Manila"
1170,137501014,Barangay 14,,Caloocan,Metro Manila,"Barangay 14,Caloocan,Metro Manila"
1171,137501015,Barangay 15,,Caloocan,Metro Manila,"Barangay 15,Caloocan,Metro Manila"
1172,137501016,Barangay 16,,Caloocan,Metro Manila,"Barangay 16,Caloocan,Metro Manila"
1173,137501017,Barangay 17,,Caloocan,Metro Manila,"Barangay 17,Caloocan,Metro Manila"
1174,137501018,Barangay 18,,Caloocan,Metro Manila,"Barangay 18,Caloocan,Metro Manila"
1175,137501019,Barangay 19,,Caloocan,Metro Manila,"Barangay 19,Caloocan,Metro Manila"
1176,137501020,Barangay 20,,Caloocan,Metro Manila,"Barangay 20,Caloocan,Metro Manila"
1177,137501021,Barangay 21,,Caloocan,Metro Manila,"Barangay 21,Caloocan,Metro Manila"
1178,137501022,Barangay 22,,Caloocan,Metro Manila,"Barangay 22,Caloocan,Metro Manila"
1179,137501023,Barangay 23,,Caloocan,Metro Manila,"Barangay 23,Caloocan,Metro Manila"
1180,137501024,Barangay 24,,Caloocan,Metro Manila,"Barangay 24,Caloocan,Metro Manila"
1181,137501025,Barangay 25,,Caloocan,Metro Manila,"Barangay 25,Caloocan,Metro Manila"
1182,137501026,Barangay 26,,Caloocan,Metro Manila,"Barangay 26,Caloocan,Metro Manila"
1183,137501027,Barangay 27,,Caloocan,Metro Manila,"Barangay 27,Caloocan,Metro Manila"
1184,137501028,Barangay 28,,Caloocan,Metro Manila,"Barangay 28,Caloocan,Metro Manila"
1185,137501029,Barangay 29,,Caloocan,Metro Manila,"Barangay 29,Caloocan,Metro Manila"
1186,137501030,Barangay 30,,Caloocan,Metro Manila,"Barangay 30,Caloocan,Metro Manila"
1187,137501031,Barangay 31,,Caloocan,Metro Manila,"Barangay 31,Caloocan,Metro Manila"
1188,137501032,Barangay 32,,Caloocan,Metro Manila,"Barangay 32,Caloocan,Metro Manila"
1189,137501033,Barangay 33,,Caloocan,Metro Manila,"Barangay 33,Caloocan,Metro Manila"
1190,137501034,Barangay 34,,Caloocan,Metro Manila,"Barangay 34,Caloocan,Metro Manila"
1191,137501035,Barangay 35,,Caloocan,Metro Manila,"Barangay 35,Caloocan,Metro Manila"
1192,137501036,Barangay 36,,Caloocan,Metro Manila,"Barangay 36,Caloocan,Metro Manila"
1193,137501037,Barangay 37,,Caloocan,Metro Manila,"Barangay 37,Caloocan,Metro Manila"
1194,137501038,Barangay 38,,Caloocan,Metro Manila,"Barangay 38,Caloocan,Metro Manila"
1195,137501039,Barangay 39,,Caloocan,Metro Manila,"Barangay 39,Caloocan,Metro Manila"
1196,137501040,Barangay 40,,Caloocan,Metro Manila,"Barangay 40,Caloocan,Metro Manila"
1197,137501041,Barangay 41,,Caloocan,Metro Manila,"Barangay 41,Caloocan,Metro Manila"
1198,137501042,Barangay 42,,Caloocan,Metro Manila,"Barangay 42,Caloocan,Metro Manila"
1199,137501043,Barangay 43,,Caloocan,Metro Manila,"Barangay 43,Caloocan,Metro Manila"
1200,137501044,Barangay 44,,Caloocan,Metro Manila,"Barangay 44,Caloocan,Metro Manila"
1201,137501045,Barangay 45,,Caloocan,Metro Manila,"Barangay 45,Caloocan,Metro Manila"
1202,137501046,Barangay 46,,Caloocan,Metro Manila,"Barangay 46,Caloocan,Metro Manila"
1203,137501047,Barangay 47,,Caloocan,Metro Manila,"Barangay 47,Caloocan,Metro Manila"
1204,137501048,Barangay 48,,Caloocan,Metro Manila,"Barangay 48,Caloocan,Metro Manila"
1205,137501049,Barangay 49,,Caloocan,Metro Manila,"Barangay 49,Caloocan,Metro Manila"
1206,137501050,Barangay 50,,Caloocan,Metro Manila,"Barangay 50,Caloocan,Metro Manila"
1207,137501051,Barangay 51,,Caloocan,Metro Manila,"Barangay 51,Caloocan,Metro Manila"
1208,137501052,Barangay 52,,Caloocan,Metro Manila,"Barangay 52,Caloocan,Metro Manila"
1209,137501053,Barangay 53,,Caloocan,Metro Manila,"Barangay 53,Caloocan,Metro Manila"
1210,137501054,Barangay 54,,Caloocan,Metro Manila,"Barangay 54,Caloocan,Metro Manila"
1211,137501055,Barangay 55,,Caloocan,Metro Manila,"Barangay 55,Caloocan,Metro Manila"
1212,137501056,Barangay 56,,Caloocan,Metro Manila,"Barangay 56,Caloocan,Metro Manila"
1213,137501057,Barangay 57,,Caloocan,Metro Manila,"Barangay 57,Caloocan,Metro Manila"
1214,137501058,Barangay 58,,Caloocan,Metro Manila,"Barangay 58,Caloocan,Metro Manila"
1215,137501059,Barangay 59,,Caloocan,Metro Manila,"Barangay 59,Caloocan,Metro Manila"
1216,137501060,Barangay 60,,Caloocan,Metro Manila,"Barangay 60,Caloocan,Metro Manila"
1217,137501061,Barangay 61,,Caloocan,Metro Manila,"Barangay 61,Caloocan,Metro Manila"
1218,137501062,Barangay 62,,Caloocan,Metro Manila,"Barangay 62,Caloocan,Metro Manila"
1219,137501063,Barangay 63,,Caloocan,Metro Manila,"Barangay 63,Caloocan,Metro Manila"
1220,137501064,Barangay 64,,Caloocan,Metro Manila,"Barangay 64,Caloocan,Metro Manila"
1221,137501065,Barangay 65,,Caloocan,Metro Manila,"Barangay 65,Caloocan,Metro Manila"
1222,137501066,Barangay 66,,Caloocan,Metro Manila,"Barangay 66,Caloocan,Metro Manila"
1223,137501067,Barangay 67,,Caloocan,Metro Manila,"Barangay 67,Caloocan,Metro Manila"
1224,137501068,Barangay 68,,Caloocan,Metro Manila,"Barangay 68,Caloocan,Metro Manila"
1225,137501069,Barangay 69,,Caloocan,Metro Manila,"Barangay 69,Caloocan,Metro Manila"
1226,137501070,Barangay 70,,Caloocan,Metro Manila,"Barangay 70,Caloocan,Metro Manila"
1227,137501071,Barangay 71,,Caloocan,Metro Manila,"Barangay 71,Caloocan,Metro Manila"
1228,137501072,Barangay 72,,Caloocan,Metro Manila,"Barangay 72,Caloocan,Metro Manila"
1229,137501073,Barangay 73,,Caloocan,Metro Manila,"Barangay 73,Caloocan,Metro Manila"
1230,137501074,Barangay 74,,Caloocan,Metro Manila,"Barangay 74,Caloocan,Metro Manila"
1231,137501075,Barangay 75,,Caloocan,Metro Manila,"Barangay 75,Caloocan,Metro Manila"
1232,137501076,Barangay 76,,Caloocan,Metro Manila,"Barangay 76,Caloocan,Metro Manila"
1233,137501077,Barangay 77,,Caloocan,Metro Manila,"Barangay 77,Caloocan,Metro Manila"
1234,137501078,Barangay 78,,Caloocan,Metro Manila,"Barangay 78,Caloocan,Metro Manila"
1235,137501079,Barangay 79,,Caloocan,Metro Manila,"Barangay 79,Caloocan,Metro Manila"
1236,137501080,Barangay 80,,Caloocan,Metro Manila,"Barangay 80,Caloocan,Metro Manila"
1237,137501081,Barangay 81,,Caloocan,Metro Manila,"Barangay 81,Caloocan,Metro Manila"
1238,137501082,Barangay 82,,Caloocan,Metro Manila,"Barangay 82,Caloocan,Metro Manila"
1239,137501083,Barangay 83,,Caloocan,Metro Manila,"Barangay 83,Caloocan,Metro Manila"
1240,137501084,Barangay 84,,Caloocan,Metro Manila,"Barangay 84,Caloocan,Metro Manila"
1241,137501085,Barangay 85,,Caloocan,Metro Manila,"Barangay 85,Caloocan,Metro Manila"
1242,137501086,Barangay 86,,Caloocan,Metro Manila,"Barangay 86,Caloocan,Metro Manila"
1243,137501087,Barangay 87,,Caloocan,Metro Manila,"Barangay 87,Caloocan,Metro Manila"
1244,137501088,Barangay 88,,Caloocan,Metro Manila,"Barangay 88,Caloocan,Metro Manila"
1245,137501089,Barangay 89,,Caloocan,Metro Manila,"Barangay 89,Caloocan,Metro Manila"
1246,137501090,Barangay 90,,Caloocan,Metro Manila,"Barangay 90,Caloocan,Metro Manila"
1247,137501091,Barangay 91,,Caloocan,Metro Manila,"Barangay 91,Caloocan,Metro Manila"
1248,137501092,Barangay 92,,Caloocan,Metro Manila,"Barangay 92,Caloocan,Metro Manila"
1249,137501093,Barangay 93,,Caloocan,Metro Manila,"Barangay 93,Caloocan,Metro Manila"
1250,137501094,Barangay 94,,Caloocan,Metro Manila,"Barangay 94,Caloocan,Metro Manila"
1251,137501095,Barangay 95,,Caloocan,Metro Manila,"Barangay 95,Caloocan,Metro Manila"
1252,137501096,Barangay 96,,Caloocan,Metro Manila,"Barangay 96,Caloocan,Metro Manila"
1253,137501097,Barangay 97,,Caloocan,Metro Manila,"Barangay 97,Caloocan,Metro Manila"
1254,137501098,Barangay 98,,Caloocan,Metro Manila,"Barangay 98,Caloocan,Metro Manila"
1255,137501099,Barangay 99,,Caloocan,Metro Manila,"Barangay 99,Caloocan,Metro Manila"
1256,137501100,Barangay 100,,Caloocan,Metro Manila,"Barangay 100,Caloocan,Metro Manila"
1257,137501101,Barangay 101,,Caloocan,Metro Manila,"Barangay 101,Caloocan,Metro Manila"
1258,137501102,Barangay 102,,Caloocan,Metro Manila,"Barangay 102,Caloocan,Metro Manila"
1259,137501103,Barangay 103,,Caloocan,Metro Manila,"Barangay 103,Caloocan,Metro Manila"
1260,137501104,Barangay 104,,Caloocan,Metro Manila,"Barangay 104,Caloocan,Metro Manila"
1261,137501105,Barangay 105,,Caloocan,Metro Manila,"Barangay 105,Caloocan,Metro Manila"
1262,137501106,Barangay 106,,Caloocan,Metro Manila,"Barangay 106,Caloocan,Metro Manila"
1263,137501107,Barangay 107,,Caloocan,Metro Manila,"Barangay 107,Caloocan,Metro Manila"
1264,137501108,Barangay 108,,Caloocan,Metro Manila,"Barangay 108,Caloocan,Metro Manila"
1265,137501109,Barangay 109,,Caloocan,Metro Manila,"Barangay 109,Caloocan,Metro Manila"
1266,137501110,Barangay 110,,Caloocan,Metro Manila,"Barangay 110,Caloocan,Metro Manila"
1267,137501111,Barangay 111,,Caloocan,Metro Manila,"Barangay 111,Caloocan,Metro Manila"
1268,137501112,Barangay 112,,Caloocan,Metro Manila,"Barangay 112,Caloocan,Metro Manila"
1269,137501113,Barangay 113,,Caloocan,Metro Manila,"Barangay 113,Caloocan,Metro Manila"
1270,137501114,Barangay 114,,Caloocan,Metro Manila,"Barangay 114,Caloocan,Metro Manila"
1271,137501115,Barangay 115,,Caloocan,Metro Manila,"Barangay 115,Caloocan,Metro Manila"
1272,137501116,Barangay 116,,Caloocan,Metro Manila,"Barangay 116,Caloocan,Metro Manila"
1273,137501117,Barangay 117,,Caloocan,Metro Manila,"Barangay 117,Caloocan,Metro Manila"
1274,137501118,Barangay 118,,Caloocan,Metro Manila,"Barangay 118,Caloocan,Metro Manila"
1275,137501119,Barangay 119,,Caloocan,Metro Manila,"Barangay 119,Caloocan,Metro Manila"
1276,137501120,Barangay 120,,Caloocan,Metro Manila,"Barangay 120,Caloocan,Metro Manila"
1277,137501121,Barangay 121,,Caloocan,Metro Manila,"Barangay 121,Caloocan,Metro Manila"
1278,137501122,Barangay 122,,Caloocan,Metro Manila,"Barangay 122,Caloocan,Metro Manila"
1279,137501123,Barangay 123,,Caloocan,Metro Manila,"Barangay 123,Caloocan,Metro Manila"
1280,137501124,Barangay 124,,Caloocan,Metro Manila,"Barangay 124,Caloocan,Metro Manila"
1281,137501125,Barangay 125,,Caloocan,Metro Manila,"Barangay 125,Caloocan,Metro Manila"
1282,137501126,Barangay 126,,Caloocan,Metro Manila,"Barangay 126,Caloocan,Metro Manila"
1283,137501127,Barangay 127,,Caloocan,Metro Manila,"Barangay 127,Caloocan,Metro Manila"
1284,137501128,Barangay 128,,Caloocan,Metro Manila,"Barangay 128,Caloocan,Metro Manila"
1285,137501129,Barangay 129,,Caloocan,Metro Manila,"Barangay 129,Caloocan,Metro Manila"
1286,137501130,Barangay 130,,Caloocan,Metro Manila,"Barangay 130,Caloocan,Metro Manila"
1287,137501131,Barangay 131,,Caloocan,Metro Manila,"Barangay 131,Caloocan,Metro Manila"
1288,137501132,Barangay 132,,Caloocan,Metro Manila,"Barangay 132,Caloocan,Metro Manila"
1289,137501133,Barangay 133,,Caloocan,Metro Manila,"Barangay 133,Caloocan,Metro Manila"
1290,137501134,Barangay 134,,Caloocan,Metro Manila,"Barangay 134,Caloocan,Metro Manila"
1291,137501135,Barangay 135,,Caloocan,Metro Manila,"Barangay 135,Caloocan,Metro Manila"
1292,137501136,Barangay 136,,Caloocan,Metro Manila,"Barangay 136,Caloocan,Metro Manila"
1293,137501137,Barangay 137,,Caloocan,Metro Manila,"Barangay 137,Caloocan,Metro Manila"
1294,137501138,Barangay 138,,Caloocan,Metro Manila,"Barangay 138,Caloocan,Metro Manila"
1295,137501139,Barangay 139,,Caloocan,Metro Manila,"Barangay 139,Caloocan,Metro Manila"
1296,137501140,Barangay 140,,Caloocan,Metro Manila,"Barangay 140,Caloocan,Metro Manila"
1297,137501141,Barangay 141,,Caloocan,Metro Manila,"Barangay 141,Caloocan,Metro Manila"
1298,137501142,Barangay 142,,Caloocan,Metro Manila,"Barangay 142,Caloocan,Metro Manila"
1299,137501143,Barangay 143,,Caloocan,Metro Manila,"Barangay 143,Caloocan,Metro Manila"
1300,137501144,Barangay 144,,Caloocan,Metro Manila,"Barangay 144,Caloocan,Metro Manila"
1301,137501145,Barangay 145,,Caloocan,Metro Manila,"Barangay 145,Caloocan,Metro Manila"
1302,137501146,Barangay 146,,Caloocan,Metro Manila,"Barangay 146,Caloocan,Metro Manila"
1303,137501147,Barangay 147,,Caloocan,Metro Manila,"Barangay 147,Caloocan,Metro Manila"
1304,137501148,Barangay 148,,Caloocan,Metro Manila,"Barangay 148,Caloocan,Metro Manila"
1305,137501149,Barangay 149,,Caloocan,Metro Manila,"Barangay 149,Caloocan,Metro Manila"
1306,137501150,Barangay 150,,Caloocan,Metro Manila,"Barangay 150,Caloocan,Metro Manila"
1307,137501151,Barangay 151,,Caloocan,Metro Manila,"Barangay 151,Caloocan,Metro Manila"
1308,137501152,Barangay 152,,Caloocan,Metro Manila,"Barangay 152,Caloocan,Metro Manila"
1309,137501153,Barangay 153,,Caloocan,Metro Manila,"Barangay 153,Caloocan,Metro Manila"
1310,137501154,Barangay 154,,Caloocan,Metro Manila,"Barangay 154,Caloocan,Metro Manila"
1311,137501155,Barangay 155,,Caloocan,Metro Manila,"Barangay 155,Caloocan,Metro Manila"
1312,137501156,Barangay 156,,Caloocan,Metro Manila,"Barangay 156,Caloocan,Metro Manila"
1313,137501157,Barangay 157,,Caloocan,Metro Manila,"Barangay 157,Caloocan,Metro Manila"
1314,137501158,Barangay 158,,Caloocan,Metro Manila,"Barangay 158,Caloocan,Metro Manila"
1315,137501159,Barangay 159,,Caloocan,Metro Manila,"Barangay 159,Caloocan,Metro Manila"
1316,137501160,Barangay 160,,Caloocan,Metro Manila,"Barangay 160,Caloocan,Metro Manila"
1317,137501161,Barangay 161,,Caloocan,Metro Manila,"Barangay 161,Caloocan,Metro Manila"
1318,137501162,Barangay 162,,Caloocan,Metro Manila,"Barangay 162,Caloocan,Metro Manila"
1319,137501163,Barangay 163,,Caloocan,Metro Manila,"Barangay 163,Caloocan,Metro Manila"
1320,137501164,Barangay 164,,Caloocan,Metro Manila,"Barangay 164,Caloocan,Metro Manila"
1321,137501165,Barangay 165,,Caloocan,Metro Manila,"Barangay 165,Caloocan,Metro Manila"
1322,137501166,Barangay 166,,Caloocan,Metro Manila,"Barangay 166,Caloocan,Metro Manila"
1323,137501167,Barangay 167,,Caloocan,Metro Manila,"Barangay 167,Caloocan,Metro Manila"
1324,137501168,Barangay 168,,Caloocan,Metro Manila,"Barangay 168,Caloocan,Metro Manila"
1325,137501169,Barangay 169,,Caloocan,Metro Manila,"Barangay 169,Caloocan,Metro Manila"
1326,137501170,Barangay 170,,Caloocan,Metro Manila,"Barangay 170,Caloocan,Metro Manila"
1327,137501171,Barangay 171,,Caloocan,Metro Manila,"Barangay 171,Caloocan,Metro Manila"
1328,137501172,Barangay 172,,Caloocan,Metro Manila,"Barangay 172,Caloocan,Metro Manila"
1329,137501173,Barangay 173,,Caloocan,Metro Manila,"Barangay 173,Caloocan,Metro Manila"
1330,137501174,Barangay 174,,Caloocan,Metro Manila,"Barangay 174,Caloocan,Metro Manila"
1331,137501175,Barangay 175,,Caloocan,Metro Manila,"Barangay 175,Caloocan,Metro Manila"
1332,137501176,Barangay 176,,Caloocan,Metro Manila,"Barangay 176,Caloocan,Metro Manila"
1333,137501177,Barangay 177,,Caloocan,Metro Manila,"Barangay 177,Caloocan,Metro Manila"
1334,137501178,Barangay 178,,Caloocan,Metro Manila,"Barangay 178,Caloocan,Metro Manila"
1335,137501179,Barangay 179,,Caloocan,Metro Manila,"Barangay 179,Caloocan,Metro Manila"
1336,137501180,Barangay 180,,Caloocan,Metro Manila,"Barangay 180,Caloocan,Metro Manila"
1337,137501181,Barangay 181,,Caloocan,Metro Manila,"Barangay 181,Caloocan,Metro Manila"
1338,137501182,Barangay 182,,Caloocan,Metro Manila,"Barangay 182,Caloocan,Metro Manila"
1339,137501183,Barangay 183,,Caloocan,Metro Manila,"Barangay 183,Caloocan,Metro Manila"
1340,137501184,Barangay 184,,Caloocan,Metro Manila,"Barangay 184,Caloocan,Metro Manila"
1341,137501185,Barangay 185,,Caloocan,Metro Manila,"Barangay 185,Caloocan,Metro Manila"
1342,137501186,Barangay 186,,Caloocan,Metro Manila,"Barangay 186,Caloocan,Metro Manila"
1343,137501187,Barangay 187,,Caloocan,Metro Manila,"Barangay 187,Caloocan,Metro Manila"
1344,137501188,Barangay 188,,Caloocan,Metro Manila,"Barangay 188,Caloocan,Metro Manila"
1345,137502000,CITY OF MALABON,,,Metro Manila,"CITY OF MALABON,Metro Manila"
1346,137502001,Acacia,,Malabon,Metro Manila,"Acacia,Malabon,Metro Manila"
1347,137502002,Baritan,,Malabon,Metro Manila,"Baritan,Malabon,Metro Manila"
1348,137502003,Bayan-bayanan,,Malabon,Metro Manila,"Bayan-bayanan,Malabon,Metro Manila"
1349,137502004,Catmon,,Malabon,Metro Manila,"Catmon,Malabon,Metro Manila"
1350,137502005,Concepcion,,Malabon,Metro Manila,"Concepcion,Malabon,Metro Manila"
1351,137502006,Dampalit,,Malabon,Metro Manila,"Dampalit,Malabon,Metro Manila"
1352,137502007,Flores,,Malabon,Metro Manila,"Flores,Malabon,Metro Manila"
1353,137502008,Hulong Duhat,,Malabon,Metro Manila,"Hulong Duhat,Malabon,Metro Manila"
1354,137502009,Ibaba,,Malabon,Metro Manila,"Ibaba,Malabon,Metro Manila"
1355,137502010,Longos,,Malabon,Metro Manila,"Longos,Malabon,Metro Manila"
1356,137502011,Maysilo,,Malabon,Metro Manila,"Maysilo,Malabon,Metro Manila"
1357,137502012,Muzon,,Malabon,Metro Manila,"Muzon,Malabon,Metro Manila"
1358,137502013,Niugan,,Malabon,Metro Manila,"Niugan,Malabon,Metro Manila"
1359,137502014,Panghulo,,Malabon,Metro Manila,"Panghulo,Malabon,Metro Manila"
1360,137502015,Potrero,,Malabon,Metro Manila,"Potrero,Malabon,Metro Manila"
1361,137502016,San Agustin,,Malabon,Metro Manila,"San Agustin,Malabon,Metro Manila"
1362,137502017,Santolan,,Malabon,Metro Manila,"Santolan,Malabon,Metro Manila"
1363,137502018,Taong (Pob.),,Malabon,Metro Manila,"Taong (Pob.),Malabon,Metro Manila"
1364,137502019,Tinajeros,,Malabon,Metro Manila,"Tinajeros,Malabon,Metro Manila"
1365,137502020,Tonsuya,,Malabon,Metro Manila,"Tonsuya,Malabon,Metro Manila"
1366,137502021,Tugatog,,Malabon,Metro Manila,"Tugatog,Malabon,Metro Manila"
1367,137503000,CITY OF NAVOTAS,,,Metro Manila,"CITY OF NAVOTAS,Metro Manila"
1368,137503001,Sipac-Almacen,,Navotas,Metro Manila,"Sipac-Almacen,Navotas,Metro Manila"
1369,137503002,Bagumbayan North,,Navotas,Metro Manila,"Bagumbayan North,Navotas,Metro Manila"
1370,137503003,Bagumbayan South,,Navotas,Metro Manila,"Bagumbayan South,Navotas,Metro Manila"
1371,137503004,Bangculasi,,Navotas,Metro Manila,"Bangculasi,Navotas,Metro Manila"
1372,137503005,Daanghari,,Navotas,Metro Manila,"Daanghari,Navotas,Metro Manila"
1373,137503006,Navotas East,,Navotas,Metro Manila,"Navotas East,Navotas,Metro Manila"
1374,137503007,Navotas West,,Navotas,Metro Manila,"Navotas West,Navotas,Metro Manila"
1375,137503008,North Bay Boulevard North,,Navotas,Metro Manila,"North Bay Boulevard North,Navotas,Metro Manila"
1376,137503009,NBBS Kaunlaran (North Bay Boulevard South),,Navotas,Metro Manila,"NBBS Kaunlaran (North Bay Boulevard South),Navotas,Metro Manila"
1377,137503010,San Jose (Pob.),,Navotas,Metro Manila,"San Jose (Pob.),Navotas,Metro Manila"
1378,137503011,San Rafael Village,,Navotas,Metro Manila,"San Rafael Village,Navotas,Metro Manila"
1379,137503012,San Roque,,Navotas,Metro Manila,"San Roque,Navotas,Metro Manila"
1380,137503013,Tangos South (Tangos),,Navotas,Metro Manila,"Tangos South (Tangos),Navotas,Metro Manila"
1381,137503014,Tanza 1 (Tanza),,Navotas,Metro Manila,"Tanza 1 (Tanza),Navotas,Metro Manila"
1382,137503015,NBBS Dagat-dagatan (North Bay Boulevard South),,Navotas,Metro Manila,"NBBS Dagat-dagatan (North Bay Boulevard South),Navotas,Metro Manila"
1383,137503016,NBBS Proper (North Bay Boulevard South),,Navotas,Metro Manila,"NBBS Proper (North Bay Boulevard South),Navotas,Metro Manila"
1384,137503017,Tangos North (Tangos),,Navotas,Metro Manila,"Tangos North (Tangos),Navotas,Metro Manila"
1385,137503018,Tanza 2 (Tanza),,Navotas,Metro Manila,"Tanza 2 (Tanza),Navotas,Metro Manila"
1386,137504000,CITY OF VALENZUELA,,,Metro Manila,"CITY OF VALENZUELA,Metro Manila"
1387,137504001,Arkong Bato,,Valenzuela,Metro Manila,"Arkong Bato,Valenzuela,Metro Manila"
1388,137504002,Bagbaguin,,Valenzuela,Metro Manila,"Bagbaguin,Valenzuela,Metro Manila"
1389,137504003,Balangkas,,Valenzuela,Metro Manila,"Balangkas,Valenzuela,Metro Manila"
1390,137504004,Parada,,Valenzuela,Metro Manila,"Parada,Valenzuela,Metro Manila"
1391,137504005,Bignay,,Valenzuela,Metro Manila,"Bignay,Valenzuela,Metro Manila"
1392,137504006,Bisig,,Valenzuela,Metro Manila,"Bisig,Valenzuela,Metro Manila"
1393,137504007,Canumay West (Canumay),,Valenzuela,Metro Manila,"Canumay West (Canumay),Valenzuela,Metro Manila"
1394,137504008,Karuhatan,,Valenzuela,Metro Manila,"Karuhatan,Valenzuela,Metro Manila"
1395,137504009,Coloong,,Valenzuela,Metro Manila,"Coloong,Valenzuela,Metro Manila"
1396,137504010,Dalandanan,,Valenzuela,Metro Manila,"Dalandanan,Valenzuela,Metro Manila"
1397,137504011,Gen. T. De Leon,,Valenzuela,Metro Manila,"Gen. T. De Leon,Valenzuela,Metro Manila"
1398,137504012,Isla,,Valenzuela,Metro Manila,"Isla,Valenzuela,Metro Manila"
1399,137504013,Lawang Bato,,Valenzuela,Metro Manila,"Lawang Bato,Valenzuela,Metro Manila"
1400,137504014,Lingunan,,Valenzuela,Metro Manila,"Lingunan,Valenzuela,Metro Manila"
1401,137504015,Mabolo,,Valenzuela,Metro Manila,"Mabolo,Valenzuela,Metro Manila"
1402,137504016,Malanday,,Valenzuela,Metro Manila,"Malanday,Valenzuela,Metro Manila"
1403,137504017,Malinta,,Valenzuela,Metro Manila,"Malinta,Valenzuela,Metro Manila"
1404,137504018,Mapulang Lupa,,Valenzuela,Metro Manila,"Mapulang Lupa,Valenzuela,Metro Manila"
1405,137504019,Marulas,,Valenzuela,Metro Manila,"Marulas,Valenzuela,Metro Manila"
1406,137504020,Maysan,,Valenzuela,Metro Manila,"Maysan,Valenzuela,Metro Manila"
1407,137504021,Palasan,,Valenzuela,Metro Manila,"Palasan,Valenzuela,Metro Manila"
1408,137504022,Pariancillo Villa,,Valenzuela,Metro Manila,"Pariancillo Villa,Valenzuela,Metro Manila"
1409,137504023,Paso De Blas,,Valenzuela,Metro Manila,"Paso De Blas,Valenzuela,Metro Manila"
1410,137504024,Pasolo,,Valenzuela,Metro Manila,"Pasolo,Valenzuela,Metro Manila"
1411,137504025,Poblacion,,Valenzuela,Metro Manila,"Poblacion,Valenzuela,Metro Manila"
1412,137504026,Pulo,,Valenzuela,Metro Manila,"Pulo,Valenzuela,Metro Manila"
1413,137504027,Punturin,,Valenzuela,Metro Manila,"Punturin,Valenzuela,Metro Manila"
1414,137504028,Rincon,,Valenzuela,Metro Manila,"Rincon,Valenzuela,Metro Manila"
1415,137504029,Tagalag,,Valenzuela,Metro Manila,"Tagalag,Valenzuela,Metro Manila"
1416,137504030,Ugong,,Valenzuela,Metro Manila,"Ugong,Valenzuela,Metro Manila"
1417,137504031,Viente Reales,,Valenzuela,Metro Manila,"Viente Reales,Valenzuela,Metro Manila"
1418,137504032,Wawang Pulo,,Valenzuela,Metro Manila,"Wawang Pulo,Valenzuela,Metro Manila"
1419,137504033,Canumay East (Canumay),,Valenzuela,Metro Manila,"Canumay East (Canumay),Valenzuela,Metro Manila"
1420,137600000,"NCR, FOURTH DISTRICT",,,Metro Manila,"NCR, FOURTH DISTRICT,Metro Manila"
1421,137601000,CITY OF LAS PIAS,,,Metro Manila,"CITY OF LAS PIAS,Metro Manila"
1422,137601001,Almanza Uno,,Las Pinas,Metro Manila,"Almanza Uno,Las Pinas,Metro Manila"
1423,137601002,Daniel Fajardo,,Las Pinas,Metro Manila,"Daniel Fajardo,Las Pinas,Metro Manila"
1424,137601003,Elias Aldana,,Las Pinas,Metro Manila,"Elias Aldana,Las Pinas,Metro Manila"
1425,137601004,Ilaya,,Las Pinas,Metro Manila,"Ilaya,Las Pinas,Metro Manila"
1426,137601005,Manuyo Uno,,Las Pinas,Metro Manila,"Manuyo Uno,Las Pinas,Metro Manila"
1427,137601006,Pamplona Uno,,Las Pinas,Metro Manila,"Pamplona Uno,Las Pinas,Metro Manila"
1428,137601007,Pulang Lupa Uno,,Las Pinas,Metro Manila,"Pulang Lupa Uno,Las Pinas,Metro Manila"
1429,137601008,Talon Uno,,Las Pinas,Metro Manila,"Talon Uno,Las Pinas,Metro Manila"
1430,137601009,Zapote,,Las Pinas,Metro Manila,"Zapote,Las Pinas,Metro Manila"
1431,137601010,Almanza Dos,,Las Pinas,Metro Manila,"Almanza Dos,Las Pinas,Metro Manila"
1432,137601011,B. F. International Village,,Las Pinas,Metro Manila,"B. F. International Village,Las Pinas,Metro Manila"
1433,137601012,Manuyo Dos,,Las Pinas,Metro Manila,"Manuyo Dos,Las Pinas,Metro Manila"
1434,137601013,Pamplona Dos,,Las Pinas,Metro Manila,"Pamplona Dos,Las Pinas,Metro Manila"
1435,137601014,Pamplona Tres,,Las Pinas,Metro Manila,"Pamplona Tres,Las Pinas,Metro Manila"
1436,137601015,Pilar,,Las Pinas,Metro Manila,"Pilar,Las Pinas,Metro Manila"
1437,137601016,Pulang Lupa Dos,,Las Pinas,Metro Manila,"Pulang Lupa Dos,Las Pinas,Metro Manila"
1438,137601017,Talon Dos,,Las Pinas,Metro Manila,"Talon Dos,Las Pinas,Metro Manila"
1439,137601018,Talon Tres,,Las Pinas,Metro Manila,"Talon Tres,Las Pinas,Metro Manila"
1440,137601019,Talon Kuatro,,Las Pinas,Metro Manila,"Talon Kuatro,Las Pinas,Metro Manila"
1441,137601020,Talon Singko,,Las Pinas,Metro Manila,"Talon Singko,Las Pinas,Metro Manila"
1442,137602000,CITY OF MAKATI,,,Metro Manila,"CITY OF MAKATI,Metro Manila"
1443,137602001,Bangkal,,Makati,Metro Manila,"Bangkal,Makati,Metro Manila"
1444,137602002,Bel-Air,,Makati,Metro Manila,"Bel-Air,Makati,Metro Manila"
1445,137602003,Cembo,,Makati,Metro Manila,"Cembo,Makati,Metro Manila"
1446,137602004,Comembo,,Makati,Metro Manila,"Comembo,Makati,Metro Manila"
1447,137602005,Carmona,,Makati,Metro Manila,"Carmona,Makati,Metro Manila"
1448,137602006,Dasmarias,,Makati,Metro Manila,"Dasmarias,Makati,Metro Manila"
1449,137602007,East Rembo,,Makati,Metro Manila,"East Rembo,Makati,Metro Manila"
1450,137602008,Forbes Park,,Makati,Metro Manila,"Forbes Park,Makati,Metro Manila"
1451,137602009,Guadalupe Nuevo,,Makati,Metro Manila,"Guadalupe Nuevo,Makati,Metro Manila"
1452,137602010,Guadalupe Viejo,,Makati,Metro Manila,"Guadalupe Viejo,Makati,Metro Manila"
1453,137602011,Kasilawan,,Makati,Metro Manila,"Kasilawan,Makati,Metro Manila"
1454,137602012,La Paz,,Makati,Metro Manila,"La Paz,Makati,Metro Manila"
1455,137602013,Magallanes,,Makati,Metro Manila,"Magallanes,Makati,Metro Manila"
1456,137602014,Olympia,,Makati,Metro Manila,"Olympia,Makati,Metro Manila"
1457,137602015,Palanan,,Makati,Metro Manila,"Palanan,Makati,Metro Manila"
1458,137602016,Pembo,,Makati,Metro Manila,"Pembo,Makati,Metro Manila"
1459,137602017,Pinagkaisahan,,Makati,Metro Manila,"Pinagkaisahan,Makati,Metro Manila"
1460,137602018,Pio Del Pilar,,Makati,Metro Manila,"Pio Del Pilar,Makati,Metro Manila"
1461,137602019,Pitogo,,Makati,Metro Manila,"Pitogo,Makati,Metro Manila"
1462,137602020,Poblacion,,Makati,Metro Manila,"Poblacion,Makati,Metro Manila"
1463,137602021,Post Proper Northside,,Makati,Metro Manila,"Post Proper Northside,Makati,Metro Manila"
1464,137602022,Post Proper Southside,,Makati,Metro Manila,"Post Proper Southside,Makati,Metro Manila"
1465,137602023,San Antonio,,Makati,Metro Manila,"San Antonio,Makati,Metro Manila"
1466,137602024,San Isidro,,Makati,Metro Manila,"San Isidro,Makati,Metro Manila"
1467,137602025,San Lorenzo,,Makati,Metro Manila,"San Lorenzo,Makati,Metro Manila"
1468,137602026,Santa Cruz,,Makati,Metro Manila,"Santa Cruz,Makati,Metro Manila"
1469,137602027,Singkamas,,Makati,Metro Manila,"Singkamas,Makati,Metro Manila"
1470,137602028,South Cembo,,Makati,Metro Manila,"South Cembo,Makati,Metro Manila"
1471,137602029,Tejeros,,Makati,Metro Manila,"Tejeros,Makati,Metro Manila"
1472,137602030,Urdaneta,,Makati,Metro Manila,"Urdaneta,Makati,Metro Manila"
1473,137602031,Valenzuela,,Makati,Metro Manila,"Valenzuela,Makati,Metro Manila"
1474,137602032,West Rembo,,Makati,Metro Manila,"West Rembo,Makati,Metro Manila"
1475,137602033,Rizal,,Makati,Metro Manila,"Rizal,Makati,Metro Manila"
1476,137603000,CITY OF MUNTINLUPA,,,Metro Manila,"CITY OF MUNTINLUPA,Metro Manila"
1477,137603001,Alabang,,Muntinlupa,Metro Manila,"Alabang,Muntinlupa,Metro Manila"
1478,137603002,Bayanan,,Muntinlupa,Metro Manila,"Bayanan,Muntinlupa,Metro Manila"
1479,137603003,Buli,,Muntinlupa,Metro Manila,"Buli,Muntinlupa,Metro Manila"
1480,137603004,Cupang,,Muntinlupa,Metro Manila,"Cupang,Muntinlupa,Metro Manila"
1481,137603005,Poblacion,,Muntinlupa,Metro Manila,"Poblacion,Muntinlupa,Metro Manila"
1482,137603006,Putatan,,Muntinlupa,Metro Manila,"Putatan,Muntinlupa,Metro Manila"
1483,137603007,Sucat,,Muntinlupa,Metro Manila,"Sucat,Muntinlupa,Metro Manila"
1484,137603008,Tunasan,,Muntinlupa,Metro Manila,"Tunasan,Muntinlupa,Metro Manila"
1485,137603009,New Alabang Village,,Muntinlupa,Metro Manila,"New Alabang Village,Muntinlupa,Metro Manila"
1486,137604000,CITY OF PARAAQUE,,,Metro Manila,"CITY OF PARAAQUE,Metro Manila"
1487,137604001,Baclaran,,Paranaque,Metro Manila,"Baclaran,Paranaque,Metro Manila"
1488,137604002,Don Galo,,Paranaque,Metro Manila,"Don Galo,Paranaque,Metro Manila"
1489,137604003,La Huerta,,Paranaque,Metro Manila,"La Huerta,Paranaque,Metro Manila"
1490,137604004,San Dionisio,,Paranaque,Metro Manila,"San Dionisio,Paranaque,Metro Manila"
1491,137604005,Santo Nio,,Paranaque,Metro Manila,"Santo Nio,Paranaque,Metro Manila"
1492,137604006,Tambo,,Paranaque,Metro Manila,"Tambo,Paranaque,Metro Manila"
1493,137604007,B. F. Homes,,Paranaque,Metro Manila,"B. F. Homes,Paranaque,Metro Manila"
1494,137604008,Don Bosco,,Paranaque,Metro Manila,"Don Bosco,Paranaque,Metro Manila"
1495,137604009,Marcelo Green Village,,Paranaque,Metro Manila,"Marcelo Green Village,Paranaque,Metro Manila"
1496,137604010,Merville,,Paranaque,Metro Manila,"Merville,Paranaque,Metro Manila"
1497,137604011,Moonwalk,,Paranaque,Metro Manila,"Moonwalk,Paranaque,Metro Manila"
1498,137604012,San Antonio,,Paranaque,Metro Manila,"San Antonio,Paranaque,Metro Manila"
1499,137604013,San Isidro,,Paranaque,Metro Manila,"San Isidro,Paranaque,Metro Manila"
1500,137604014,San Martin De Porres,,Paranaque,Metro Manila,"San Martin De Porres,Paranaque,Metro Manila"
1501,137604015,Sun Valley,,Paranaque,Metro Manila,"Sun Valley,Paranaque,Metro Manila"
1502,137604016,Vitalez,,Paranaque,Metro Manila,"Vitalez,Paranaque,Metro Manila"
1503,137605000,PASAY CITY,,,Metro Manila,"PASAY CITY,Metro Manila"
1504,137605001,Barangay 1,,Pasay,Metro Manila,"Barangay 1,Pasay,Metro Manila"
1505,137605002,Barangay 2,,Pasay,Metro Manila,"Barangay 2,Pasay,Metro Manila"
1506,137605003,Barangay 3,,Pasay,Metro Manila,"Barangay 3,Pasay,Metro Manila"
1507,137605004,Barangay 4,,Pasay,Metro Manila,"Barangay 4,Pasay,Metro Manila"
1508,137605005,Barangay 5,,Pasay,Metro Manila,"Barangay 5,Pasay,Metro Manila"
1509,137605006,Barangay 6,,Pasay,Metro Manila,"Barangay 6,Pasay,Metro Manila"
1510,137605007,Barangay 7,,Pasay,Metro Manila,"Barangay 7,Pasay,Metro Manila"
1511,137605008,Barangay 8,,Pasay,Metro Manila,"Barangay 8,Pasay,Metro Manila"
1512,137605009,Barangay 9,,Pasay,Metro Manila,"Barangay 9,Pasay,Metro Manila"
1513,137605010,Barangay 10,,Pasay,Metro Manila,"Barangay 10,Pasay,Metro Manila"
1514,137605011,Barangay 11,,Pasay,Metro Manila,"Barangay 11,Pasay,Metro Manila"
1515,137605012,Barangay 12,,Pasay,Metro Manila,"Barangay 12,Pasay,Metro Manila"
1516,137605013,Barangay 13,,Pasay,Metro Manila,"Barangay 13,Pasay,Metro Manila"
1517,137605014,Barangay 14,,Pasay,Metro Manila,"Barangay 14,Pasay,Metro Manila"
1518,137605015,Barangay 15,,Pasay,Metro Manila,"Barangay 15,Pasay,Metro Manila"
1519,137605016,Barangay 16,,Pasay,Metro Manila,"Barangay 16,Pasay,Metro Manila"
1520,137605017,Barangay 17,,Pasay,Metro Manila,"Barangay 17,Pasay,Metro Manila"
1521,137605018,Barangay 18,,Pasay,Metro Manila,"Barangay 18,Pasay,Metro Manila"
1522,137605019,Barangay 19,,Pasay,Metro Manila,"Barangay 19,Pasay,Metro Manila"
1523,137605020,Barangay 20,,Pasay,Metro Manila,"Barangay 20,Pasay,Metro Manila"
1524,137605021,Barangay 21,,Pasay,Metro Manila,"Barangay 21,Pasay,Metro Manila"
1525,137605022,Barangay 22,,Pasay,Metro Manila,"Barangay 22,Pasay,Metro Manila"
1526,137605023,Barangay 23,,Pasay,Metro Manila,"Barangay 23,Pasay,Metro Manila"
1527,137605024,Barangay 24,,Pasay,Metro Manila,"Barangay 24,Pasay,Metro Manila"
1528,137605025,Barangay 25,,Pasay,Metro Manila,"Barangay 25,Pasay,Metro Manila"
1529,137605026,Barangay 26,,Pasay,Metro Manila,"Barangay 26,Pasay,Metro Manila"
1530,137605027,Barangay 27,,Pasay,Metro Manila,"Barangay 27,Pasay,Metro Manila"
1531,137605028,Barangay 28,,Pasay,Metro Manila,"Barangay 28,Pasay,Metro Manila"
1532,137605029,Barangay 29,,Pasay,Metro Manila,"Barangay 29,Pasay,Metro Manila"
1533,137605030,Barangay 30,,Pasay,Metro Manila,"Barangay 30,Pasay,Metro Manila"
1534,137605031,Barangay 31,,Pasay,Metro Manila,"Barangay 31,Pasay,Metro Manila"
1535,137605032,Barangay 32,,Pasay,Metro Manila,"Barangay 32,Pasay,Metro Manila"
1536,137605033,Barangay 33,,Pasay,Metro Manila,"Barangay 33,Pasay,Metro Manila"
1537,137605034,Barangay 34,,Pasay,Metro Manila,"Barangay 34,Pasay,Metro Manila"
1538,137605035,Barangay 35,,Pasay,Metro Manila,"Barangay 35,Pasay,Metro Manila"
1539,137605036,Barangay 36,,Pasay,Metro Manila,"Barangay 36,Pasay,Metro Manila"
1540,137605037,Barangay 37,,Pasay,Metro Manila,"Barangay 37,Pasay,Metro Manila"
1541,137605038,Barangay 38,,Pasay,Metro Manila,"Barangay 38,Pasay,Metro Manila"
1542,137605039,Barangay 39,,Pasay,Metro Manila,"Barangay 39,Pasay,Metro Manila"
1543,137605040,Barangay 40,,Pasay,Metro Manila,"Barangay 40,Pasay,Metro Manila"
1544,137605041,Barangay 41,,Pasay,Metro Manila,"Barangay 41,Pasay,Metro Manila"
1545,137605042,Barangay 42,,Pasay,Metro Manila,"Barangay 42,Pasay,Metro Manila"
1546,137605043,Barangay 43,,Pasay,Metro Manila,"Barangay 43,Pasay,Metro Manila"
1547,137605044,Barangay 44,,Pasay,Metro Manila,"Barangay 44,Pasay,Metro Manila"
1548,137605045,Barangay 45,,Pasay,Metro Manila,"Barangay 45,Pasay,Metro Manila"
1549,137605046,Barangay 46,,Pasay,Metro Manila,"Barangay 46,Pasay,Metro Manila"
1550,137605047,Barangay 47,,Pasay,Metro Manila,"Barangay 47,Pasay,Metro Manila"
1551,137605048,Barangay 48,,Pasay,Metro Manila,"Barangay 48,Pasay,Metro Manila"
1552,137605049,Barangay 49,,Pasay,Metro Manila,"Barangay 49,Pasay,Metro Manila"
1553,137605050,Barangay 50,,Pasay,Metro Manila,"Barangay 50,Pasay,Metro Manila"
1554,137605051,Barangay 51,,Pasay,Metro Manila,"Barangay 51,Pasay,Metro Manila"
1555,137605052,Barangay 52,,Pasay,Metro Manila,"Barangay 52,Pasay,Metro Manila"
1556,137605053,Barangay 53,,Pasay,Metro Manila,"Barangay 53,Pasay,Metro Manila"
1557,137605054,Barangay 54,,Pasay,Metro Manila,"Barangay 54,Pasay,Metro Manila"
1558,137605055,Barangay 55,,Pasay,Metro Manila,"Barangay 55,Pasay,Metro Manila"
1559,137605056,Barangay 56,,Pasay,Metro Manila,"Barangay 56,Pasay,Metro Manila"
1560,137605057,Barangay 57,,Pasay,Metro Manila,"Barangay 57,Pasay,Metro Manila"
1561,137605058,Barangay 58,,Pasay,Metro Manila,"Barangay 58,Pasay,Metro Manila"
1562,137605059,Barangay 59,,Pasay,Metro Manila,"Barangay 59,Pasay,Metro Manila"
1563,137605060,Barangay 60,,Pasay,Metro Manila,"Barangay 60,Pasay,Metro Manila"
1564,137605061,Barangay 61,,Pasay,Metro Manila,"Barangay 61,Pasay,Metro Manila"
1565,137605062,Barangay 62,,Pasay,Metro Manila,"Barangay 62,Pasay,Metro Manila"
1566,137605063,Barangay 63,,Pasay,Metro Manila,"Barangay 63,Pasay,Metro Manila"
1567,137605064,Barangay 64,,Pasay,Metro Manila,"Barangay 64,Pasay,Metro Manila"
1568,137605065,Barangay 65,,Pasay,Metro Manila,"Barangay 65,Pasay,Metro Manila"
1569,137605066,Barangay 66,,Pasay,Metro Manila,"Barangay 66,Pasay,Metro Manila"
1570,137605067,Barangay 67,,Pasay,Metro Manila,"Barangay 67,Pasay,Metro Manila"
1571,137605068,Barangay 68,,Pasay,Metro Manila,"Barangay 68,Pasay,Metro Manila"
1572,137605069,Barangay 69,,Pasay,Metro Manila,"Barangay 69,Pasay,Metro Manila"
1573,137605070,Barangay 70,,Pasay,Metro Manila,"Barangay 70,Pasay,Metro Manila"
1574,137605071,Barangay 71,,Pasay,Metro Manila,"Barangay 71,Pasay,Metro Manila"
1575,137605072,Barangay 72,,Pasay,Metro Manila,"Barangay 72,Pasay,Metro Manila"
1576,137605073,Barangay 73,,Pasay,Metro Manila,"Barangay 73,Pasay,Metro Manila"
1577,137605074,Barangay 74,,Pasay,Metro Manila,"Barangay 74,Pasay,Metro Manila"
1578,137605075,Barangay 75,,Pasay,Metro Manila,"Barangay 75,Pasay,Metro Manila"
1579,137605076,Barangay 76,,Pasay,Metro Manila,"Barangay 76,Pasay,Metro Manila"
1580,137605077,Barangay 77,,Pasay,Metro Manila,"Barangay 77,Pasay,Metro Manila"
1581,137605078,Barangay 78,,Pasay,Metro Manila,"Barangay 78,Pasay,Metro Manila"
1582,137605079,Barangay 79,,Pasay,Metro Manila,"Barangay 79,Pasay,Metro Manila"
1583,137605080,Barangay 80,,Pasay,Metro Manila,"Barangay 80,Pasay,Metro Manila"
1584,137605081,Barangay 81,,Pasay,Metro Manila,"Barangay 81,Pasay,Metro Manila"
1585,137605082,Barangay 82,,Pasay,Metro Manila,"Barangay 82,Pasay,Metro Manila"
1586,137605083,Barangay 83,,Pasay,Metro Manila,"Barangay 83,Pasay,Metro Manila"
1587,137605084,Barangay 84,,Pasay,Metro Manila,"Barangay 84,Pasay,Metro Manila"
1588,137605085,Barangay 85,,Pasay,Metro Manila,"Barangay 85,Pasay,Metro Manila"
1589,137605086,Barangay 86,,Pasay,Metro Manila,"Barangay 86,Pasay,Metro Manila"
1590,137605087,Barangay 87,,Pasay,Metro Manila,"Barangay 87,Pasay,Metro Manila"
1591,137605088,Barangay 88,,Pasay,Metro Manila,"Barangay 88,Pasay,Metro Manila"
1592,137605089,Barangay 89,,Pasay,Metro Manila,"Barangay 89,Pasay,Metro Manila"
1593,137605090,Barangay 90,,Pasay,Metro Manila,"Barangay 90,Pasay,Metro Manila"
1594,137605091,Barangay 91,,Pasay,Metro Manila,"Barangay 91,Pasay,Metro Manila"
1595,137605092,Barangay 92,,Pasay,Metro Manila,"Barangay 92,Pasay,Metro Manila"
1596,137605093,Barangay 93,,Pasay,Metro Manila,"Barangay 93,Pasay,Metro Manila"
1597,137605094,Barangay 94,,Pasay,Metro Manila,"Barangay 94,Pasay,Metro Manila"
1598,137605095,Barangay 95,,Pasay,Metro Manila,"Barangay 95,Pasay,Metro Manila"
1599,137605096,Barangay 96,,Pasay,Metro Manila,"Barangay 96,Pasay,Metro Manila"
1600,137605097,Barangay 97,,Pasay,Metro Manila,"Barangay 97,Pasay,Metro Manila"
1601,137605098,Barangay 98,,Pasay,Metro Manila,"Barangay 98,Pasay,Metro Manila"
1602,137605099,Barangay 99,,Pasay,Metro Manila,"Barangay 99,Pasay,Metro Manila"
1603,137605100,Barangay 100,,Pasay,Metro Manila,"Barangay 100,Pasay,Metro Manila"
1604,137605101,Barangay 101,,Pasay,Metro Manila,"Barangay 101,Pasay,Metro Manila"
1605,137605102,Barangay 102,,Pasay,Metro Manila,"Barangay 102,Pasay,Metro Manila"
1606,137605103,Barangay 103,,Pasay,Metro Manila,"Barangay 103,Pasay,Metro Manila"
1607,137605104,Barangay 104,,Pasay,Metro Manila,"Barangay 104,Pasay,Metro Manila"
1608,137605105,Barangay 105,,Pasay,Metro Manila,"Barangay 105,Pasay,Metro Manila"
1609,137605106,Barangay 106,,Pasay,Metro Manila,"Barangay 106,Pasay,Metro Manila"
1610,137605107,Barangay 107,,Pasay,Metro Manila,"Barangay 107,Pasay,Metro Manila"
1611,137605108,Barangay 108,,Pasay,Metro Manila,"Barangay 108,Pasay,Metro Manila"
1612,137605109,Barangay 109,,Pasay,Metro Manila,"Barangay 109,Pasay,Metro Manila"
1613,137605110,Barangay 110,,Pasay,Metro Manila,"Barangay 110,Pasay,Metro Manila"
1614,137605111,Barangay 111,,Pasay,Metro Manila,"Barangay 111,Pasay,Metro Manila"
1615,137605112,Barangay 112,,Pasay,Metro Manila,"Barangay 112,Pasay,Metro Manila"
1616,137605113,Barangay 113,,Pasay,Metro Manila,"Barangay 113,Pasay,Metro Manila"
1617,137605114,Barangay 114,,Pasay,Metro Manila,"Barangay 114,Pasay,Metro Manila"
1618,137605115,Barangay 115,,Pasay,Metro Manila,"Barangay 115,Pasay,Metro Manila"
1619,137605116,Barangay 116,,Pasay,Metro Manila,"Barangay 116,Pasay,Metro Manila"
1620,137605117,Barangay 117,,Pasay,Metro Manila,"Barangay 117,Pasay,Metro Manila"
1621,137605118,Barangay 118,,Pasay,Metro Manila,"Barangay 118,Pasay,Metro Manila"
1622,137605119,Barangay 119,,Pasay,Metro Manila,"Barangay 119,Pasay,Metro Manila"
1623,137605120,Barangay 120,,Pasay,Metro Manila,"Barangay 120,Pasay,Metro Manila"
1624,137605121,Barangay 121,,Pasay,Metro Manila,"Barangay 121,Pasay,Metro Manila"
1625,137605122,Barangay 122,,Pasay,Metro Manila,"Barangay 122,Pasay,Metro Manila"
1626,137605123,Barangay 123,,Pasay,Metro Manila,"Barangay 123,Pasay,Metro Manila"
1627,137605124,Barangay 124,,Pasay,Metro Manila,"Barangay 124,Pasay,Metro Manila"
1628,137605125,Barangay 125,,Pasay,Metro Manila,"Barangay 125,Pasay,Metro Manila"
1629,137605126,Barangay 126,,Pasay,Metro Manila,"Barangay 126,Pasay,Metro Manila"
1630,137605127,Barangay 127,,Pasay,Metro Manila,"Barangay 127,Pasay,Metro Manila"
1631,137605128,Barangay 128,,Pasay,Metro Manila,"Barangay 128,Pasay,Metro Manila"
1632,137605129,Barangay 129,,Pasay,Metro Manila,"Barangay 129,Pasay,Metro Manila"
1633,137605130,Barangay 130,,Pasay,Metro Manila,"Barangay 130,Pasay,Metro Manila"
1634,137605131,Barangay 131,,Pasay,Metro Manila,"Barangay 131,Pasay,Metro Manila"
1635,137605132,Barangay 132,,Pasay,Metro Manila,"Barangay 132,Pasay,Metro Manila"
1636,137605133,Barangay 133,,Pasay,Metro Manila,"Barangay 133,Pasay,Metro Manila"
1637,137605134,Barangay 134,,Pasay,Metro Manila,"Barangay 134,Pasay,Metro Manila"
1638,137605135,Barangay 135,,Pasay,Metro Manila,"Barangay 135,Pasay,Metro Manila"
1639,137605136,Barangay 136,,Pasay,Metro Manila,"Barangay 136,Pasay,Metro Manila"
1640,137605137,Barangay 137,,Pasay,Metro Manila,"Barangay 137,Pasay,Metro Manila"
1641,137605138,Barangay 138,,Pasay,Metro Manila,"Barangay 138,Pasay,Metro Manila"
1642,137605139,Barangay 139,,Pasay,Metro Manila,"Barangay 139,Pasay,Metro Manila"
1643,137605140,Barangay 140,,Pasay,Metro Manila,"Barangay 140,Pasay,Metro Manila"
1644,137605141,Barangay 141,,Pasay,Metro Manila,"Barangay 141,Pasay,Metro Manila"
1645,137605142,Barangay 142,,Pasay,Metro Manila,"Barangay 142,Pasay,Metro Manila"
1646,137605143,Barangay 143,,Pasay,Metro Manila,"Barangay 143,Pasay,Metro Manila"
1647,137605144,Barangay 144,,Pasay,Metro Manila,"Barangay 144,Pasay,Metro Manila"
1648,137605145,Barangay 145,,Pasay,Metro Manila,"Barangay 145,Pasay,Metro Manila"
1649,137605146,Barangay 146,,Pasay,Metro Manila,"Barangay 146,Pasay,Metro Manila"
1650,137605147,Barangay 147,,Pasay,Metro Manila,"Barangay 147,Pasay,Metro Manila"
1651,137605148,Barangay 148,,Pasay,Metro Manila,"Barangay 148,Pasay,Metro Manila"
1652,137605149,Barangay 149,,Pasay,Metro Manila,"Barangay 149,Pasay,Metro Manila"
1653,137605150,Barangay 150,,Pasay,Metro Manila,"Barangay 150,Pasay,Metro Manila"
1654,137605151,Barangay 151,,Pasay,Metro Manila,"Barangay 151,Pasay,Metro Manila"
1655,137605152,Barangay 152,,Pasay,Metro Manila,"Barangay 152,Pasay,Metro Manila"
1656,137605153,Barangay 153,,Pasay,Metro Manila,"Barangay 153,Pasay,Metro Manila"
1657,137605154,Barangay 154,,Pasay,Metro Manila,"Barangay 154,Pasay,Metro Manila"
1658,137605155,Barangay 155,,Pasay,Metro Manila,"Barangay 155,Pasay,Metro Manila"
1659,137605156,Barangay 156,,Pasay,Metro Manila,"Barangay 156,Pasay,Metro Manila"
1660,137605157,Barangay 157,,Pasay,Metro Manila,"Barangay 157,Pasay,Metro Manila"
1661,137605158,Barangay 158,,Pasay,Metro Manila,"Barangay 158,Pasay,Metro Manila"
1662,137605159,Barangay 159,,Pasay,Metro Manila,"Barangay 159,Pasay,Metro Manila"
1663,137605160,Barangay 160,,Pasay,Metro Manila,"Barangay 160,Pasay,Metro Manila"
1664,137605161,Barangay 161,,Pasay,Metro Manila,"Barangay 161,Pasay,Metro Manila"
1665,137605162,Barangay 162,,Pasay,Metro Manila,"Barangay 162,Pasay,Metro Manila"
1666,137605163,Barangay 163,,Pasay,Metro Manila,"Barangay 163,Pasay,Metro Manila"
1667,137605164,Barangay 164,,Pasay,Metro Manila,"Barangay 164,Pasay,Metro Manila"
1668,137605165,Barangay 165,,Pasay,Metro Manila,"Barangay 165,Pasay,Metro Manila"
1669,137605166,Barangay 166,,Pasay,Metro Manila,"Barangay 166,Pasay,Metro Manila"
1670,137605167,Barangay 167,,Pasay,Metro Manila,"Barangay 167,Pasay,Metro Manila"
1671,137605168,Barangay 168,,Pasay,Metro Manila,"Barangay 168,Pasay,Metro Manila"
1672,137605169,Barangay 169,,Pasay,Metro Manila,"Barangay 169,Pasay,Metro Manila"
1673,137605170,Barangay 170,,Pasay,Metro Manila,"Barangay 170,Pasay,Metro Manila"
1674,137605171,Barangay 171,,Pasay,Metro Manila,"Barangay 171,Pasay,Metro Manila"
1675,137605172,Barangay 172,,Pasay,Metro Manila,"Barangay 172,Pasay,Metro Manila"
1676,137605173,Barangay 173,,Pasay,Metro Manila,"Barangay 173,Pasay,Metro Manila"
1677,137605174,Barangay 174,,Pasay,Metro Manila,"Barangay 174,Pasay,Metro Manila"
1678,137605175,Barangay 175,,Pasay,Metro Manila,"Barangay 175,Pasay,Metro Manila"
1679,137605176,Barangay 176,,Pasay,Metro Manila,"Barangay 176,Pasay,Metro Manila"
1680,137605177,Barangay 177,,Pasay,Metro Manila,"Barangay 177,Pasay,Metro Manila"
1681,137605178,Barangay 178,,Pasay,Metro Manila,"Barangay 178,Pasay,Metro Manila"
1682,137605179,Barangay 179,,Pasay,Metro Manila,"Barangay 179,Pasay,Metro Manila"
1683,137605180,Barangay 180,,Pasay,Metro Manila,"Barangay 180,Pasay,Metro Manila"
1684,137605181,Barangay 181,,Pasay,Metro Manila,"Barangay 181,Pasay,Metro Manila"
1685,137605182,Barangay 182,,Pasay,Metro Manila,"Barangay 182,Pasay,Metro Manila"
1686,137605183,Barangay 183,,Pasay,Metro Manila,"Barangay 183,Pasay,Metro Manila"
1687,137605184,Barangay 184,,Pasay,Metro Manila,"Barangay 184,Pasay,Metro Manila"
1688,137605185,Barangay 185,,Pasay,Metro Manila,"Barangay 185,Pasay,Metro Manila"
1689,137605186,Barangay 186,,Pasay,Metro Manila,"Barangay 186,Pasay,Metro Manila"
1690,137605187,Barangay 187,,Pasay,Metro Manila,"Barangay 187,Pasay,Metro Manila"
1691,137605188,Barangay 188,,Pasay,Metro Manila,"Barangay 188,Pasay,Metro Manila"
1692,137605189,Barangay 189,,Pasay,Metro Manila,"Barangay 189,Pasay,Metro Manila"
1693,137605190,Barangay 190,,Pasay,Metro Manila,"Barangay 190,Pasay,Metro Manila"
1694,137605191,Barangay 191,,Pasay,Metro Manila,"Barangay 191,Pasay,Metro Manila"
1695,137605192,Barangay 192,,Pasay,Metro Manila,"Barangay 192,Pasay,Metro Manila"
1696,137605193,Barangay 193,,Pasay,Metro Manila,"Barangay 193,Pasay,Metro Manila"
1697,137605194,Barangay 194,,Pasay,Metro Manila,"Barangay 194,Pasay,Metro Manila"
1698,137605195,Barangay 195,,Pasay,Metro Manila,"Barangay 195,Pasay,Metro Manila"
1699,137605196,Barangay 196,,Pasay,Metro Manila,"Barangay 196,Pasay,Metro Manila"
1700,137605197,Barangay 197,,Pasay,Metro Manila,"Barangay 197,Pasay,Metro Manila"
1701,137605198,Barangay 198,,Pasay,Metro Manila,"Barangay 198,Pasay,Metro Manila"
1702,137605199,Barangay 199,,Pasay,Metro Manila,"Barangay 199,Pasay,Metro Manila"
1703,137605200,Barangay 200,,Pasay,Metro Manila,"Barangay 200,Pasay,Metro Manila"
1704,137605201,Barangay 201,,Pasay,Metro Manila,"Barangay 201,Pasay,Metro Manila"
1705,137606000,PATEROS,,,Metro Manila,"PATEROS,Metro Manila"
1706,137606001,Aguho,,Pateros,Metro Manila,"Aguho,Pateros,Metro Manila"
1707,137606002,Magtanggol,,Pateros,Metro Manila,"Magtanggol,Pateros,Metro Manila"
1708,137606003,Martires Del 96,,Pateros,Metro Manila,"Martires Del 96,Pateros,Metro Manila"
1709,137606004,Poblacion,,Pateros,Metro Manila,"Poblacion,Pateros,Metro Manila"
1710,137606005,San Pedro,,Pateros,Metro Manila,"San Pedro,Pateros,Metro Manila"
1711,137606006,San Roque,,Pateros,Metro Manila,"San Roque,Pateros,Metro Manila"
1712,137606007,Santa Ana,,Pateros,Metro Manila,"Santa Ana,Pateros,Metro Manila"
1713,137606008,Santo Rosario-Kanluran,,Pateros,Metro Manila,"Santo Rosario-Kanluran,Pateros,Metro Manila"
1714,137606009,Santo Rosario-Silangan,,Pateros,Metro Manila,"Santo Rosario-Silangan,Pateros,Metro Manila"
1715,137606010,Tabacalera,,Pateros,Metro Manila,"Tabacalera,Pateros,Metro Manila"
1716,137607000,CITY OF TAGUIG,,,Metro Manila,"CITY OF TAGUIG,Metro Manila"
1717,137607001,Tanyag (Bagong Tanyag),,Taguig,Metro Manila,"Tanyag (Bagong Tanyag),Taguig,Metro Manila"
1718,137607002,Bagumbayan,,Taguig,Metro Manila,"Bagumbayan,Taguig,Metro Manila"
1719,137607003,Bambang,,Taguig,Metro Manila,"Bambang,Taguig,Metro Manila"
1720,137607004,Calzada,,Taguig,Metro Manila,"Calzada,Taguig,Metro Manila"
1721,137607005,Hagonoy,,Taguig,Metro Manila,"Hagonoy,Taguig,Metro Manila"
1722,137607006,Ibayo-Tipas,,Taguig,Metro Manila,"Ibayo-Tipas,Taguig,Metro Manila"
1723,137607007,Ligid-Tipas,,Taguig,Metro Manila,"Ligid-Tipas,Taguig,Metro Manila"
1724,137607008,Lower Bicutan,,Taguig,Metro Manila,"Lower Bicutan,Taguig,Metro Manila"
1725,137607009,Maharlika Village,,Taguig,Metro Manila,"Maharlika Village,Taguig,Metro Manila"
1726,137607010,Napindan,,Taguig,Metro Manila,"Napindan,Taguig,Metro Manila"
1727,137607011,Palingon,,Taguig,Metro Manila,"Palingon,Taguig,Metro Manila"
1728,137607012,Santa Ana,,Taguig,Metro Manila,"Santa Ana,Taguig,Metro Manila"
1729,137607013,Central Signal Village (Signal Village),,Taguig,Metro Manila,"Central Signal Village (Signal Village),Taguig,Metro Manila"
1730,137607014,Tuktukan,,Taguig,Metro Manila,"Tuktukan,Taguig,Metro Manila"
1731,137607015,Upper Bicutan,,Taguig,Metro Manila,"Upper Bicutan,Taguig,Metro Manila"
1732,137607016,Ususan,,Taguig,Metro Manila,"Ususan,Taguig,Metro Manila"
1733,137607017,Wawa,,Taguig,Metro Manila,"Wawa,Taguig,Metro Manila"
1734,137607018,Western Bicutan,,Taguig,Metro Manila,"Western Bicutan,Taguig,Metro Manila"
1735,137607019,Central Bicutan,,Taguig,Metro Manila,"Central Bicutan,Taguig,Metro Manila"
1736,137607020,Fort Bonifacio,,Taguig,Metro Manila,"Fort Bonifacio,Taguig,Metro Manila"
1737,137607021,Katuparan,,Taguig,Metro Manila,"Katuparan,Taguig,Metro Manila"
1738,137607022,New Lower Bicutan,,Taguig,Metro Manila,"New Lower Bicutan,Taguig,Metro Manila"
1739,137607023,North Daang Hari,,Taguig,Metro Manila,"North Daang Hari,Taguig,Metro Manila"
1740,137607024,North Signal Village,,Taguig,Metro Manila,"North Signal Village,Taguig,Metro Manila"
1741,137607025,Pinagsama,,Taguig,Metro Manila,"Pinagsama,Taguig,Metro Manila"
1742,137607026,San Miguel,,Taguig,Metro Manila,"San Miguel,Taguig,Metro Manila"
1743,137607027,South Daang Hari,,Taguig,Metro Manila,"South Daang Hari,Taguig,Metro Manila"
1744,137607028,South Signal Village,,Taguig,Metro Manila,"South Signal Village,Taguig,Metro Manila"
